{
  "type": "FeatureCollection",
  "features": [
    {
      "type": "Feature",
      "properties": {},
      "geometry": {
        "type": "Polygon",
        "coordinates": [
          [
            [
              78.573559,
              17.420284
            ],
            [
              78.581087,
              17.420423
            ],
            [
              78.588906,
              17.42223
            ],
            [
              78.597745,
              17.427328
            ],
            [
              78.602261,
              17.427698
            ],
            [
              78.607021,
              17.427096
            ],
            [
              78.61144,
              17.424918
            ],
            [
              78.619259,
              17.430617
            ],
            [
              78.617656,
              17.438819
            ],
            [
              78.606389,
              17.442942
            ],
            [
              78.591212,
              17.442264
            ],
            [
              78.579135,
              17.438372
            ],
            [
              78.569917,
              17.431498
            ],
            [
              78.573559,
              17.420284
            ]
          ]
        ]
      }
    }
  ]
}