{
  "type": "FeatureCollection",
  "features": [
    {
      "type": "Feature",
      "properties": {},
      "geometry": {
        "type": "Polygon",
        "coordinates": [
          [
            [
              78.573473,
              17.39602
            ],
            [
              78.577475,
              17.389346
            ],
            [
              78.581351,
              17.389306
            ],
            [
              78.594369,
              17.387216
            ],
            [
              78.602879,
              17.387417
            ],
            [
              78.61556,
              17.386371
            ],
            [
              78.616234,
              17.391799
            ],
            [
              78.617246,
              17.401809
            ],
            [
              78.615982,
              17.408121
            ],
            [
              78.614886,
              17.413065
            ],
            [
              78.611979,
              17.412301
            ],
            [
              78.609402,
              17.412326
            ],
            [
              78.606966,
              17.411296
            ],
            [
              78.604354,
              17.410452
            ],
            [
              78.60111,
              17.409166
            ],
            [
              78.59715,
              17.40792
            ],
            [
              78.591041,
              17.40595
            ],
            [
              78.586487,
              17.404411
            ],
            [
              78.585393,
              17.404017
            ],
            [
              78.584342,
              17.403779
            ],
            [
              78.583205,
              17.402653
            ],
            [
              78.582025,
              17.401648
            ],
            [
              78.581141,
              17.401126
            ],
            [
              78.580382,
              17.401166
            ],
            [
              78.579161,
              17.401447
            ],
            [
              78.576296,
              17.40201
            ],
            [
              78.574442,
              17.400322
            ],
            [
              78.573473,
              17.39602
            ]
          ]
        ]
      }
    }
  ]
}