{
  "type": "FeatureCollection",
  "features": [
    {
      "type": "Feature",
      "properties": {},
      "geometry": {
        "type": "Polygon",
        "coordinates": [
          [
            [
              78.558696,
              17.392182
            ],
            [
              78.561209,
              17.390503
            ],
            [
              78.562172,
              17.391063
            ],
            [
              78.562047,
              17.395886
            ],
            [
              78.563555,
              17.395527
            ],
            [
              78.56657,
              17.393248
            ],
            [
              78.567953,
              17.393288
            ],
            [
              78.568832,
              17.394767
            ],
            [
              78.568455,
              17.395646
            ],
            [
              78.56812,
              17.396286
            ],
            [
              78.56967,
              17.397365
            ],
            [
              78.570131,
              17.397565
            ],
            [
              78.570843,
              17.397805
            ],
            [
              78.571513,
              17.396086
            ],
            [
              78.573272,
              17.397485
            ],
            [
              78.573566,
              17.400123
            ],
            [
              78.578341,
              17.40468
            ],
            [
              78.573314,
              17.416862
            ],
            [
              78.573272,
              17.4197
            ],
            [
              78.568958,
              17.422058
            ],
            [
              78.562256,
              17.421019
            ],
            [
              78.558989,
              17.42377
            ],
            [
              78.556601,
              17.420093
            ],
            [
              78.553292,
              17.414298
            ],
            [
              78.55434,
              17.407424
            ],
            [
              78.558486,
              17.401708
            ],
            [
              78.558696,
              17.392182
            ]
          ]
        ]
      }
    }
  ]
}