{
  "type": "FeatureCollection",
  "features": [
    {
      "type": "Feature",
      "properties": {},
      "geometry": {
        "type": "Polygon",
        "coordinates": [
          [
            [
              78.419759,
              17.498138
            ],
            [
              78.420614,
              17.497847
            ],
            [
              78.421753,
              17.497768
            ],
            [
              78.423373,
              17.499065
            ],
            [
              78.424212,
              17.49939
            ],
            [
              78.424808,
              17.500122
            ],
            [
              78.425724,
              17.50155
            ],
            [
              78.420387,
              17.502652
            ],
            [
              78.418397,
              17.502795
            ],
            [
              78.413744,
              17.502079
            ],
            [
              78.416045,
              17.500302
            ],
            [
              78.415894,
              17.499525
            ],
            [
              78.415432,
              17.49875
            ],
            [
              78.416357,
              17.498269
            ],
            [
              78.417313,
              17.497832
            ],
            [
              78.417522,
              17.49819
            ],
            [
              78.419759,
              17.498138
            ]
          ]
        ]
      }
    }
  ]
}