{
  "type": "FeatureCollection",
  "features": [
    {
      "type": "Feature",
      "properties": {},
      "geometry": {
        "type": "Polygon",
        "coordinates": [
          [
            [
              78.409136,
              17.480224
            ],
            [
              78.411022,
              17.480149
            ],
            [
              78.412751,
              17.480224
            ],
            [
              78.41595,
              17.481505
            ],
            [
              78.412547,
              17.483721
            ],
            [
              78.407384,
              17.490705
            ],
            [
              78.405167,
              17.488095
            ],
            [
              78.404066,
              17.483897
            ],
            [
              78.406739,
              17.481199
            ],
            [
              78.407884,
              17.480307
            ],
            [
              78.409136,
              17.480224
            ]
          ]
        ]
      }
    }
  ]
}