{
  "type": "FeatureCollection",
  "features": [
    {
      "type": "Feature",
      "properties": {},
      "geometry": {
        "type": "Polygon",
        "coordinates": [
          [
            [
              78.408964,
              17.492087
            ],
            [
              78.408357,
              17.491477
            ],
            [
              78.40796,
              17.49109
            ],
            [
              78.407611,
              17.4908
            ],
            [
              78.409241,
              17.488693
            ],
            [
              78.41253,
              17.484116
            ],
            [
              78.415568,
              17.482132
            ],
            [
              78.417343,
              17.480523
            ],
            [
              78.419207,
              17.481938
            ],
            [
              78.421166,
              17.483423
            ],
            [
              78.426366,
              17.487287
            ],
            [
              78.426204,
              17.491054
            ],
            [
              78.428974,
              17.491368
            ],
            [
              78.430187,
              17.493797
            ],
            [
              78.431955,
              17.495129
            ],
            [
              78.433178,
              17.497699
            ],
            [
              78.433872,
              17.498899
            ],
            [
              78.431365,
              17.501757
            ],
            [
              78.429458,
              17.500786
            ],
            [
              78.425805,
              17.501529
            ],
            [
              78.425157,
              17.500441
            ],
            [
              78.424279,
              17.499352
            ],
            [
              78.423271,
              17.498881
            ],
            [
              78.422493,
              17.49825
            ],
            [
              78.421795,
              17.497692
            ],
            [
              78.420506,
              17.497722
            ],
            [
              78.417662,
              17.498138
            ],
            [
              78.417377,
              17.497705
            ],
            [
              78.415231,
              17.498742
            ],
            [
              78.414251,
              17.497335
            ],
            [
              78.41394,
              17.496876
            ],
            [
              78.413537,
              17.496518
            ],
            [
              78.412834,
              17.495824
            ],
            [
              78.410484,
              17.493505
            ],
            [
              78.408964,
              17.492087
            ]
          ]
        ]
      }
    }
  ]
}