{
  "type": "FeatureCollection",
  "features": [
    {
      "type": "Feature",
      "properties": {},
      "geometry": {
        "type": "Polygon",
        "coordinates": [
          [
            [
              78.447388,
              17.511137
            ],
            [
              78.44853,
              17.510375
            ],
            [
              78.456319,
              17.507129
            ],
            [
              78.457396,
              17.507218
            ],
            [
              78.45837,
              17.507353
            ],
            [
              78.460326,
              17.507799
            ],
            [
              78.464869,
              17.507683
            ],
            [
              78.466638,
              17.513643
            ],
            [
              78.468008,
              17.521923
            ],
            [
              78.463152,
              17.52421
            ],
            [
              78.453213,
              17.52764
            ],
            [
              78.443276,
              17.522193
            ],
            [
              78.4375,
              17.516992
            ],
            [
              78.439666,
              17.515397
            ],
            [
              78.442068,
              17.514015
            ],
            [
              78.442648,
              17.51288
            ],
            [
              78.447388,
              17.511137
            ]
          ]
        ]
      }
    }
  ]
}