{
  "type": "FeatureCollection",
  "features": [
    {
      "type": "Feature",
      "properties": {},
      "geometry": {
        "type": "Polygon",
        "coordinates": [
          [
            [
              78.433072,
              17.486473
            ],
            [
              78.434648,
              17.486902
            ],
            [
              78.43863,
              17.48821
            ],
            [
              78.439291,
              17.49168
            ],
            [
              78.440078,
              17.493147
            ],
            [
              78.441023,
              17.495257
            ],
            [
              78.44147,
              17.496382
            ],
            [
              78.440315,
              17.496603
            ],
            [
              78.433384,
              17.497813
            ],
            [
              78.432033,
              17.495006
            ],
            [
              78.431735,
              17.494898
            ],
            [
              78.4303,
              17.493788
            ],
            [
              78.429665,
              17.492616
            ],
            [
              78.42912,
              17.491359
            ],
            [
              78.42801,
              17.490032
            ],
            [
              78.433072,
              17.486473
            ]
          ]
        ]
      }
    }
  ]
}