{
  "type": "FeatureCollection",
  "features": [
    {
      "type": "Feature",
      "properties": {},
      "geometry": {
        "type": "Polygon",
        "coordinates": [
          [
            [
              78.425512,
              17.501657
            ],
            [
              78.426432,
              17.501479
            ],
            [
              78.427907,
              17.501137
            ],
            [
              78.429408,
              17.500858
            ],
            [
              78.430383,
              17.501341
            ],
            [
              78.431193,
              17.501737
            ],
            [
              78.431266,
              17.501907
            ],
            [
              78.430106,
              17.50445
            ],
            [
              78.429047,
              17.505251
            ],
            [
              78.428441,
              17.505725
            ],
            [
              78.427813,
              17.506121
            ],
            [
              78.426241,
              17.507061
            ],
            [
              78.424131,
              17.507891
            ],
            [
              78.422602,
              17.510532
            ],
            [
              78.417821,
              17.507417
            ],
            [
              78.414792,
              17.505531
            ],
            [
              78.413981,
              17.504954
            ],
            [
              78.413722,
              17.502173
            ],
            [
              78.417484,
              17.502757
            ],
            [
              78.419818,
              17.502919
            ],
            [
              78.420588,
              17.50278
            ],
            [
              78.425512,
              17.501657
            ]
          ]
        ]
      }
    }
  ]
}