{
  "type": "FeatureCollection",
  "features": [
    {
      "type": "Feature",
      "properties": {},
      "geometry": {
        "type": "Polygon",
        "coordinates": [
          [
            [
              78.392963,
              17.483296
            ],
            [
              78.393581,
              17.484456
            ],
            [
              78.395245,
              17.487545
            ],
            [
              78.39637,
              17.490098
            ],
            [
              78.398775,
              17.494829
            ],
            [
              78.395114,
              17.496411
            ],
            [
              78.389981,
              17.48425
            ],
            [
              78.392963,
              17.483296
            ]
          ]
        ]
      }
    }
  ]
}