{
  "type": "FeatureCollection",
  "features": [
    {
      "type": "Feature",
      "properties": {},
      "geometry": {
        "type": "Polygon",
        "coordinates": [
          [
            [
              78.393145,
              17.483301
            ],
            [
              78.393533,
              17.482938
            ],
            [
              78.394009,
              17.482915
            ],
            [
              78.39903,
              17.484406
            ],
            [
              78.401145,
              17.487037
            ],
            [
              78.401659,
              17.488739
            ],
            [
              78.402248,
              17.491019
            ],
            [
              78.402873,
              17.493088
            ],
            [
              78.401145,
              17.493772
            ],
            [
              78.398864,
              17.494702
            ],
            [
              78.397908,
              17.492808
            ],
            [
              78.39629,
              17.489545
            ],
            [
              78.394561,
              17.485757
            ],
            [
              78.393145,
              17.483301
            ]
          ]
        ]
      }
    }
  ]
}