{
  "type": "FeatureCollection",
  "features": [
    {
      "type": "Feature",
      "properties": {},
      "geometry": {
        "type": "Polygon",
        "coordinates": [
          [
            [
              78.448749,
              17.482848
            ],
            [
              78.449721,
              17.484006
            ],
            [
              78.450498,
              17.488686
            ],
            [
              78.451761,
              17.496886
            ],
            [
              78.442337,
              17.497813
            ],
            [
              78.439374,
              17.491466
            ],
            [
              78.438791,
              17.487991
            ],
            [
              78.448749,
              17.482848
            ]
          ]
        ]
      }
    }
  ]
}