{
  "type": "FeatureCollection",
  "features": [
    {
      "type": "Feature",
      "properties": {},
      "geometry": {
        "type": "Polygon",
        "coordinates": [
          [
            [
              78.424209,
              17.508031
            ],
            [
              78.427422,
              17.506582
            ],
            [
              78.428749,
              17.505549
            ],
            [
              78.430124,
              17.504559
            ],
            [
              78.432237,
              17.507792
            ],
            [
              78.441008,
              17.511875
            ],
            [
              78.442074,
              17.512839
            ],
            [
              78.442059,
              17.513891
            ],
            [
              78.43963,
              17.515242
            ],
            [
              78.437313,
              17.516897
            ],
            [
              78.434378,
              17.519153
            ],
            [
              78.429889,
              17.516946
            ],
            [
              78.425021,
              17.515629
            ],
            [
              78.422696,
              17.515235
            ],
            [
              78.42206,
              17.514375
            ],
            [
              78.421114,
              17.512527
            ],
            [
              78.422341,
              17.512081
            ],
            [
              78.422713,
              17.511898
            ],
            [
              78.422944,
              17.511634
            ],
            [
              78.422668,
              17.510648
            ],
            [
              78.424209,
              17.508031
            ]
          ]
        ]
      }
    }
  ]
}