{
  "type": "FeatureCollection",
  "features": [
    {
      "type": "Feature",
      "properties": {},
      "geometry": {
        "type": "Polygon",
        "coordinates": [
          [
            [
              78.407735,
              17.505495
            ],
            [
              78.409434,
              17.505863
            ],
            [
              78.413914,
              17.505127
            ],
            [
              78.41766,
              17.507336
            ],
            [
              78.422565,
              17.510651
            ],
            [
              78.422829,
              17.511689
            ],
            [
              78.422594,
              17.511895
            ],
            [
              78.422187,
              17.512079
            ],
            [
              78.421466,
              17.512323
            ],
            [
              78.420801,
              17.512529
            ],
            [
              78.420781,
              17.512732
            ],
            [
              78.420016,
              17.51264
            ],
            [
              78.414764,
              17.515476
            ],
            [
              78.408584,
              17.51485
            ],
            [
              78.402714,
              17.513745
            ],
            [
              78.401246,
              17.508368
            ],
            [
              78.407735,
              17.505495
            ]
          ]
        ]
      }
    }
  ]
}