{
  "type": "FeatureCollection",
  "features": [
    {
      "type": "Feature",
      "properties": {},
      "geometry": {
        "type": "Polygon",
        "coordinates": [
          [
            [
              78.450726,
              17.489126
            ],
            [
              78.452307,
              17.48711
            ],
            [
              78.463262,
              17.486109
            ],
            [
              78.469987,
              17.496166
            ],
            [
              78.471258,
              17.501191
            ],
            [
              78.46521,
              17.507432
            ],
            [
              78.464711,
              17.507595
            ],
            [
              78.463856,
              17.507615
            ],
            [
              78.462472,
              17.507637
            ],
            [
              78.461063,
              17.507684
            ],
            [
              78.460116,
              17.507695
            ],
            [
              78.459629,
              17.50756
            ],
            [
              78.458174,
              17.507222
            ],
            [
              78.456585,
              17.507107
            ],
            [
              78.452399,
              17.499583
            ],
            [
              78.450726,
              17.489126
            ]
          ]
        ]
      }
    }
  ]
}