{
  "type": "FeatureCollection",
  "features": [
    {
      "type": "Feature",
      "properties": {},
      "geometry": {
        "type": "Polygon",
        "coordinates": [
          [
            [
              78.430147,
              17.463685
            ],
            [
              78.432402,
              17.464901
            ],
            [
              78.436157,
              17.470345
            ],
            [
              78.433153,
              17.471276
            ],
            [
              78.429623,
              17.473426
            ],
            [
              78.431498,
              17.483741
            ],
            [
              78.426491,
              17.487099
            ],
            [
              78.417307,
              17.48016
            ],
            [
              78.416707,
              17.468704
            ],
            [
              78.423915,
              17.463471
            ],
            [
              78.430147,
              17.463685
            ]
          ]
        ]
      }
    }
  ]
}