{
  "type": "FeatureCollection",
  "features": [
    {
      "type": "Feature",
      "properties": {},
      "geometry": {
        "type": "Polygon",
        "coordinates": [
          [
            [
              78.406922,
              17.491539
            ],
            [
              78.407551,
              17.490961
            ],
            [
              78.408333,
              17.491606
            ],
            [
              78.412604,
              17.495765
            ],
            [
              78.413862,
              17.496983
            ],
            [
              78.414912,
              17.498541
            ],
            [
              78.41561,
              17.499191
            ],
            [
              78.415943,
              17.500182
            ],
            [
              78.413655,
              17.50206
            ],
            [
              78.408502,
              17.499469
            ],
            [
              78.40131,
              17.494473
            ],
            [
              78.404137,
              17.493006
            ],
            [
              78.406922,
              17.491539
            ]
          ]
        ]
      }
    }
  ]
}