{
  "type": "FeatureCollection",
  "features": [
    {
      "type": "Feature",
      "properties": {},
      "geometry": {
        "type": "Polygon",
        "coordinates": [
          [
            [
              78.392483,
              17.501394
            ],
            [
              78.384007,
              17.49576
            ],
            [
              78.385891,
              17.492004
            ],
            [
              78.389786,
              17.478817
            ],
            [
              78.42125,
              17.476752
            ],
            [
              78.424932,
              17.482179
            ],
            [
              78.425218,
              17.490479
            ],
            [
              78.413971,
              17.503195
            ],
            [
              78.400145,
              17.502904
            ],
            [
              78.392483,
              17.501394
            ]
          ]
        ]
      }
    }
  ]
}