{
  "type": "FeatureCollection",
  "features": [
    {
      "type": "Feature",
      "properties": {},
      "geometry": {
        "type": "Polygon",
        "coordinates": [
          [
            [
              78.434142,
              17.456176
            ],
            [
              78.436099,
              17.451952
            ],
            [
              78.437643,
              17.44907
            ],
            [
              78.439678,
              17.450211
            ],
            [
              78.441484,
              17.451733
            ],
            [
              78.445064,
              17.451434
            ],
            [
              78.447856,
              17.451042
            ],
            [
              78.450174,
              17.450707
            ],
            [
              78.450347,
              17.453027
            ],
            [
              78.449762,
              17.455227
            ],
            [
              78.445471,
              17.455849
            ],
            [
              78.436407,
              17.457257
            ],
            [
              78.434142,
              17.456176
            ]
          ]
        ]
      }
    }
  ]
}