{
  "type": "FeatureCollection",
  "features": [
    {
      "type": "Feature",
      "properties": {},
      "geometry": {
        "type": "Polygon",
        "coordinates": [
          [
            [
              78.450356,
              17.456534
            ],
            [
              78.450351,
              17.45397
            ],
            [
              78.453469,
              17.454233
            ],
            [
              78.454495,
              17.456492
            ],
            [
              78.456034,
              17.461084
            ],
            [
              78.456113,
              17.464472
            ],
            [
              78.458481,
              17.465978
            ],
            [
              78.459901,
              17.469629
            ],
            [
              78.460651,
              17.471813
            ],
            [
              78.459941,
              17.47234
            ],
            [
              78.456074,
              17.472678
            ],
            [
              78.456042,
              17.471474
            ],
            [
              78.453119,
              17.466246
            ],
            [
              78.44937,
              17.464138
            ],
            [
              78.449883,
              17.459847
            ],
            [
              78.450356,
              17.456534
            ]
          ]
        ]
      }
    }
  ]
}