{
  "type": "FeatureCollection",
  "features": [
    {
      "type": "Feature",
      "properties": {},
      "geometry": {
        "type": "Polygon",
        "coordinates": [
          [
            [
              78.441229,
              17.44266
            ],
            [
              78.441484,
              17.442057
            ],
            [
              78.444497,
              17.435858
            ],
            [
              78.44733,
              17.432583
            ],
            [
              78.449128,
              17.432011
            ],
            [
              78.455667,
              17.435339
            ],
            [
              78.457193,
              17.438822
            ],
            [
              78.453487,
              17.442928
            ],
            [
              78.451965,
              17.443441
            ],
            [
              78.448939,
              17.444404
            ],
            [
              78.448376,
              17.441467
            ],
            [
              78.447239,
              17.441556
            ],
            [
              78.441229,
              17.44266
            ]
          ]
        ]
      }
    }
  ]
}