{
  "type": "FeatureCollection",
  "features": [
    {
      "type": "Feature",
      "properties": {},
      "geometry": {
        "type": "Polygon",
        "coordinates": [
          [
            [
              78.437795,
              17.449015
            ],
            [
              78.438468,
              17.44768
            ],
            [
              78.441127,
              17.442853
            ],
            [
              78.448178,
              17.441555
            ],
            [
              78.448876,
              17.444515
            ],
            [
              78.453215,
              17.443292
            ],
            [
              78.452362,
              17.445393
            ],
            [
              78.450621,
              17.450236
            ],
            [
              78.447708,
              17.450879
            ],
            [
              78.441475,
              17.451384
            ],
            [
              78.439936,
              17.450111
            ],
            [
              78.437795,
              17.449015
            ]
          ]
        ]
      }
    }
  ]
}