{
  "type": "FeatureCollection",
  "features": [
    {
      "type": "Feature",
      "properties": {},
      "geometry": {
        "type": "Polygon",
        "coordinates": [
          [
            [
              78.491796,
              17.381002
            ],
            [
              78.496176,
              17.382778
            ],
            [
              78.502197,
              17.387087
            ],
            [
              78.506641,
              17.385993
            ],
            [
              78.51001,
              17.386334
            ],
            [
              78.5116,
              17.386209
            ],
            [
              78.513672,
              17.384139
            ],
            [
              78.516709,
              17.380735
            ],
            [
              78.520034,
              17.378803
            ],
            [
              78.524849,
              17.382161
            ],
            [
              78.528723,
              17.381065
            ],
            [
              78.534387,
              17.386607
            ],
            [
              78.535766,
              17.3904
            ],
            [
              78.533386,
              17.392832
            ],
            [
              78.532153,
              17.394901
            ],
            [
              78.532425,
              17.396697
            ],
            [
              78.53281,
              17.397801
            ],
            [
              78.531373,
              17.397177
            ],
            [
              78.52929,
              17.396275
            ],
            [
              78.526397,
              17.395049
            ],
            [
              78.524349,
              17.394274
            ],
            [
              78.522405,
              17.393451
            ],
            [
              78.52035,
              17.392533
            ],
            [
              78.518114,
              17.392219
            ],
            [
              78.515511,
              17.391897
            ],
            [
              78.513027,
              17.391543
            ],
            [
              78.513705,
              17.391975
            ],
            [
              78.513401,
              17.392425
            ],
            [
              78.513016,
              17.392734
            ],
            [
              78.512636,
              17.39326
            ],
            [
              78.512109,
              17.393574
            ],
            [
              78.511301,
              17.393769
            ],
            [
              78.510442,
              17.393873
            ],
            [
              78.507772,
              17.394123
            ],
            [
              78.505239,
              17.39439
            ],
            [
              78.504683,
              17.39469
            ],
            [
              78.503911,
              17.393869
            ],
            [
              78.503605,
              17.394305
            ],
            [
              78.502565,
              17.394708
            ],
            [
              78.501517,
              17.394974
            ],
            [
              78.500259,
              17.394595
            ],
            [
              78.499238,
              17.394595
            ],
            [
              78.498845,
              17.394375
            ],
            [
              78.497137,
              17.3927
            ],
            [
              78.496079,
              17.38965
            ],
            [
              78.493292,
              17.389996
            ],
            [
              78.489019,
              17.39065
            ],
            [
              78.487777,
              17.38853
            ],
            [
              78.486983,
              17.38769
            ],
            [
              78.486295,
              17.386902
            ],
            [
              78.487579,
              17.384923
            ],
            [
              78.490524,
              17.384499
            ],
            [
              78.491398,
              17.38272
            ],
            [
              78.491796,
              17.381002
            ]
          ]
        ]
      }
    }
  ]
}