{
  "type": "FeatureCollection",
  "features": [
    {
      "type": "Feature",
      "properties": {},
      "geometry": {
        "type": "Polygon",
        "coordinates": [
          [
            [
              78.559642,
              17.401878
            ],
            [
              78.560214,
              17.401548
            ],
            [
              78.564571,
              17.401625
            ],
            [
              78.569835,
              17.401857
            ],
            [
              78.572965,
              17.401931
            ],
            [
              78.576506,
              17.401928
            ],
            [
              78.578646,
              17.401927
            ],
            [
              78.580948,
              17.401535
            ],
            [
              78.582341,
              17.40193
            ],
            [
              78.583896,
              17.403346
            ],
            [
              78.585452,
              17.404289
            ],
            [
              78.586274,
              17.405388
            ],
            [
              78.586272,
              17.40633
            ],
            [
              78.585116,
              17.408527
            ],
            [
              78.583966,
              17.41135
            ],
            [
              78.583473,
              17.413624
            ],
            [
              78.5824,
              17.416212
            ],
            [
              78.581741,
              17.417545
            ],
            [
              78.581245,
              17.418957
            ],
            [
              78.581403,
              17.421151
            ],
            [
              78.581481,
              17.423346
            ],
            [
              78.580573,
              17.424599
            ],
            [
              78.579745,
              17.426165
            ],
            [
              78.578426,
              17.4282
            ],
            [
              78.577683,
              17.429843
            ],
            [
              78.5762,
              17.432425
            ],
            [
              78.575624,
              17.433599
            ],
            [
              78.574722,
              17.435557
            ],
            [
              78.573327,
              17.435243
            ],
            [
              78.570872,
              17.434465
            ],
            [
              78.568414,
              17.433763
            ],
            [
              78.566112,
              17.432508
            ],
            [
              78.563236,
              17.431879
            ],
            [
              78.560229,
              17.430968
            ],
            [
              78.559907,
              17.430868
            ],
            [
              78.559796,
              17.430821
            ],
            [
              78.559684,
              17.430591
            ],
            [
              78.560828,
              17.427305
            ],
            [
              78.562039,
              17.424289
            ],
            [
              78.559965,
              17.423016
            ],
            [
              78.557806,
              17.422684
            ],
            [
              78.557262,
              17.424453
            ],
            [
              78.556736,
              17.424509
            ],
            [
              78.556291,
              17.42392
            ],
            [
              78.555639,
              17.422376
            ],
            [
              78.552823,
              17.423526
            ],
            [
              78.550892,
              17.425075
            ],
            [
              78.54955,
              17.426253
            ],
            [
              78.548667,
              17.425137
            ],
            [
              78.546952,
              17.42367
            ],
            [
              78.545116,
              17.422049
            ],
            [
              78.542555,
              17.419764
            ],
            [
              78.541719,
              17.419126
            ],
            [
              78.540173,
              17.419271
            ],
            [
              78.539106,
              17.418332
            ],
            [
              78.537381,
              17.416061
            ],
            [
              78.536477,
              17.413478
            ],
            [
              78.536722,
              17.410501
            ],
            [
              78.538281,
              17.407837
            ],
            [
              78.538691,
              17.405878
            ],
            [
              78.537869,
              17.403527
            ],
            [
              78.53795,
              17.400312
            ],
            [
              78.5391,
              17.401017
            ],
            [
              78.542879,
              17.401801
            ],
            [
              78.545179,
              17.401958
            ],
            [
              78.55019,
              17.401801
            ],
            [
              78.552491,
              17.401879
            ],
            [
              78.555532,
              17.401878
            ],
            [
              78.557258,
              17.401878
            ],
            [
              78.559642,
              17.401878
            ]
          ]
        ]
      }
    }
  ]
}