{
  "type": "FeatureCollection",
  "features": [
    {
      "type": "Feature",
      "properties": {},
      "geometry": {
        "type": "Polygon",
        "coordinates": [
          [
            [
              78.513962,
              17.391908
            ],
            [
              78.515111,
              17.392023
            ],
            [
              78.520266,
              17.392709
            ],
            [
              78.525953,
              17.395046
            ],
            [
              78.531615,
              17.397379
            ],
            [
              78.537031,
              17.399748
            ],
            [
              78.533562,
              17.422795
            ],
            [
              78.530791,
              17.426689
            ],
            [
              78.524695,
              17.420728
            ],
            [
              78.521622,
              17.414191
            ],
            [
              78.514155,
              17.405416
            ],
            [
              78.513659,
              17.405449
            ],
            [
              78.513106,
              17.405275
            ],
            [
              78.51182,
              17.404487
            ],
            [
              78.510206,
              17.402725
            ],
            [
              78.508363,
              17.400951
            ],
            [
              78.506692,
              17.399724
            ],
            [
              78.504182,
              17.396963
            ],
            [
              78.503437,
              17.396046
            ],
            [
              78.504895,
              17.394624
            ],
            [
              78.510387,
              17.394047
            ],
            [
              78.512221,
              17.393777
            ],
            [
              78.513158,
              17.392772
            ],
            [
              78.513689,
              17.392344
            ],
            [
              78.513962,
              17.391908
            ]
          ]
        ]
      }
    }
  ]
}