{
  "type": "FeatureCollection",
  "features": [
    {
      "type": "Feature",
      "properties": {},
      "geometry": {
        "type": "Polygon",
        "coordinates": [
          [
            [
              78.426784,
              17.454522
            ],
            [
              78.422149,
              17.454204
            ],
            [
              78.417806,
              17.459501
            ],
            [
              78.412963,
              17.458745
            ],
            [
              78.405572,
              17.459462
            ],
            [
              78.398056,
              17.462688
            ],
            [
              78.396344,
              17.459501
            ],
            [
              78.397012,
              17.459143
            ],
            [
              78.39722,
              17.454841
            ],
            [
              78.396636,
              17.451455
            ],
            [
              78.405334,
              17.450602
            ],
            [
              78.414563,
              17.448531
            ],
            [
              78.423582,
              17.446579
            ],
            [
              78.427298,
              17.446778
            ],
            [
              78.426784,
              17.454522
            ]
          ]
        ]
      }
    }
  ]
}