{
  "type": "FeatureCollection",
  "features": [
    {
      "type": "Feature",
      "properties": {},
      "geometry": {
        "type": "Polygon",
        "coordinates": [
          [
            [
              78.360336,
              17.482736
            ],
            [
              78.349484,
              17.482481
            ],
            [
              78.346392,
              17.48351
            ],
            [
              78.34347,
              17.485561
            ],
            [
              78.339737,
              17.488426
            ],
            [
              78.33546,
              17.486699
            ],
            [
              78.335442,
              17.483474
            ],
            [
              78.334272,
              17.478083
            ],
            [
              78.342775,
              17.475124
            ],
            [
              78.348925,
              17.470086
            ],
            [
              78.357986,
              17.465888
            ],
            [
              78.357986,
              17.462451
            ],
            [
              78.355523,
              17.459623
            ],
            [
              78.352933,
              17.455673
            ],
            [
              78.352706,
              17.451835
            ],
            [
              78.35282,
              17.444494
            ],
            [
              78.363041,
              17.442857
            ],
            [
              78.374009,
              17.447831
            ],
            [
              78.38628,
              17.444874
            ],
            [
              78.38855,
              17.441624
            ],
            [
              78.387949,
              17.436644
            ],
            [
              78.38885,
              17.431513
            ],
            [
              78.400078,
              17.436997
            ],
            [
              78.397859,
              17.442452
            ],
            [
              78.39429,
              17.445176
            ],
            [
              78.396863,
              17.451375
            ],
            [
              78.382439,
              17.453076
            ],
            [
              78.385651,
              17.467237
            ],
            [
              78.376156,
              17.478263
            ],
            [
              78.370449,
              17.481871
            ],
            [
              78.360336,
              17.482736
            ]
          ]
        ]
      }
    }
  ]
}