{
  "type": "FeatureCollection",
  "features": [
    {
      "type": "Feature",
      "properties": {},
      "geometry": {
        "type": "Polygon",
        "coordinates": [
          [
            [
              78.414526,
              17.519443
            ],
            [
              78.415246,
              17.514885
            ],
            [
              78.417636,
              17.509146
            ],
            [
              78.417175,
              17.507169
            ],
            [
              78.420832,
              17.506922
            ],
            [
              78.421523,
              17.507307
            ],
            [
              78.425324,
              17.508405
            ],
            [
              78.431169,
              17.512194
            ],
            [
              78.433731,
              17.512277
            ],
            [
              78.442254,
              17.512991
            ],
            [
              78.439288,
              17.515627
            ],
            [
              78.434537,
              17.519306
            ],
            [
              78.430478,
              17.516697
            ],
            [
              78.414526,
              17.519443
            ]
          ]
        ]
      }
    }
  ]
}