{
  "type": "FeatureCollection",
  "features": [
    {
      "type": "Feature",
      "properties": {},
      "geometry": {
        "type": "Polygon",
        "coordinates": [
          [
            [
              78.444031,
              17.512041
            ],
            [
              78.432135,
              17.507917
            ],
            [
              78.431498,
              17.50861
            ],
            [
              78.431508,
              17.509819
            ],
            [
              78.43197,
              17.511539
            ],
            [
              78.431161,
              17.512025
            ],
            [
              78.429931,
              17.51139
            ],
            [
              78.428887,
              17.51051
            ],
            [
              78.425344,
              17.508371
            ],
            [
              78.421543,
              17.50725
            ],
            [
              78.42003,
              17.50367
            ],
            [
              78.418929,
              17.50212
            ],
            [
              78.420448,
              17.491931
            ],
            [
              78.423896,
              17.489447
            ],
            [
              78.428285,
              17.491249
            ],
            [
              78.430599,
              17.493713
            ],
            [
              78.43148,
              17.49502
            ],
            [
              78.432012,
              17.495664
            ],
            [
              78.432771,
              17.49654
            ],
            [
              78.433441,
              17.497594
            ],
            [
              78.444031,
              17.512041
            ]
          ]
        ]
      }
    }
  ]
}