{
  "type": "FeatureCollection",
  "features": [
    {
      "type": "Feature",
      "properties": {},
      "geometry": {
        "type": "Polygon",
        "coordinates": [
          [
            [
              78.448634,
              17.480043
            ],
            [
              78.450479,
              17.488556
            ],
            [
              78.450519,
              17.48826
            ],
            [
              78.454777,
              17.4878
            ],
            [
              78.455443,
              17.491609
            ],
            [
              78.454308,
              17.49261
            ],
            [
              78.454272,
              17.493875
            ],
            [
              78.454769,
              17.494197
            ],
            [
              78.454918,
              17.494991
            ],
            [
              78.455532,
              17.494808
            ],
            [
              78.456387,
              17.495337
            ],
            [
              78.457235,
              17.496164
            ],
            [
              78.45702,
              17.496641
            ],
            [
              78.457132,
              17.49685
            ],
            [
              78.457498,
              17.496987
            ],
            [
              78.457396,
              17.497548
            ],
            [
              78.457025,
              17.497878
            ],
            [
              78.457228,
              17.498569
            ],
            [
              78.457803,
              17.498679
            ],
            [
              78.458275,
              17.498909
            ],
            [
              78.458548,
              17.499308
            ],
            [
              78.459253,
              17.498901
            ],
            [
              78.459964,
              17.499154
            ],
            [
              78.460584,
              17.499884
            ],
            [
              78.460535,
              17.500418
            ],
            [
              78.461194,
              17.50071
            ],
            [
              78.459782,
              17.501453
            ],
            [
              78.458376,
              17.502142
            ],
            [
              78.457659,
              17.502505
            ],
            [
              78.456866,
              17.502869
            ],
            [
              78.455633,
              17.503254
            ],
            [
              78.45192,
              17.49904
            ],
            [
              78.433101,
              17.502735
            ],
            [
              78.432629,
              17.500075
            ],
            [
              78.427062,
              17.489119
            ],
            [
              78.448634,
              17.480043
            ]
          ]
        ]
      }
    }
  ]
}