{
  "type": "FeatureCollection",
  "features": [
    {
      "type": "Feature",
      "properties": {},
      "geometry": {
        "type": "Polygon",
        "coordinates": [
          [
            [
              78.486337,
              17.480994
            ],
            [
              78.486354,
              17.480463
            ],
            [
              78.486402,
              17.479915
            ],
            [
              78.486428,
              17.479467
            ],
            [
              78.486508,
              17.479007
            ],
            [
              78.4864,
              17.47725
            ],
            [
              78.496229,
              17.473682
            ],
            [
              78.497141,
              17.470021
            ],
            [
              78.509819,
              17.471244
            ],
            [
              78.520618,
              17.468873
            ],
            [
              78.53148,
              17.47944
            ],
            [
              78.526486,
              17.485113
            ],
            [
              78.522304,
              17.489452
            ],
            [
              78.512793,
              17.490934
            ],
            [
              78.506213,
              17.491728
            ],
            [
              78.501634,
              17.4929
            ],
            [
              78.499137,
              17.496039
            ],
            [
              78.491482,
              17.4912
            ],
            [
              78.486895,
              17.487497
            ],
            [
              78.486337,
              17.480994
            ]
          ]
        ]
      }
    }
  ]
}