{
  "type": "FeatureCollection",
  "features": [
    {
      "type": "Feature",
      "properties": {},
      "geometry": {
        "type": "Polygon",
        "coordinates": [
          [
            [
              78.493113,
              17.498023
            ],
            [
              78.495497,
              17.497519
            ],
            [
              78.499355,
              17.496228
            ],
            [
              78.501694,
              17.493297
            ],
            [
              78.505856,
              17.492144
            ],
            [
              78.518319,
              17.490293
            ],
            [
              78.51962,
              17.49339
            ],
            [
              78.518147,
              17.509397
            ],
            [
              78.518381,
              17.510124
            ],
            [
              78.516444,
              17.510896
            ],
            [
              78.515325,
              17.511305
            ],
            [
              78.514182,
              17.51169
            ],
            [
              78.51351,
              17.511868
            ],
            [
              78.512652,
              17.511835
            ],
            [
              78.512068,
              17.511696
            ],
            [
              78.51163,
              17.511466
            ],
            [
              78.510308,
              17.510828
            ],
            [
              78.509068,
              17.510136
            ],
            [
              78.507838,
              17.509405
            ],
            [
              78.507339,
              17.509161
            ],
            [
              78.506767,
              17.509173
            ],
            [
              78.503274,
              17.50865
            ],
            [
              78.502719,
              17.510038
            ],
            [
              78.50239,
              17.511477
            ],
            [
              78.493056,
              17.513536
            ],
            [
              78.487526,
              17.507432
            ],
            [
              78.491572,
              17.506028
            ],
            [
              78.493113,
              17.498023
            ]
          ]
        ]
      }
    }
  ]
}