{
  "type": "FeatureCollection",
  "features": [
    {
      "type": "Feature",
      "properties": {},
      "geometry": {
        "type": "Polygon",
        "coordinates": [
          [
            [
              78.473582,
              17.471797
            ],
            [
              78.472511,
              17.470002
            ],
            [
              78.472782,
              17.464099
            ],
            [
              78.471236,
              17.455756
            ],
            [
              78.479578,
              17.456139
            ],
            [
              78.485189,
              17.461056
            ],
            [
              78.491024,
              17.462311
            ],
            [
              78.491999,
              17.464438
            ],
            [
              78.493393,
              17.466366
            ],
            [
              78.494843,
              17.469011
            ],
            [
              78.496001,
              17.469467
            ],
            [
              78.496966,
              17.470035
            ],
            [
              78.49618,
              17.473539
            ],
            [
              78.486295,
              17.477158
            ],
            [
              78.486401,
              17.478421
            ],
            [
              78.48628,
              17.480762
            ],
            [
              78.486426,
              17.483085
            ],
            [
              78.486612,
              17.487857
            ],
            [
              78.484226,
              17.490223
            ],
            [
              78.479501,
              17.489112
            ],
            [
              78.473854,
              17.487124
            ],
            [
              78.473515,
              17.480838
            ],
            [
              78.473582,
              17.471797
            ]
          ]
        ]
      }
    }
  ]
}