{
  "type": "FeatureCollection",
  "features": [
    {
      "type": "Feature",
      "properties": {},
      "geometry": {
        "type": "Polygon",
        "coordinates": [
          [
            [
              78.447483,
              17.512337
            ],
            [
              78.454114,
              17.506361
            ],
            [
              78.459655,
              17.507695
            ],
            [
              78.464734,
              17.507609
            ],
            [
              78.46638,
              17.506569
            ],
            [
              78.467278,
              17.505646
            ],
            [
              78.467843,
              17.5041
            ],
            [
              78.472633,
              17.500932
            ],
            [
              78.476879,
              17.498935
            ],
            [
              78.482564,
              17.503686
            ],
            [
              78.483899,
              17.506452
            ],
            [
              78.487121,
              17.514485
            ],
            [
              78.47851,
              17.517401
            ],
            [
              78.458404,
              17.532858
            ],
            [
              78.449309,
              17.527289
            ],
            [
              78.44289,
              17.523499
            ],
            [
              78.446703,
              17.518302
            ],
            [
              78.447483,
              17.512337
            ]
          ]
        ]
      }
    }
  ]
}