{
  "type": "FeatureCollection",
  "features": [
    {
      "type": "Feature",
      "properties": {},
      "geometry": {
        "type": "Polygon",
        "coordinates": [
          [
            [
              78.496695,
              17.453601
            ],
            [
              78.496528,
              17.448244
            ],
            [
              78.495888,
              17.443176
            ],
            [
              78.502824,
              17.442829
            ],
            [
              78.505691,
              17.442592
            ],
            [
              78.505609,
              17.44104
            ],
            [
              78.506883,
              17.440811
            ],
            [
              78.509885,
              17.439022
            ],
            [
              78.512169,
              17.436182
            ],
            [
              78.516337,
              17.439192
            ],
            [
              78.520902,
              17.439467
            ],
            [
              78.52464,
              17.438781
            ],
            [
              78.538497,
              17.433699
            ],
            [
              78.554167,
              17.440643
            ],
            [
              78.569499,
              17.451307
            ],
            [
              78.573793,
              17.461265
            ],
            [
              78.586447,
              17.478675
            ],
            [
              78.586606,
              17.491257
            ],
            [
              78.573226,
              17.492896
            ],
            [
              78.556834,
              17.497302
            ],
            [
              78.553354,
              17.486943
            ],
            [
              78.548568,
              17.483625
            ],
            [
              78.528321,
              17.477198
            ],
            [
              78.525569,
              17.476601
            ],
            [
              78.515677,
              17.466908
            ],
            [
              78.500676,
              17.461893
            ],
            [
              78.500512,
              17.460635
            ],
            [
              78.500508,
              17.459397
            ],
            [
              78.49961,
              17.45718
            ],
            [
              78.497959,
              17.454146
            ],
            [
              78.496695,
              17.453601
            ]
          ]
        ]
      }
    }
  ]
}