{
  "type": "FeatureCollection",
  "features": [
    {
      "type": "Feature",
      "properties": {},
      "geometry": {
        "type": "Polygon",
        "coordinates": [
          [
            [
              78.26749,
              17.521371
            ],
            [
              78.269535,
              17.526246
            ],
            [
              78.270728,
              17.529008
            ],
            [
              78.272689,
              17.534044
            ],
            [
              78.275329,
              17.540301
            ],
            [
              78.282574,
              17.540627
            ],
            [
              78.287175,
              17.547451
            ],
            [
              78.276504,
              17.554861
            ],
            [
              78.270262,
              17.568359
            ],
            [
              78.259039,
              17.571302
            ],
            [
              78.249585,
              17.561041
            ],
            [
              78.253984,
              17.533702
            ],
            [
              78.26749,
              17.521371
            ]
          ]
        ]
      }
    }
  ]
}