{
  "type": "FeatureCollection",
  "features": [
    {
      "type": "Feature",
      "properties": {},
      "geometry": {
        "type": "Polygon",
        "coordinates": [
          [
            [
              78.214838,
              17.528848
            ],
            [
              78.216803,
              17.529413
            ],
            [
              78.224928,
              17.542357
            ],
            [
              78.232884,
              17.560288
            ],
            [
              78.226043,
              17.562244
            ],
            [
              78.205782,
              17.561183
            ],
            [
              78.188442,
              17.55499
            ],
            [
              78.185798,
              17.544648
            ],
            [
              78.183502,
              17.529261
            ],
            [
              78.201,
              17.520864
            ],
            [
              78.214838,
              17.528848
            ]
          ]
        ]
      }
    }
  ]
}