{
  "type": "FeatureCollection",
  "features": [
    {
      "type": "Feature",
      "properties": {},
      "geometry": {
        "type": "Polygon",
        "coordinates": [
          [
            [
              78.210016,
              17.422413
            ],
            [
              78.217507,
              17.419702
            ],
            [
              78.250307,
              17.417671
            ],
            [
              78.256809,
              17.442786
            ],
            [
              78.248369,
              17.471517
            ],
            [
              78.241379,
              17.512474
            ],
            [
              78.20027,
              17.503772
            ],
            [
              78.138143,
              17.484691
            ],
            [
              78.128768,
              17.465039
            ],
            [
              78.122918,
              17.4471
            ],
            [
              78.210016,
              17.422413
            ]
          ]
        ]
      }
    }
  ]
}