{
  "type": "FeatureCollection",
  "features": [
    {
      "type": "Feature",
      "properties": {},
      "geometry": {
        "type": "Polygon",
        "coordinates": [
          [
            [
              78.349583,
              17.480264
            ],
            [
              78.349865,
              17.482542
            ],
            [
              78.353563,
              17.483085
            ],
            [
              78.358,
              17.486286
            ],
            [
              78.361299,
              17.487425
            ],
            [
              78.368352,
              17.486828
            ],
            [
              78.37426,
              17.496369
            ],
            [
              78.36564,
              17.495846
            ],
            [
              78.361812,
              17.496322
            ],
            [
              78.355139,
              17.49465
            ],
            [
              78.351299,
              17.493828
            ],
            [
              78.349888,
              17.493529
            ],
            [
              78.347224,
              17.493903
            ],
            [
              78.336446,
              17.495146
            ],
            [
              78.336409,
              17.493379
            ],
            [
              78.336252,
              17.492062
            ],
            [
              78.336133,
              17.487769
            ],
            [
              78.336204,
              17.483979
            ],
            [
              78.349583,
              17.480264
            ]
          ]
        ]
      }
    }
  ]
}