{
  "type": "FeatureCollection",
  "features": [
    {
      "type": "Feature",
      "properties": {},
      "geometry": {
        "type": "Polygon",
        "coordinates": [
          [
            [
              78.392089,
              17.433001
            ],
            [
              78.39579,
              17.434424
            ],
            [
              78.399414,
              17.438675
            ],
            [
              78.395866,
              17.442995
            ],
            [
              78.397677,
              17.450485
            ],
            [
              78.397753,
              17.455239
            ],
            [
              78.39579,
              17.459488
            ],
            [
              78.385545,
              17.463262
            ],
            [
              78.383191,
              17.452643
            ],
            [
              78.376439,
              17.440163
            ],
            [
              78.377172,
              17.43942
            ],
            [
              78.382348,
              17.439413
            ],
            [
              78.388462,
              17.436169
            ],
            [
              78.392089,
              17.433001
            ]
          ]
        ]
      }
    }
  ]
}