{
  "type": "FeatureCollection",
  "features": [
    {
      "type": "Feature",
      "properties": {},
      "geometry": {
        "type": "Polygon",
        "coordinates": [
          [
            [
              78.315953,
              17.496305
            ],
            [
              78.319535,
              17.495343
            ],
            [
              78.328254,
              17.495325
            ],
            [
              78.329321,
              17.507173
            ],
            [
              78.327596,
              17.526702
            ],
            [
              78.337049,
              17.534546
            ],
            [
              78.330883,
              17.539796
            ],
            [
              78.323179,
              17.537527
            ],
            [
              78.318711,
              17.537194
            ],
            [
              78.312966,
              17.528572
            ],
            [
              78.302664,
              17.508005
            ],
            [
              78.307365,
              17.505981
            ],
            [
              78.309439,
              17.50489
            ],
            [
              78.311312,
              17.502593
            ],
            [
              78.315953,
              17.496305
            ]
          ]
        ]
      }
    }
  ]
}