{
  "type": "FeatureCollection",
  "features": [
    {
      "type": "Feature",
      "properties": {},
      "geometry": {
        "type": "Polygon",
        "coordinates": [
          [
            [
              78.432738,
              17.494787
            ],
            [
              78.449135,
              17.50534
            ],
            [
              78.448387,
              17.508502
            ],
            [
              78.447889,
              17.510083
            ],
            [
              78.446728,
              17.514587
            ],
            [
              78.446231,
              17.51822
            ],
            [
              78.444159,
              17.521063
            ],
            [
              78.442833,
              17.522879
            ],
            [
              78.441096,
              17.525738
            ],
            [
              78.438447,
              17.529213
            ],
            [
              78.437122,
              17.533159
            ],
            [
              78.438363,
              17.534738
            ],
            [
              78.440017,
              17.536079
            ],
            [
              78.443246,
              17.537893
            ],
            [
              78.442335,
              17.540339
            ],
            [
              78.442417,
              17.543179
            ],
            [
              78.441506,
              17.545702
            ],
            [
              78.441175,
              17.545702
            ],
            [
              78.437866,
              17.544993
            ],
            [
              78.434061,
              17.544678
            ],
            [
              78.431495,
              17.544048
            ],
            [
              78.430172,
              17.543416
            ],
            [
              78.428848,
              17.543259
            ],
            [
              78.427689,
              17.54168
            ],
            [
              78.424875,
              17.537973
            ],
            [
              78.420079,
              17.535997
            ],
            [
              78.416104,
              17.533317
            ],
            [
              78.415032,
              17.530711
            ],
            [
              78.415611,
              17.528345
            ],
            [
              78.415358,
              17.523769
            ],
            [
              78.415764,
              17.519426
            ],
            [
              78.41659,
              17.516507
            ],
            [
              78.415428,
              17.513508
            ],
            [
              78.412612,
              17.509875
            ],
            [
              78.41104,
              17.507268
            ],
            [
              78.40789,
              17.504741
            ],
            [
              78.408138,
              17.500238
            ],
            [
              78.406408,
              17.496608
            ],
            [
              78.410874,
              17.494157
            ],
            [
              78.414266,
              17.493049
            ],
            [
              78.429424,
              17.494628
            ],
            [
              78.432738,
              17.494787
            ]
          ]
        ]
      }
    }
  ]
}