{
  "type": "FeatureCollection",
  "features": [
    {
      "type": "Feature",
      "properties": {},
      "geometry": {
        "type": "Polygon",
        "coordinates": [
          [
            [
              78.532432,
              17.44232
            ],
            [
              78.532823,
              17.443001
            ],
            [
              78.533186,
              17.44369
            ],
            [
              78.533725,
              17.444332
            ],
            [
              78.534142,
              17.445097
            ],
            [
              78.534715,
              17.445426
            ],
            [
              78.53528,
              17.44594
            ],
            [
              78.535621,
              17.446665
            ],
            [
              78.535828,
              17.447365
            ],
            [
              78.53607,
              17.447966
            ],
            [
              78.536353,
              17.448495
            ],
            [
              78.535838,
              17.449753
            ],
            [
              78.535007,
              17.449947
            ],
            [
              78.53229,
              17.450195
            ],
            [
              78.531352,
              17.450992
            ],
            [
              78.530243,
              17.451745
            ],
            [
              78.528803,
              17.452345
            ],
            [
              78.527746,
              17.45263
            ],
            [
              78.526973,
              17.45302
            ],
            [
              78.526327,
              17.453194
            ],
            [
              78.526096,
              17.453165
            ],
            [
              78.525891,
              17.453009
            ],
            [
              78.52562,
              17.452628
            ],
            [
              78.525487,
              17.45218
            ],
            [
              78.525176,
              17.451235
            ],
            [
              78.52491,
              17.450338
            ],
            [
              78.52464,
              17.449533
            ],
            [
              78.524558,
              17.449041
            ],
            [
              78.524409,
              17.448537
            ],
            [
              78.524101,
              17.447712
            ],
            [
              78.523852,
              17.446871
            ],
            [
              78.523738,
              17.445843
            ],
            [
              78.5239,
              17.444892
            ],
            [
              78.524384,
              17.444277
            ],
            [
              78.525019,
              17.443743
            ],
            [
              78.526282,
              17.443403
            ],
            [
              78.527427,
              17.443094
            ],
            [
              78.528107,
              17.44282
            ],
            [
              78.529086,
              17.442375
            ],
            [
              78.530604,
              17.442147
            ],
            [
              78.531962,
              17.442235
            ],
            [
              78.532432,
              17.44232
            ]
          ]
        ]
      }
    }
  ]
}