{
  "type": "FeatureCollection",
  "features": [
    {
      "type": "Feature",
      "properties": {},
      "geometry": {
        "type": "Polygon",
        "coordinates": [
          [
            [
              78.558307,
              17.476068
            ],
            [
              78.558787,
              17.476554
            ],
            [
              78.559305,
              17.477789
            ],
            [
              78.560168,
              17.478242
            ],
            [
              78.561679,
              17.477666
            ],
            [
              78.562801,
              17.477131
            ],
            [
              78.563401,
              17.47755
            ],
            [
              78.563573,
              17.478497
            ],
            [
              78.56353,
              17.479485
            ],
            [
              78.561631,
              17.479979
            ],
            [
              78.560379,
              17.480473
            ],
            [
              78.559689,
              17.481667
            ],
            [
              78.558018,
              17.483326
            ],
            [
              78.556771,
              17.484093
            ],
            [
              78.556105,
              17.484701
            ],
            [
              78.554886,
              17.485706
            ],
            [
              78.553732,
              17.485125
            ],
            [
              78.552912,
              17.484631
            ],
            [
              78.552783,
              17.484013
            ],
            [
              78.552783,
              17.48319
            ],
            [
              78.552783,
              17.482367
            ],
            [
              78.55179,
              17.482284
            ],
            [
              78.550797,
              17.482902
            ],
            [
              78.548769,
              17.483725
            ],
            [
              78.548682,
              17.483684
            ],
            [
              78.547646,
              17.483314
            ],
            [
              78.545963,
              17.483314
            ],
            [
              78.544668,
              17.48319
            ],
            [
              78.544798,
              17.482943
            ],
            [
              78.544841,
              17.482326
            ],
            [
              78.544927,
              17.481132
            ],
            [
              78.544582,
              17.480144
            ],
            [
              78.543978,
              17.47932
            ],
            [
              78.543546,
              17.478579
            ],
            [
              78.542812,
              17.477262
            ],
            [
              78.542424,
              17.476438
            ],
            [
              78.541617,
              17.475486
            ],
            [
              78.541343,
              17.474508
            ],
            [
              78.54247,
              17.473952
            ],
            [
              78.543655,
              17.473431
            ],
            [
              78.544711,
              17.47302
            ],
            [
              78.545127,
              17.472826
            ],
            [
              78.545477,
              17.472694
            ],
            [
              78.546133,
              17.472471
            ],
            [
              78.547568,
              17.472103
            ],
            [
              78.548742,
              17.471727
            ],
            [
              78.55021,
              17.471255
            ],
            [
              78.551048,
              17.470991
            ],
            [
              78.551833,
              17.470861
            ],
            [
              78.552955,
              17.47066
            ],
            [
              78.553819,
              17.470757
            ],
            [
              78.555369,
              17.470987
            ],
            [
              78.556462,
              17.471497
            ],
            [
              78.557252,
              17.471253
            ],
            [
              78.557919,
              17.471333
            ],
            [
              78.557789,
              17.472321
            ],
            [
              78.557789,
              17.472939
            ],
            [
              78.557876,
              17.473968
            ],
            [
              78.557876,
              17.474586
            ],
            [
              78.558307,
              17.476068
            ]
          ]
        ]
      }
    }
  ]
}