{
  "type": "FeatureCollection",
  "features": [
    {
      "type": "Feature",
      "properties": {},
      "geometry": {
        "type": "Polygon",
        "coordinates": [
          [
            [
              78.565855,
              17.451309
            ],
            [
              78.567675,
              17.45073
            ],
            [
              78.573367,
              17.448327
            ],
            [
              78.573693,
              17.449528
            ],
            [
              78.572807,
              17.451487
            ],
            [
              78.57094,
              17.456516
            ],
            [
              78.571407,
              17.460744
            ],
            [
              78.570661,
              17.461634
            ],
            [
              78.565482,
              17.466975
            ],
            [
              78.564315,
              17.467375
            ],
            [
              78.562869,
              17.46604
            ],
            [
              78.562263,
              17.463637
            ],
            [
              78.558717,
              17.461056
            ],
            [
              78.556197,
              17.455938
            ],
            [
              78.561376,
              17.453668
            ],
            [
              78.560956,
              17.450597
            ],
            [
              78.565855,
              17.451309
            ]
          ]
        ]
      }
    }
  ]
}