{
  "type": "FeatureCollection",
  "features": [
    {
      "type": "Feature",
      "properties": {},
      "geometry": {
        "type": "Polygon",
        "coordinates": [
          [
            [
              78.568232,
              17.499533
            ],
            [
              78.56926,
              17.498702
            ],
            [
              78.571319,
              17.497607
            ],
            [
              78.576033,
              17.496285
            ],
            [
              78.579719,
              17.496134
            ],
            [
              78.581739,
              17.497871
            ],
            [
              78.586016,
              17.50044
            ],
            [
              78.58867,
              17.501951
            ],
            [
              78.585858,
              17.504293
            ],
            [
              78.583046,
              17.506975
            ],
            [
              78.57857,
              17.510261
            ],
            [
              78.574886,
              17.51283
            ],
            [
              78.571322,
              17.514945
            ],
            [
              78.57053,
              17.514945
            ],
            [
              78.567282,
              17.512679
            ],
            [
              78.564153,
              17.513132
            ],
            [
              78.557617,
              17.512566
            ],
            [
              78.55734,
              17.507315
            ],
            [
              78.56443,
              17.505275
            ],
            [
              78.566252,
              17.504255
            ],
            [
              78.566688,
              17.501536
            ],
            [
              78.568232,
              17.499533
            ]
          ]
        ]
      }
    }
  ]
}