{
  "type": "FeatureCollection",
  "features": [
    {
      "type": "Feature",
      "properties": {},
      "geometry": {
        "type": "Polygon",
        "coordinates": [
          [
            [
              78.574151,
              17.491364
            ],
            [
              78.573517,
              17.491767
            ],
            [
              78.572207,
              17.492171
            ],
            [
              78.571234,
              17.492412
            ],
            [
              78.569628,
              17.492654
            ],
            [
              78.568782,
              17.493461
            ],
            [
              78.566161,
              17.494146
            ],
            [
              78.565062,
              17.494872
            ],
            [
              78.563963,
              17.494912
            ],
            [
              78.561933,
              17.494993
            ],
            [
              78.561088,
              17.495114
            ],
            [
              78.559904,
              17.49588
            ],
            [
              78.558974,
              17.49592
            ],
            [
              78.55788,
              17.496583
            ],
            [
              78.556701,
              17.497593
            ],
            [
              78.556691,
              17.496445
            ],
            [
              78.556148,
              17.495826
            ],
            [
              78.555979,
              17.495275
            ],
            [
              78.555498,
              17.494403
            ],
            [
              78.555185,
              17.493393
            ],
            [
              78.555127,
              17.492453
            ],
            [
              78.554607,
              17.491579
            ],
            [
              78.554583,
              17.489904
            ],
            [
              78.554289,
              17.488507
            ],
            [
              78.554072,
              17.486877
            ],
            [
              78.555338,
              17.486364
            ],
            [
              78.556226,
              17.485477
            ],
            [
              78.556902,
              17.485074
            ],
            [
              78.558298,
              17.483945
            ],
            [
              78.559354,
              17.482654
            ],
            [
              78.560834,
              17.481324
            ],
            [
              78.561807,
              17.480517
            ],
            [
              78.563498,
              17.480114
            ],
            [
              78.563498,
              17.481203
            ],
            [
              78.56447,
              17.482896
            ],
            [
              78.565062,
              17.484308
            ],
            [
              78.565485,
              17.485558
            ],
            [
              78.565696,
              17.486485
            ],
            [
              78.566626,
              17.487533
            ],
            [
              78.567472,
              17.488542
            ],
            [
              78.568824,
              17.489025
            ],
            [
              78.570135,
              17.489267
            ],
            [
              78.57153,
              17.490114
            ],
            [
              78.57246,
              17.490558
            ],
            [
              78.573306,
              17.491001
            ],
            [
              78.574151,
              17.491364
            ]
          ]
        ]
      }
    }
  ]
}