{
  "type": "FeatureCollection",
  "features": [
    {
      "type": "Feature",
      "properties": {},
      "geometry": {
        "type": "Polygon",
        "coordinates": [
          [
            [
              78.571441,
              17.462001
            ],
            [
              78.572933,
              17.46212
            ],
            [
              78.576847,
              17.464017
            ],
            [
              78.583935,
              17.474807
            ],
            [
              78.587111,
              17.479907
            ],
            [
              78.588666,
              17.48394
            ],
            [
              78.587921,
              17.487735
            ],
            [
              78.5822,
              17.487141
            ],
            [
              78.58108,
              17.485006
            ],
            [
              78.57567,
              17.481269
            ],
            [
              78.570509,
              17.473383
            ],
            [
              78.566096,
              17.470005
            ],
            [
              78.565288,
              17.467753
            ],
            [
              78.56852,
              17.464314
            ],
            [
              78.571441,
              17.462001
            ]
          ]
        ]
      }
    }
  ]
}