{
  "type": "FeatureCollection",
  "features": [
    {
      "type": "Feature",
      "properties": {},
      "geometry": {
        "type": "Polygon",
        "coordinates": [
          [
            [
              78.546573,
              17.463523
            ],
            [
              78.547777,
              17.463113
            ],
            [
              78.549584,
              17.46221
            ],
            [
              78.551046,
              17.462128
            ],
            [
              78.55053,
              17.465492
            ],
            [
              78.551648,
              17.466395
            ],
            [
              78.552422,
              17.466436
            ],
            [
              78.552551,
              17.467256
            ],
            [
              78.552551,
              17.46861
            ],
            [
              78.553131,
              17.469487
            ],
            [
              78.553494,
              17.469938
            ],
            [
              78.553882,
              17.470167
            ],
            [
              78.554623,
              17.470777
            ],
            [
              78.552926,
              17.470611
            ],
            [
              78.551658,
              17.47075
            ],
            [
              78.549344,
              17.471453
            ],
            [
              78.547635,
              17.471971
            ],
            [
              78.545884,
              17.472437
            ],
            [
              78.54368,
              17.473292
            ],
            [
              78.541235,
              17.474353
            ],
            [
              78.541326,
              17.475297
            ],
            [
              78.539993,
              17.475133
            ],
            [
              78.538401,
              17.474477
            ],
            [
              78.53909,
              17.4714
            ],
            [
              78.538574,
              17.464959
            ],
            [
              78.541326,
              17.463974
            ],
            [
              78.543132,
              17.463523
            ],
            [
              78.546573,
              17.463523
            ]
          ]
        ]
      }
    }
  ]
}