{
  "type": "FeatureCollection",
  "features": [
    {
      "type": "Feature",
      "properties": {},
      "geometry": {
        "type": "Polygon",
        "coordinates": [
          [
            [
              78.554419,
              17.490665
            ],
            [
              78.554443,
              17.491682
            ],
            [
              78.554678,
              17.492763
            ],
            [
              78.555029,
              17.493807
            ],
            [
              78.555186,
              17.495111
            ],
            [
              78.555772,
              17.496043
            ],
            [
              78.556163,
              17.496901
            ],
            [
              78.556241,
              17.497311
            ],
            [
              78.555967,
              17.497683
            ],
            [
              78.553427,
              17.498802
            ],
            [
              78.553193,
              17.49951
            ],
            [
              78.553193,
              17.500404
            ],
            [
              78.553075,
              17.500889
            ],
            [
              78.552137,
              17.501523
            ],
            [
              78.551278,
              17.502119
            ],
            [
              78.5503,
              17.50279
            ],
            [
              78.548581,
              17.503647
            ],
            [
              78.547643,
              17.504281
            ],
            [
              78.546314,
              17.504467
            ],
            [
              78.545806,
              17.504654
            ],
            [
              78.545415,
              17.504579
            ],
            [
              78.545532,
              17.504057
            ],
            [
              78.545586,
              17.503002
            ],
            [
              78.545547,
              17.502555
            ],
            [
              78.545039,
              17.502592
            ],
            [
              78.54457,
              17.502704
            ],
            [
              78.543945,
              17.502779
            ],
            [
              78.543593,
              17.502704
            ],
            [
              78.543398,
              17.502406
            ],
            [
              78.542733,
              17.501959
            ],
            [
              78.541795,
              17.501661
            ],
            [
              78.540975,
              17.501549
            ],
            [
              78.540271,
              17.501586
            ],
            [
              78.539841,
              17.501772
            ],
            [
              78.539411,
              17.501661
            ],
            [
              78.539216,
              17.501623
            ],
            [
              78.539216,
              17.501362
            ],
            [
              78.539333,
              17.501102
            ],
            [
              78.539685,
              17.500542
            ],
            [
              78.540115,
              17.500132
            ],
            [
              78.540779,
              17.499424
            ],
            [
              78.541404,
              17.498791
            ],
            [
              78.541991,
              17.49812
            ],
            [
              78.542733,
              17.497337
            ],
            [
              78.543788,
              17.496144
            ],
            [
              78.544687,
              17.495473
            ],
            [
              78.545743,
              17.49428
            ],
            [
              78.546954,
              17.492864
            ],
            [
              78.547853,
              17.492118
            ],
            [
              78.549104,
              17.491112
            ],
            [
              78.550042,
              17.490217
            ],
            [
              78.550941,
              17.489062
            ],
            [
              78.552074,
              17.488242
            ],
            [
              78.553711,
              17.486992
            ],
            [
              78.554169,
              17.489058
            ],
            [
              78.553911,
              17.489546
            ],
            [
              78.554224,
              17.489994
            ],
            [
              78.554419,
              17.490441
            ],
            [
              78.554419,
              17.490665
            ]
          ]
        ]
      }
    }
  ]
}