{
  "type": "FeatureCollection",
  "features": [
    {
      "type": "Feature",
      "properties": {},
      "geometry": {
        "type": "Polygon",
        "coordinates": [
          [
            [
              78.548803,
              17.451176
            ],
            [
              78.549814,
              17.450733
            ],
            [
              78.551074,
              17.45053
            ],
            [
              78.551932,
              17.450537
            ],
            [
              78.552473,
              17.451276
            ],
            [
              78.55298,
              17.452025
            ],
            [
              78.553534,
              17.452692
            ],
            [
              78.553919,
              17.45327
            ],
            [
              78.554271,
              17.453856
            ],
            [
              78.554558,
              17.454221
            ],
            [
              78.554796,
              17.454906
            ],
            [
              78.554212,
              17.454859
            ],
            [
              78.553253,
              17.455117
            ],
            [
              78.552262,
              17.455384
            ],
            [
              78.551435,
              17.455607
            ],
            [
              78.550746,
              17.455929
            ],
            [
              78.550249,
              17.456301
            ],
            [
              78.550365,
              17.457053
            ],
            [
              78.550433,
              17.457886
            ],
            [
              78.55069,
              17.458634
            ],
            [
              78.550839,
              17.459138
            ],
            [
              78.550908,
              17.459971
            ],
            [
              78.550929,
              17.460646
            ],
            [
              78.550877,
              17.46083
            ],
            [
              78.551035,
              17.461366
            ],
            [
              78.551068,
              17.461596
            ],
            [
              78.551048,
              17.461771
            ],
            [
              78.549453,
              17.461929
            ],
            [
              78.547686,
              17.462711
            ],
            [
              78.546973,
              17.463074
            ],
            [
              78.546313,
              17.463013
            ],
            [
              78.545247,
              17.463028
            ],
            [
              78.544029,
              17.463016
            ],
            [
              78.543307,
              17.463108
            ],
            [
              78.54225,
              17.463393
            ],
            [
              78.541574,
              17.463643
            ],
            [
              78.540824,
              17.46388
            ],
            [
              78.540196,
              17.464049
            ],
            [
              78.539204,
              17.464316
            ],
            [
              78.539072,
              17.464352
            ],
            [
              78.53868,
              17.464355
            ],
            [
              78.53861,
              17.464238
            ],
            [
              78.538183,
              17.4634
            ],
            [
              78.537408,
              17.462349
            ],
            [
              78.536793,
              17.461596
            ],
            [
              78.536365,
              17.460996
            ],
            [
              78.536245,
              17.460348
            ],
            [
              78.536387,
              17.460105
            ],
            [
              78.536855,
              17.459638
            ],
            [
              78.537051,
              17.458973
            ],
            [
              78.537402,
              17.458231
            ],
            [
              78.537531,
              17.457822
            ],
            [
              78.53717,
              17.457205
            ],
            [
              78.537157,
              17.456561
            ],
            [
              78.53716,
              17.455845
            ],
            [
              78.537189,
              17.455463
            ],
            [
              78.538004,
              17.454358
            ],
            [
              78.538354,
              17.454094
            ],
            [
              78.538855,
              17.453857
            ],
            [
              78.539261,
              17.453543
            ],
            [
              78.540088,
              17.453082
            ],
            [
              78.540576,
              17.45244
            ],
            [
              78.543068,
              17.452177
            ],
            [
              78.544779,
              17.451205
            ],
            [
              78.545601,
              17.450847
            ],
            [
              78.545766,
              17.450803
            ],
            [
              78.546606,
              17.450747
            ],
            [
              78.547978,
              17.450921
            ],
            [
              78.548293,
              17.451143
            ],
            [
              78.548803,
              17.451176
            ]
          ]
        ]
      }
    }
  ]
}