{
  "type": "FeatureCollection",
  "features": [
    {
      "type": "Feature",
      "properties": {},
      "geometry": {
        "type": "Polygon",
        "coordinates": [
          [
            [
              78.548473,
              17.484511
            ],
            [
              78.551824,
              17.482977
            ],
            [
              78.552241,
              17.484777
            ],
            [
              78.553517,
              17.486471
            ],
            [
              78.546163,
              17.492959
            ],
            [
              78.542988,
              17.496659
            ],
            [
              78.538964,
              17.500867
            ],
            [
              78.536534,
              17.498972
            ],
            [
              78.535079,
              17.49798
            ],
            [
              78.534143,
              17.497534
            ],
            [
              78.533727,
              17.497038
            ],
            [
              78.533103,
              17.496394
            ],
            [
              78.534438,
              17.494675
            ],
            [
              78.534905,
              17.493783
            ],
            [
              78.535425,
              17.492791
            ],
            [
              78.535165,
              17.491551
            ],
            [
              78.533138,
              17.490213
            ],
            [
              78.531422,
              17.489072
            ],
            [
              78.529759,
              17.487833
            ],
            [
              78.528771,
              17.486593
            ],
            [
              78.528252,
              17.485751
            ],
            [
              78.52742,
              17.484412
            ],
            [
              78.528771,
              17.483222
            ],
            [
              78.529759,
              17.482131
            ],
            [
              78.530903,
              17.480842
            ],
            [
              78.53215,
              17.479801
            ],
            [
              78.53423,
              17.481635
            ],
            [
              78.536153,
              17.482478
            ],
            [
              78.537297,
              17.482875
            ],
            [
              78.538804,
              17.483222
            ],
            [
              78.540935,
              17.483619
            ],
            [
              78.543015,
              17.483718
            ],
            [
              78.544262,
              17.483866
            ],
            [
              78.545874,
              17.483866
            ],
            [
              78.547329,
              17.484114
            ],
            [
              78.548473,
              17.484511
            ]
          ]
        ]
      }
    }
  ]
}