{
  "type": "FeatureCollection",
  "features": [
    {
      "type": "Feature",
      "properties": {},
      "geometry": {
        "type": "Polygon",
        "coordinates": [
          [
            [
              78.550751,
              17.456334
            ],
            [
              78.552914,
              17.455667
            ],
            [
              78.555228,
              17.455256
            ],
            [
              78.555927,
              17.456437
            ],
            [
              78.558294,
              17.461261
            ],
            [
              78.559693,
              17.46198
            ],
            [
              78.561952,
              17.463878
            ],
            [
              78.561845,
              17.46588
            ],
            [
              78.560446,
              17.468651
            ],
            [
              78.558401,
              17.471012
            ],
            [
              78.55625,
              17.471269
            ],
            [
              78.553775,
              17.469986
            ],
            [
              78.553472,
              17.469738
            ],
            [
              78.553054,
              17.469151
            ],
            [
              78.552645,
              17.468241
            ],
            [
              78.553129,
              17.467009
            ],
            [
              78.552699,
              17.465932
            ],
            [
              78.551569,
              17.466086
            ],
            [
              78.550805,
              17.465316
            ],
            [
              78.551397,
              17.461415
            ],
            [
              78.550751,
              17.456334
            ]
          ]
        ]
      }
    }
  ]
}