{
  "type": "FeatureCollection",
  "features": [
    {
      "type": "Feature",
      "properties": {},
      "geometry": {
        "type": "Polygon",
        "coordinates": [
          [
            [
              78.521884,
              17.515872
            ],
            [
              78.52062,
              17.513106
            ],
            [
              78.518974,
              17.510549
            ],
            [
              78.519755,
              17.501233
            ],
            [
              78.53342,
              17.494517
            ],
            [
              78.543949,
              17.496483
            ],
            [
              78.553069,
              17.500579
            ],
            [
              78.557514,
              17.504945
            ],
            [
              78.573024,
              17.504679
            ],
            [
              78.571459,
              17.516007
            ],
            [
              78.58775,
              17.527317
            ],
            [
              78.601583,
              17.532044
            ],
            [
              78.60089,
              17.549066
            ],
            [
              78.580291,
              17.556384
            ],
            [
              78.5588,
              17.54955
            ],
            [
              78.533374,
              17.538547
            ],
            [
              78.524419,
              17.530022
            ],
            [
              78.523055,
              17.527075
            ],
            [
              78.52267,
              17.522939
            ],
            [
              78.521884,
              17.515872
            ]
          ]
        ]
      }
    }
  ]
}