{
  "type": "FeatureCollection",
  "features": [
    {
      "type": "Feature",
      "properties": {},
      "geometry": {
        "type": "Polygon",
        "coordinates": [
          [
            [
              78.585419,
              17.409663
            ],
            [
              78.586788,
              17.409953
            ],
            [
              78.592723,
              17.411622
            ],
            [
              78.591652,
              17.422992
            ],
            [
              78.586602,
              17.428006
            ],
            [
              78.585584,
              17.436318
            ],
            [
              78.568416,
              17.427978
            ],
            [
              78.566776,
              17.424479
            ],
            [
              78.567829,
              17.423458
            ],
            [
              78.568866,
              17.422572
            ],
            [
              78.571155,
              17.421126
            ],
            [
              78.571686,
              17.420291
            ],
            [
              78.572399,
              17.419996
            ],
            [
              78.573951,
              17.419664
            ],
            [
              78.575977,
              17.41978
            ],
            [
              78.578768,
              17.420213
            ],
            [
              78.581036,
              17.419621
            ],
            [
              78.583182,
              17.418638
            ],
            [
              78.58264,
              17.4173
            ],
            [
              78.581985,
              17.416841
            ],
            [
              78.580705,
              17.415641
            ],
            [
              78.579694,
              17.414259
            ],
            [
              78.57908,
              17.413979
            ],
            [
              78.577849,
              17.413066
            ],
            [
              78.581038,
              17.411315
            ],
            [
              78.583056,
              17.410266
            ],
            [
              78.584313,
              17.409701
            ],
            [
              78.585419,
              17.409663
            ]
          ]
        ]
      }
    }
  ]
}