{
  "type": "FeatureCollection",
  "features": [
    {
      "type": "Feature",
      "properties": {},
      "geometry": {
        "type": "Polygon",
        "coordinates": [
          [
            [
              78.559924,
              17.402142
            ],
            [
              78.562129,
              17.402693
            ],
            [
              78.563554,
              17.405412
            ],
            [
              78.564164,
              17.409199
            ],
            [
              78.564639,
              17.41153
            ],
            [
              78.565216,
              17.41535
            ],
            [
              78.565861,
              17.417324
            ],
            [
              78.565386,
              17.418587
            ],
            [
              78.564232,
              17.421306
            ],
            [
              78.562502,
              17.424186
            ],
            [
              78.557651,
              17.422018
            ],
            [
              78.555174,
              17.417324
            ],
            [
              78.552087,
              17.410073
            ],
            [
              78.556124,
              17.405768
            ],
            [
              78.559924,
              17.402142
            ]
          ]
        ]
      }
    }
  ]
}