{
  "type": "FeatureCollection",
  "features": [
    {
      "type": "Feature",
      "properties": {},
      "geometry": {
        "type": "Polygon",
        "coordinates": [
          [
            [
              78.605179,
              17.388009
            ],
            [
              78.607865,
              17.387724
            ],
            [
              78.616381,
              17.390648
            ],
            [
              78.628294,
              17.390648
            ],
            [
              78.62994,
              17.405052
            ],
            [
              78.622447,
              17.405969
            ],
            [
              78.617119,
              17.402673
            ],
            [
              78.61477,
              17.41328
            ],
            [
              78.608655,
              17.41197
            ],
            [
              78.603155,
              17.409643
            ],
            [
              78.591173,
              17.405946
            ],
            [
              78.58602,
              17.404299
            ],
            [
              78.581697,
              17.401465
            ],
            [
              78.581915,
              17.396625
            ],
            [
              78.589367,
              17.388652
            ],
            [
              78.605179,
              17.388009
            ]
          ]
        ]
      }
    }
  ]
}