{
  "type": "FeatureCollection",
  "features": [
    {
      "type": "Feature",
      "properties": {},
      "geometry": {
        "type": "Polygon",
        "coordinates": [
          [
            [
              78.420661,
              17.512447
            ],
            [
              78.420872,
              17.509635
            ],
            [
              78.421352,
              17.509214
            ],
            [
              78.421505,
              17.50795
            ],
            [
              78.421504,
              17.506811
            ],
            [
              78.420141,
              17.504148
            ],
            [
              78.419877,
              17.503386
            ],
            [
              78.419857,
              17.502901
            ],
            [
              78.419954,
              17.502556
            ],
            [
              78.418967,
              17.501983
            ],
            [
              78.417962,
              17.501427
            ],
            [
              78.415896,
              17.500293
            ],
            [
              78.419669,
              17.498173
            ],
            [
              78.420561,
              17.49761
            ],
            [
              78.423869,
              17.494682
            ],
            [
              78.429815,
              17.493862
            ],
            [
              78.431812,
              17.495192
            ],
            [
              78.43269,
              17.497078
            ],
            [
              78.433478,
              17.498685
            ],
            [
              78.43103,
              17.501777
            ],
            [
              78.430615,
              17.504498
            ],
            [
              78.431757,
              17.508654
            ],
            [
              78.432638,
              17.512364
            ],
            [
              78.434298,
              17.51271
            ],
            [
              78.441561,
              17.511473
            ],
            [
              78.442119,
              17.51383
            ],
            [
              78.441395,
              17.514372
            ],
            [
              78.4399,
              17.515089
            ],
            [
              78.436542,
              17.517417
            ],
            [
              78.435077,
              17.519101
            ],
            [
              78.431053,
              17.52094
            ],
            [
              78.430295,
              17.521781
            ],
            [
              78.429706,
              17.522203
            ],
            [
              78.426832,
              17.523361
            ],
            [
              78.425605,
              17.52341
            ],
            [
              78.423013,
              17.524498
            ],
            [
              78.418725,
              17.524681
            ],
            [
              78.416895,
              17.524586
            ],
            [
              78.415373,
              17.524355
            ],
            [
              78.414975,
              17.522961
            ],
            [
              78.414298,
              17.521969
            ],
            [
              78.414385,
              17.520263
            ],
            [
              78.414286,
              17.519568
            ],
            [
              78.41447,
              17.517526
            ],
            [
              78.414888,
              17.515473
            ],
            [
              78.413866,
              17.514129
            ],
            [
              78.420661,
              17.512447
            ]
          ]
        ]
      }
    }
  ]
}