{
  "type": "FeatureCollection",
  "features": [
    {
      "type": "Feature",
      "properties": {},
      "geometry": {
        "type": "Polygon",
        "coordinates": [
          [
            [
              72.847896,
              19.230628
            ],
            [
              72.889446,
              19.291517
            ],
            [
              72.861413,
              19.441202
            ],
            [
              72.809834,
              19.433536
            ],
            [
              72.79722,
              19.342573
            ],
            [
              72.801144,
              19.2894
            ],
            [
              72.847896,
              19.230628
            ]
          ]
        ]
      }
    }
  ]
}