{
  "type": "FeatureCollection",
  "features": [
    {
      "type": "Feature",
      "properties": {},
      "geometry": {
        "type": "Polygon",
        "coordinates": [
          [
            [
              78.423405,
              17.47516
            ],
            [
              78.445514,
              17.467792
            ],
            [
              78.445988,
              17.468334
            ],
            [
              78.446177,
              17.468154
            ],
            [
              78.446177,
              17.468244
            ],
            [
              78.44802,
              17.477016
            ],
            [
              78.455867,
              17.47856
            ],
            [
              78.454857,
              17.488145
            ],
            [
              78.450569,
              17.488265
            ],
            [
              78.45186,
              17.495528
            ],
            [
              78.447597,
              17.508356
            ],
            [
              78.446366,
              17.518112
            ],
            [
              78.444471,
              17.521363
            ],
            [
              78.441914,
              17.524615
            ],
            [
              78.415421,
              17.524389
            ],
            [
              78.402293,
              17.527223
            ],
            [
              78.394579,
              17.540526
            ],
            [
              78.401264,
              17.545734
            ],
            [
              78.414788,
              17.563175
            ],
            [
              78.401781,
              17.564774
            ],
            [
              78.399631,
              17.572375
            ],
            [
              78.392928,
              17.574164
            ],
            [
              78.38921,
              17.57687
            ],
            [
              78.386345,
              17.572484
            ],
            [
              78.381539,
              17.564503
            ],
            [
              78.370504,
              17.560733
            ],
            [
              78.346228,
              17.560908
            ],
            [
              78.335746,
              17.548985
            ],
            [
              78.344574,
              17.529543
            ],
            [
              78.338458,
              17.51949
            ],
            [
              78.334566,
              17.516718
            ],
            [
              78.334351,
              17.509081
            ],
            [
              78.3355,
              17.503917
            ],
            [
              78.334256,
              17.495644
            ],
            [
              78.34823,
              17.49439
            ],
            [
              78.348651,
              17.488442
            ],
            [
              78.350059,
              17.482944
            ],
            [
              78.36278,
              17.478328
            ],
            [
              78.367194,
              17.463242
            ],
            [
              78.3637,
              17.453066
            ],
            [
              78.36388,
              17.447247
            ],
            [
              78.368833,
              17.443254
            ],
            [
              78.377413,
              17.439661
            ],
            [
              78.381171,
              17.436925
            ],
            [
              78.388644,
              17.44179
            ],
            [
              78.392899,
              17.440792
            ],
            [
              78.394514,
              17.442984
            ],
            [
              78.397141,
              17.450897
            ],
            [
              78.417015,
              17.480222
            ],
            [
              78.423405,
              17.47516
            ]
          ]
        ]
      }
    }
  ]
}