{
  "type": "FeatureCollection",
  "features": [
    {
      "type": "Feature",
      "properties": {},
      "geometry": {
        "type": "Polygon",
        "coordinates": [
          [
            [
              78.44628,
              17.433979
            ],
            [
              78.446947,
              17.433068
            ],
            [
              78.447711,
              17.432279
            ],
            [
              78.449936,
              17.430147
            ],
            [
              78.445146,
              17.429666
            ],
            [
              78.444085,
              17.427242
            ],
            [
              78.447885,
              17.426273
            ],
            [
              78.448872,
              17.425526
            ],
            [
              78.44835,
              17.423838
            ],
            [
              78.449191,
              17.422482
            ],
            [
              78.45476,
              17.422482
            ],
            [
              78.457429,
              17.424032
            ],
            [
              78.458386,
              17.423949
            ],
            [
              78.462621,
              17.423035
            ],
            [
              78.461867,
              17.425083
            ],
            [
              78.461722,
              17.429567
            ],
            [
              78.46384,
              17.433165
            ],
            [
              78.463724,
              17.435213
            ],
            [
              78.460127,
              17.436043
            ],
            [
              78.456878,
              17.436237
            ],
            [
              78.452817,
              17.435932
            ],
            [
              78.45154,
              17.434936
            ],
            [
              78.449452,
              17.434465
            ],
            [
              78.44628,
              17.433979
            ]
          ]
        ]
      }
    }
  ]
}