{
  "type": "FeatureCollection",
  "features": [
    {
      "type": "Feature",
      "properties": {},
      "geometry": {
        "type": "Polygon",
        "coordinates": [
          [
            [
              78.38788,
              17.437212
            ],
            [
              78.38905,
              17.4367
            ],
            [
              78.392787,
              17.433212
            ],
            [
              78.400336,
              17.43864
            ],
            [
              78.402979,
              17.443098
            ],
            [
              78.401796,
              17.446975
            ],
            [
              78.402502,
              17.45084
            ],
            [
              78.396446,
              17.451853
            ],
            [
              78.397069,
              17.454007
            ],
            [
              78.397508,
              17.459242
            ],
            [
              78.394083,
              17.460133
            ],
            [
              78.386612,
              17.458054
            ],
            [
              78.385835,
              17.452485
            ],
            [
              78.384901,
              17.446916
            ],
            [
              78.381632,
              17.441867
            ],
            [
              78.38788,
              17.437212
            ]
          ]
        ]
      }
    }
  ]
}