{
  "type": "FeatureCollection",
  "features": [
    {
      "type": "Feature",
      "properties": {},
      "geometry": {
        "type": "Polygon",
        "coordinates": [
          [
            [
              78.474978,
              17.498516
            ],
            [
              78.477621,
              17.498985
            ],
            [
              78.493483,
              17.505293
            ],
            [
              78.497945,
              17.517906
            ],
            [
              78.506686,
              17.54936
            ],
            [
              78.505038,
              17.561311
            ],
            [
              78.493497,
              17.567438
            ],
            [
              78.480126,
              17.566838
            ],
            [
              78.478956,
              17.545138
            ],
            [
              78.46902,
              17.520567
            ],
            [
              78.465376,
              17.506693
            ],
            [
              78.474978,
              17.498516
            ]
          ]
        ]
      }
    }
  ]
}