{
  "type": "FeatureCollection",
  "features": [
    {
      "type": "Feature",
      "properties": {},
      "geometry": {
        "type": "Polygon",
        "coordinates": [
          [
            [
              78.477748,
              17.457841
            ],
            [
              78.484602,
              17.458238
            ],
            [
              78.495167,
              17.46164
            ],
            [
              78.500745,
              17.470352
            ],
            [
              78.49872,
              17.474545
            ],
            [
              78.497789,
              17.484223
            ],
            [
              78.496179,
              17.492689
            ],
            [
              78.484173,
              17.490027
            ],
            [
              78.474029,
              17.487529
            ],
            [
              78.46963,
              17.472932
            ],
            [
              78.469542,
              17.463332
            ],
            [
              78.477748,
              17.457841
            ]
          ]
        ]
      }
    }
  ]
}