{
  "type": "FeatureCollection",
  "features": [
    {
      "type": "Feature",
      "properties": {},
      "geometry": {
        "type": "Polygon",
        "coordinates": [
          [
            [
              78.516835,
              17.437196
            ],
            [
              78.506354,
              17.434042
            ],
            [
              78.498531,
              17.432288
            ],
            [
              78.498078,
              17.432118
            ],
            [
              78.498515,
              17.431454
            ],
            [
              78.49959,
              17.430809
            ],
            [
              78.50005,
              17.430742
            ],
            [
              78.501274,
              17.430205
            ],
            [
              78.502217,
              17.429286
            ],
            [
              78.501661,
              17.422612
            ],
            [
              78.499334,
              17.416801
            ],
            [
              78.509469,
              17.415822
            ],
            [
              78.515014,
              17.41617
            ],
            [
              78.518759,
              17.415636
            ],
            [
              78.520132,
              17.4204
            ],
            [
              78.522878,
              17.419508
            ],
            [
              78.530863,
              17.426592
            ],
            [
              78.52662,
              17.428794
            ],
            [
              78.521318,
              17.433793
            ],
            [
              78.518761,
              17.43659
            ],
            [
              78.516835,
              17.437196
            ]
          ]
        ]
      }
    }
  ]
}