{
  "type": "FeatureCollection",
  "features": [
    {
      "type": "Feature",
      "properties": {},
      "geometry": {
        "type": "Polygon",
        "coordinates": [
          [
            [
              78.486341,
              17.425302
            ],
            [
              78.48846,
              17.425278
            ],
            [
              78.493971,
              17.424018
            ],
            [
              78.500256,
              17.420663
            ],
            [
              78.500982,
              17.421576
            ],
            [
              78.501546,
              17.422786
            ],
            [
              78.501647,
              17.425327
            ],
            [
              78.50211,
              17.429212
            ],
            [
              78.501771,
              17.429639
            ],
            [
              78.501309,
              17.430074
            ],
            [
              78.500628,
              17.430418
            ],
            [
              78.499216,
              17.430892
            ],
            [
              78.496714,
              17.43238
            ],
            [
              78.500897,
              17.434248
            ],
            [
              78.498542,
              17.442381
            ],
            [
              78.486985,
              17.443785
            ],
            [
              78.477679,
              17.443214
            ],
            [
              78.477524,
              17.442717
            ],
            [
              78.477824,
              17.441891
            ],
            [
              78.479304,
              17.438276
            ],
            [
              78.482535,
              17.433464
            ],
            [
              78.486341,
              17.425302
            ]
          ]
        ]
      }
    }
  ]
}