{
  "type": "FeatureCollection",
  "features": [
    {
      "type": "Feature",
      "properties": {},
      "geometry": {
        "type": "Polygon",
        "coordinates": [
          [
            [
              78.614151,
              17.486433
            ],
            [
              78.61586,
              17.483749
            ],
            [
              78.616623,
              17.481983
            ],
            [
              78.617029,
              17.481395
            ],
            [
              78.617774,
              17.480943
            ],
            [
              78.61885,
              17.480446
            ],
            [
              78.620035,
              17.480041
            ],
            [
              78.624248,
              17.479498
            ],
            [
              78.62912,
              17.475856
            ],
            [
              78.631462,
              17.473386
            ],
            [
              78.633721,
              17.471198
            ],
            [
              78.636558,
              17.469431
            ],
            [
              78.63766,
              17.46875
            ],
            [
              78.638907,
              17.468164
            ],
            [
              78.641696,
              17.467328
            ],
            [
              78.651154,
              17.470054
            ],
            [
              78.654443,
              17.47724
            ],
            [
              78.659512,
              17.487434
            ],
            [
              78.661565,
              17.491486
            ],
            [
              78.668271,
              17.496843
            ],
            [
              78.68623,
              17.504683
            ],
            [
              78.684581,
              17.509516
            ],
            [
              78.680318,
              17.515256
            ],
            [
              78.675538,
              17.520619
            ],
            [
              78.668142,
              17.52441
            ],
            [
              78.65992,
              17.524276
            ],
            [
              78.648826,
              17.524811
            ],
            [
              78.641148,
              17.52365
            ],
            [
              78.638405,
              17.524305
            ],
            [
              78.619891,
              17.522736
            ],
            [
              78.60976,
              17.521548
            ],
            [
              78.598513,
              17.521559
            ],
            [
              78.589634,
              17.511775
            ],
            [
              78.584917,
              17.505953
            ],
            [
              78.589846,
              17.501433
            ],
            [
              78.593095,
              17.499416
            ],
            [
              78.595167,
              17.497054
            ],
            [
              78.596773,
              17.494497
            ],
            [
              78.597281,
              17.493526
            ],
            [
              78.597772,
              17.492711
            ],
            [
              78.598192,
              17.492191
            ],
            [
              78.598749,
              17.49172
            ],
            [
              78.599652,
              17.490657
            ],
            [
              78.601585,
              17.489864
            ],
            [
              78.602017,
              17.490993
            ],
            [
              78.602861,
              17.491877
            ],
            [
              78.605512,
              17.493929
            ],
            [
              78.607805,
              17.493092
            ],
            [
              78.610743,
              17.492093
            ],
            [
              78.614151,
              17.486433
            ]
          ]
        ]
      }
    }
  ]
}