{
  "type": "FeatureCollection",
  "features": [
    {
      "type": "Feature",
      "properties": {},
      "geometry": {
        "type": "Polygon",
        "coordinates": [
          [
            [
              78.538103,
              17.433368
            ],
            [
              78.543476,
              17.435551
            ],
            [
              78.545999,
              17.441695
            ],
            [
              78.549345,
              17.446251
            ],
            [
              78.55292,
              17.451696
            ],
            [
              78.55597,
              17.456817
            ],
            [
              78.558353,
              17.462583
            ],
            [
              78.561725,
              17.465189
            ],
            [
              78.564394,
              17.468264
            ],
            [
              78.564049,
              17.478416
            ],
            [
              78.566819,
              17.487709
            ],
            [
              78.56791,
              17.488488
            ],
            [
              78.569099,
              17.489052
            ],
            [
              78.571329,
              17.489669
            ],
            [
              78.572623,
              17.490415
            ],
            [
              78.577153,
              17.493748
            ],
            [
              78.580935,
              17.497678
            ],
            [
              78.583136,
              17.499053
            ],
            [
              78.585443,
              17.50027
            ],
            [
              78.587459,
              17.501231
            ],
            [
              78.588892,
              17.501972
            ],
            [
              78.586298,
              17.50409
            ],
            [
              78.583406,
              17.507129
            ],
            [
              78.580121,
              17.509181
            ],
            [
              78.576724,
              17.511737
            ],
            [
              78.572435,
              17.514462
            ],
            [
              78.570112,
              17.516337
            ],
            [
              78.566986,
              17.518637
            ],
            [
              78.562796,
              17.52229
            ],
            [
              78.557624,
              17.525179
            ],
            [
              78.555301,
              17.523308
            ],
            [
              78.55235,
              17.517606
            ],
            [
              78.54957,
              17.514119
            ],
            [
              78.54764,
              17.514035
            ],
            [
              78.543811,
              17.513455
            ],
            [
              78.540148,
              17.512914
            ],
            [
              78.540195,
              17.512121
            ],
            [
              78.54043,
              17.511181
            ],
            [
              78.541198,
              17.509299
            ],
            [
              78.540805,
              17.506691
            ],
            [
              78.540663,
              17.505687
            ],
            [
              78.540307,
              17.50474
            ],
            [
              78.539966,
              17.504156
            ],
            [
              78.539731,
              17.503526
            ],
            [
              78.539058,
              17.501497
            ],
            [
              78.538216,
              17.500534
            ],
            [
              78.536614,
              17.499121
            ],
            [
              78.532331,
              17.496741
            ],
            [
              78.534167,
              17.494859
            ],
            [
              78.535986,
              17.494798
            ],
            [
              78.534505,
              17.492463
            ],
            [
              78.531867,
              17.490254
            ],
            [
              78.526399,
              17.485017
            ],
            [
              78.528821,
              17.47781
            ],
            [
              78.529477,
              17.475674
            ],
            [
              78.530224,
              17.473083
            ],
            [
              78.531542,
              17.46789
            ],
            [
              78.532988,
              17.462816
            ],
            [
              78.532624,
              17.459405
            ],
            [
              78.531284,
              17.454028
            ],
            [
              78.529025,
              17.445491
            ],
            [
              78.526444,
              17.439346
            ],
            [
              78.531494,
              17.437779
            ],
            [
              78.535298,
              17.435594
            ],
            [
              78.538103,
              17.433368
            ]
          ]
        ]
      }
    }
  ]
}