{
  "type": "FeatureCollection",
  "features": [
    {
      "type": "Feature",
      "properties": {},
      "geometry": {
        "type": "Polygon",
        "coordinates": [
          [
            [
              78.428756445,
              17.473055466
            ],
            [
              78.431381124,
              17.475316157
            ],
            [
              78.432826629,
              17.479854499
            ],
            [
              78.430477803,
              17.484794848
            ],
            [
              78.426093366,
              17.487492254
            ],
            [
              78.427803324,
              17.490600762
            ],
            [
              78.425037731,
              17.490909489
            ],
            [
              78.424249338,
              17.492133189
            ],
            [
              78.424533977,
              17.493479093
            ],
            [
              78.423711444,
              17.494953021
            ],
            [
              78.421487295,
              17.496092084
            ],
            [
              78.420781413,
              17.497197643
            ],
            [
              78.420563891,
              17.497931849
            ],
            [
              78.419752282,
              17.498215252
            ],
            [
              78.417581185,
              17.498149333
            ],
            [
              78.417331978,
              17.497713402
            ],
            [
              78.416475987,
              17.498043821
            ],
            [
              78.41593503,
              17.498607573
            ],
            [
              78.415355846,
              17.498869237
            ],
            [
              78.414669122,
              17.498075926
            ],
            [
              78.413931843,
              17.496896885
            ],
            [
              78.411646446,
              17.494689807
            ],
            [
              78.407715544,
              17.490768578
            ],
            [
              78.407053596,
              17.491457553
            ],
            [
              78.404523299,
              17.488241965
            ],
            [
              78.404400877,
              17.483359668
            ],
            [
              78.408024988,
              17.479215863
            ],
            [
              78.416892221,
              17.480008631
            ],
            [
              78.423215187,
              17.476273623
            ],
            [
              78.428756445,
              17.473055466
            ]
          ]
        ]
      }
    }
  ]
}