{
  "type": "FeatureCollection",
  "features": [
    {
      "type": "Feature",
      "properties": {},
      "geometry": {
        "type": "Polygon",
        "coordinates": [
          [
            [
              78.44281,
              17.430228
            ],
            [
              78.445021,
              17.430099
            ],
            [
              78.447542,
              17.429857
            ],
            [
              78.448875,
              17.429743
            ],
            [
              78.449932,
              17.430015
            ],
            [
              78.456088,
              17.432082
            ],
            [
              78.458311,
              17.432932
            ],
            [
              78.461206,
              17.43238
            ],
            [
              78.46418,
              17.432454
            ],
            [
              78.464698,
              17.438856
            ],
            [
              78.459864,
              17.44054
            ],
            [
              78.456865,
              17.438924
            ],
            [
              78.455559,
              17.439664
            ],
            [
              78.453618,
              17.443233
            ],
            [
              78.452066,
              17.443401
            ],
            [
              78.446171,
              17.451214
            ],
            [
              78.44189,
              17.449755
            ],
            [
              78.438016,
              17.448318
            ],
            [
              78.43625,
              17.446778
            ],
            [
              78.43415,
              17.445271
            ],
            [
              78.432691,
              17.444301
            ],
            [
              78.432116,
              17.441097
            ],
            [
              78.431801,
              17.438004
            ],
            [
              78.433354,
              17.436657
            ],
            [
              78.436643,
              17.434017
            ],
            [
              78.437913,
              17.43222
            ],
            [
              78.439246,
              17.430396
            ],
            [
              78.44281,
              17.430228
            ]
          ]
        ]
      }
    }
  ]
}