{
  "type": "FeatureCollection",
  "features": [
    {
      "type": "Feature",
      "properties": {},
      "geometry": {
        "type": "Polygon",
        "coordinates": [
          [
            [
              78.419005,
              17.441925
            ],
            [
              78.419164,
              17.441066
            ],
            [
              78.419687,
              17.440531
            ],
            [
              78.421316,
              17.439501
            ],
            [
              78.422928,
              17.438942
            ],
            [
              78.423697,
              17.439417
            ],
            [
              78.425276,
              17.438761
            ],
            [
              78.428271,
              17.437405
            ],
            [
              78.428585,
              17.437315
            ],
            [
              78.428926,
              17.438481
            ],
            [
              78.431654,
              17.437676
            ],
            [
              78.431762,
              17.440206
            ],
            [
              78.432406,
              17.443194
            ],
            [
              78.432561,
              17.444409
            ],
            [
              78.438002,
              17.448729
            ],
            [
              78.446082,
              17.451298
            ],
            [
              78.446467,
              17.455979
            ],
            [
              78.432422,
              17.458961
            ],
            [
              78.427275,
              17.461347
            ],
            [
              78.419724,
              17.459695
            ],
            [
              78.402408,
              17.459833
            ],
            [
              78.400147,
              17.457722
            ],
            [
              78.403348,
              17.448434
            ],
            [
              78.406379,
              17.445873
            ],
            [
              78.410611,
              17.445957
            ],
            [
              78.416556,
              17.443002
            ],
            [
              78.419005,
              17.441925
            ]
          ]
        ]
      }
    }
  ]
}