{
  "type": "FeatureCollection",
  "features": [
    {
      "type": "Feature",
      "properties": {},
      "geometry": {
        "type": "Polygon",
        "coordinates": [
          [
            [
              78.420979,
              17.477499
            ],
            [
              78.429739,
              17.472404
            ],
            [
              78.432389,
              17.484999
            ],
            [
              78.42162,
              17.486588
            ],
            [
              78.420979,
              17.477499
            ]
          ]
        ]
      }
    }
  ]
}