{
  "type": "FeatureCollection",
  "features": [
    {
      "type": "Feature",
      "properties": {},
      "geometry": {
        "type": "Polygon",
        "coordinates": [
          [
            [
              78.35697,
              17.561013
            ],
            [
              78.358362,
              17.556885
            ],
            [
              78.361249,
              17.551626
            ],
            [
              78.35728,
              17.542956
            ],
            [
              78.358156,
              17.538779
            ],
            [
              78.36331,
              17.536174
            ],
            [
              78.370114,
              17.537304
            ],
            [
              78.371042,
              17.54276
            ],
            [
              78.376763,
              17.543398
            ],
            [
              78.377691,
              17.554853
            ],
            [
              78.372537,
              17.559816
            ],
            [
              78.366661,
              17.56075
            ],
            [
              78.35697,
              17.561013
            ]
          ]
        ]
      }
    }
  ]
}