{
  "type": "FeatureCollection",
  "features": [
    {
      "type": "Feature",
      "properties": {},
      "geometry": {
        "type": "Polygon",
        "coordinates": [
          [
            [
              78.419206,
              17.503784
            ],
            [
              78.419044,
              17.5019
            ],
            [
              78.420163,
              17.497503
            ],
            [
              78.421551,
              17.49618
            ],
            [
              78.42472,
              17.493582
            ],
            [
              78.431634,
              17.492583
            ],
            [
              78.433206,
              17.497953
            ],
            [
              78.430953,
              17.504597
            ],
            [
              78.420948,
              17.505971
            ],
            [
              78.419206,
              17.503784
            ]
          ]
        ]
      }
    }
  ]
}