{
  "type": "FeatureCollection",
  "features": [
    {
      "type": "Feature",
      "properties": {},
      "geometry": {
        "type": "Polygon",
        "coordinates": [
          [
            [
              78.417208,
              17.480446
            ],
            [
              78.413796,
              17.474545
            ],
            [
              78.417973,
              17.466149
            ],
            [
              78.422246,
              17.465937
            ],
            [
              78.425467,
              17.466636
            ],
            [
              78.427317,
              17.469708
            ],
            [
              78.423586,
              17.475579
            ],
            [
              78.420269,
              17.47786
            ],
            [
              78.417208,
              17.480446
            ]
          ]
        ]
      }
    }
  ]
}