{
  "type": "FeatureCollection",
  "features": [
    {
      "type": "Feature",
      "properties": {},
      "geometry": {
        "type": "Polygon",
        "coordinates": [
          [
            [
              78.391081,
              17.498511
            ],
            [
              78.394227,
              17.496537
            ],
            [
              78.397468,
              17.495839
            ],
            [
              78.398447,
              17.500939
            ],
            [
              78.398299,
              17.501574
            ],
            [
              78.398496,
              17.502845
            ],
            [
              78.399212,
              17.50508
            ],
            [
              78.400545,
              17.510376
            ],
            [
              78.405012,
              17.517663
            ],
            [
              78.402681,
              17.527562
            ],
            [
              78.396856,
              17.540947
            ],
            [
              78.395375,
              17.540547
            ],
            [
              78.386688,
              17.54177
            ],
            [
              78.38575,
              17.527518
            ],
            [
              78.389674,
              17.519734
            ],
            [
              78.388267,
              17.514374
            ],
            [
              78.396116,
              17.508592
            ],
            [
              78.396041,
              17.505438
            ],
            [
              78.39461,
              17.499288
            ],
            [
              78.391081,
              17.498511
            ]
          ]
        ]
      }
    }
  ]
}