{
  "type": "FeatureCollection",
  "features": [
    {
      "type": "Feature",
      "properties": {},
      "geometry": {
        "type": "Polygon",
        "coordinates": [
          [
            [
              78.356406,
              17.522314
            ],
            [
              78.3561,
              17.519228
            ],
            [
              78.357296,
              17.516557
            ],
            [
              78.36084,
              17.515159
            ],
            [
              78.362427,
              17.505936
            ],
            [
              78.361695,
              17.496969
            ],
            [
              78.374515,
              17.496566
            ],
            [
              78.374759,
              17.493712
            ],
            [
              78.381425,
              17.494005
            ],
            [
              78.382281,
              17.499516
            ],
            [
              78.391056,
              17.498462
            ],
            [
              78.392214,
              17.505148
            ],
            [
              78.39225,
              17.50884
            ],
            [
              78.389356,
              17.511927
            ],
            [
              78.388234,
              17.514101
            ],
            [
              78.388198,
              17.517721
            ],
            [
              78.387909,
              17.522896
            ],
            [
              78.387257,
              17.523759
            ],
            [
              78.384001,
              17.524656
            ],
            [
              78.378024,
              17.520067
            ],
            [
              78.375564,
              17.520653
            ],
            [
              78.356406,
              17.522314
            ]
          ]
        ]
      }
    }
  ]
}