{
  "type": "FeatureCollection",
  "features": [
    {
      "type": "Feature",
      "properties": {},
      "geometry": {
        "type": "Polygon",
        "coordinates": [
          [
            [
              78.404031,
              17.492925
            ],
            [
              78.406394,
              17.490734
            ],
            [
              78.403622,
              17.484125
            ],
            [
              78.408686,
              17.478684
            ],
            [
              78.416735,
              17.479904
            ],
            [
              78.420893,
              17.48565
            ],
            [
              78.415296,
              17.495107
            ],
            [
              78.417428,
              17.496174
            ],
            [
              78.417641,
              17.497954
            ],
            [
              78.418974,
              17.501919
            ],
            [
              78.419134,
              17.503749
            ],
            [
              78.416095,
              17.504359
            ],
            [
              78.413483,
              17.502834
            ],
            [
              78.41439,
              17.499936
            ],
            [
              78.413537,
              17.499276
            ],
            [
              78.406767,
              17.496632
            ],
            [
              78.404031,
              17.492925
            ]
          ]
        ]
      }
    }
  ]
}