{
  "type": "FeatureCollection",
  "features": [
    {
      "type": "Feature",
      "properties": {},
      "geometry": {
        "type": "Polygon",
        "coordinates": [
          [
            [
              78.410397,
              17.382198
            ],
            [
              78.410396,
              17.382194
            ],
            [
              78.410397,
              17.38219
            ],
            [
              78.410397,
              17.382187
            ],
            [
              78.410398,
              17.382183
            ],
            [
              78.410399,
              17.38218
            ],
            [
              78.410401,
              17.382177
            ],
            [
              78.410403,
              17.382174
            ],
            [
              78.410405,
              17.382171
            ],
            [
              78.410407,
              17.382168
            ],
            [
              78.41041,
              17.382166
            ],
            [
              78.410413,
              17.382164
            ],
            [
              78.410416,
              17.382162
            ],
            [
              78.410417,
              17.382162
            ],
            [
              78.410417,
              17.382161
            ],
            [
              78.410423,
              17.38216
            ],
            [
              78.421433,
              17.379078
            ],
            [
              78.421437,
              17.379077
            ],
            [
              78.42144,
              17.379076
            ],
            [
              78.421443,
              17.379076
            ],
            [
              78.421447,
              17.379076
            ],
            [
              78.42145,
              17.379077
            ],
            [
              78.421454,
              17.379078
            ],
            [
              78.421457,
              17.379079
            ],
            [
              78.42146,
              17.379081
            ],
            [
              78.421463,
              17.379082
            ],
            [
              78.421466,
              17.379084
            ],
            [
              78.421468,
              17.379087
            ],
            [
              78.421469,
              17.379087
            ],
            [
              78.42147,
              17.379089
            ],
            [
              78.421472,
              17.379092
            ],
            [
              78.421474,
              17.379095
            ],
            [
              78.421667,
              17.379441
            ],
            [
              78.421668,
              17.379444
            ],
            [
              78.42167,
              17.379447
            ],
            [
              78.421671,
              17.379451
            ],
            [
              78.421671,
              17.379454
            ],
            [
              78.421671,
              17.379458
            ],
            [
              78.421671,
              17.379461
            ],
            [
              78.421671,
              17.379465
            ],
            [
              78.42167,
              17.379468
            ],
            [
              78.421669,
              17.379471
            ],
            [
              78.421668,
              17.379475
            ],
            [
              78.421666,
              17.379478
            ],
            [
              78.421664,
              17.37948
            ],
            [
              78.421662,
              17.379483
            ],
            [
              78.421659,
              17.379485
            ],
            [
              78.421656,
              17.379488
            ],
            [
              78.421653,
              17.37949
            ],
            [
              78.42165,
              17.379491
            ],
            [
              78.421647,
              17.379492
            ],
            [
              78.421449,
              17.37956
            ],
            [
              78.42234,
              17.382024
            ],
            [
              78.422341,
              17.382027
            ],
            [
              78.422341,
              17.38203
            ],
            [
              78.422342,
              17.382032
            ],
            [
              78.422342,
              17.382033
            ],
            [
              78.422857,
              17.387497
            ],
            [
              78.423188,
              17.391719
            ],
            [
              78.42644,
              17.393075
            ],
            [
              78.426443,
              17.393076
            ],
            [
              78.426446,
              17.393078
            ],
            [
              78.426449,
              17.39308
            ],
            [
              78.426449,
              17.393081
            ],
            [
              78.426451,
              17.393082
            ],
            [
              78.426454,
              17.393085
            ],
            [
              78.426456,
              17.393088
            ],
            [
              78.426457,
              17.393091
            ],
            [
              78.427325,
              17.39466
            ],
            [
              78.427326,
              17.394663
            ],
            [
              78.427327,
              17.394666
            ],
            [
              78.427328,
              17.39467
            ],
            [
              78.427329,
              17.394673
            ],
            [
              78.427329,
              17.394677
            ],
            [
              78.427329,
              17.39468
            ],
            [
              78.427328,
              17.394684
            ],
            [
              78.427328,
              17.394687
            ],
            [
              78.427326,
              17.394691
            ],
            [
              78.427325,
              17.394694
            ],
            [
              78.427323,
              17.394697
            ],
            [
              78.427321,
              17.3947
            ],
            [
              78.427564,
              17.395151
            ],
            [
              78.427892,
              17.395738
            ],
            [
              78.431088,
              17.395739
            ],
            [
              78.431286,
              17.395696
            ],
            [
              78.431301,
              17.395668
            ],
            [
              78.431303,
              17.395665
            ],
            [
              78.431305,
              17.395663
            ],
            [
              78.431307,
              17.39566
            ],
            [
              78.43131,
              17.395658
            ],
            [
              78.431313,
              17.395656
            ],
            [
              78.431315,
              17.395654
            ],
            [
              78.431318,
              17.395653
            ],
            [
              78.431322,
              17.395652
            ],
            [
              78.431324,
              17.395651
            ],
            [
              78.431325,
              17.395651
            ],
            [
              78.433325,
              17.395212
            ],
            [
              78.433327,
              17.395211
            ],
            [
              78.436629,
              17.394749
            ],
            [
              78.43663,
              17.394749
            ],
            [
              78.442081,
              17.394092
            ],
            [
              78.442354,
              17.393963
            ],
            [
              78.44239,
              17.393946
            ],
            [
              78.442057,
              17.392299
            ],
            [
              78.44142,
              17.390882
            ],
            [
              78.440567,
              17.390092
            ],
            [
              78.439688,
              17.388687
            ],
            [
              78.439845,
              17.385765
            ],
            [
              78.439542,
              17.384927
            ],
            [
              78.438581,
              17.383605
            ],
            [
              78.438531,
              17.383423
            ],
            [
              78.438696,
              17.382576
            ],
            [
              78.438983,
              17.381585
            ],
            [
              78.440512,
              17.380591
            ],
            [
              78.442087,
              17.378712
            ],
            [
              78.442462,
              17.377127
            ],
            [
              78.443662,
              17.376027
            ],
            [
              78.443783,
              17.37461
            ],
            [
              78.443028,
              17.37456
            ],
            [
              78.442335,
              17.374368
            ],
            [
              78.442004,
              17.37422
            ],
            [
              78.441398,
              17.373832
            ],
            [
              78.441127,
              17.373594
            ],
            [
              78.44088,
              17.373329
            ],
            [
              78.440473,
              17.372736
            ],
            [
              78.440315,
              17.372409
            ],
            [
              78.440102,
              17.371723
            ],
            [
              78.440029,
              17.371004
            ],
            [
              78.440047,
              17.370643
            ],
            [
              78.440189,
              17.369938
            ],
            [
              78.440313,
              17.369598
            ],
            [
              78.440595,
              17.369068
            ],
            [
              78.44058,
              17.369086
            ],
            [
              78.438017,
              17.372135
            ],
            [
              78.438015,
              17.372138
            ],
            [
              78.438012,
              17.37214
            ],
            [
              78.438009,
              17.372142
            ],
            [
              78.438007,
              17.372143
            ],
            [
              78.438007,
              17.372144
            ],
            [
              78.438006,
              17.372144
            ],
            [
              78.438003,
              17.372145
            ],
            [
              78.438,
              17.372147
            ],
            [
              78.431706,
              17.373928
            ],
            [
              78.431702,
              17.373928
            ],
            [
              78.431699,
              17.373929
            ],
            [
              78.431696,
              17.373929
            ],
            [
              78.431692,
              17.373929
            ],
            [
              78.431689,
              17.373928
            ],
            [
              78.431686,
              17.373927
            ],
            [
              78.431683,
              17.373926
            ],
            [
              78.431679,
              17.373925
            ],
            [
              78.431676,
              17.373923
            ],
            [
              78.431674,
              17.373921
            ],
            [
              78.431672,
              17.37392
            ],
            [
              78.431672,
              17.373919
            ],
            [
              78.431671,
              17.373919
            ],
            [
              78.431669,
              17.373917
            ],
            [
              78.429899,
              17.371873
            ],
            [
              78.429712,
              17.371813
            ],
            [
              78.429544,
              17.371907
            ],
            [
              78.429534,
              17.371912
            ],
            [
              78.429531,
              17.371914
            ],
            [
              78.429529,
              17.371915
            ],
            [
              78.429528,
              17.371915
            ],
            [
              78.429525,
              17.371916
            ],
            [
              78.429521,
              17.371917
            ],
            [
              78.429517,
              17.371917
            ],
            [
              78.429514,
              17.371917
            ],
            [
              78.42951,
              17.371917
            ],
            [
              78.429507,
              17.371916
            ],
            [
              78.429503,
              17.371915
            ],
            [
              78.4295,
              17.371914
            ],
            [
              78.429497,
              17.371912
            ],
            [
              78.429494,
              17.37191
            ],
            [
              78.429491,
              17.371907
            ],
            [
              78.429489,
              17.371905
            ],
            [
              78.429486,
              17.371902
            ],
            [
              78.429485,
              17.371899
            ],
            [
              78.429483,
              17.371896
            ],
            [
              78.429482,
              17.371892
            ],
            [
              78.429481,
              17.371891
            ],
            [
              78.429481,
              17.371889
            ],
            [
              78.42948,
              17.371885
            ],
            [
              78.428965,
              17.366853
            ],
            [
              78.427753,
              17.360932
            ],
            [
              78.426125,
              17.359205
            ],
            [
              78.422246,
              17.355657
            ],
            [
              78.421602,
              17.355068
            ],
            [
              78.4216,
              17.355066
            ],
            [
              78.421598,
              17.355064
            ],
            [
              78.421596,
              17.355061
            ],
            [
              78.421594,
              17.355058
            ],
            [
              78.421593,
              17.355055
            ],
            [
              78.421592,
              17.355051
            ],
            [
              78.421591,
              17.355048
            ],
            [
              78.421591,
              17.355045
            ],
            [
              78.421589,
              17.355009
            ],
            [
              78.420611,
              17.354186
            ],
            [
              78.4206,
              17.354186
            ],
            [
              78.420596,
              17.354187
            ],
            [
              78.420593,
              17.354186
            ],
            [
              78.420589,
              17.354186
            ],
            [
              78.420586,
              17.354185
            ],
            [
              78.420583,
              17.354183
            ],
            [
              78.42058,
              17.354182
            ],
            [
              78.420577,
              17.35418
            ],
            [
              78.420574,
              17.354178
            ],
            [
              78.41958,
              17.353317
            ],
            [
              78.418387,
              17.352831
            ],
            [
              78.418007,
              17.353072
            ],
            [
              78.418005,
              17.353073
            ],
            [
              78.418004,
              17.353074
            ],
            [
              78.418001,
              17.353075
            ],
            [
              78.417997,
              17.353077
            ],
            [
              78.417994,
              17.353077
            ],
            [
              78.41799,
              17.353078
            ],
            [
              78.417987,
              17.353078
            ],
            [
              78.417983,
              17.353078
            ],
            [
              78.41798,
              17.353077
            ],
            [
              78.417945,
              17.353069
            ],
            [
              78.416208,
              17.354175
            ],
            [
              78.410181,
              17.358377
            ],
            [
              78.410238,
              17.360686
            ],
            [
              78.410238,
              17.360689
            ],
            [
              78.410238,
              17.360693
            ],
            [
              78.410237,
              17.360696
            ],
            [
              78.410236,
              17.360699
            ],
            [
              78.410235,
              17.360702
            ],
            [
              78.410233,
              17.360706
            ],
            [
              78.410231,
              17.360708
            ],
            [
              78.410229,
              17.360711
            ],
            [
              78.410226,
              17.360713
            ],
            [
              78.410224,
              17.360716
            ],
            [
              78.410221,
              17.360718
            ],
            [
              78.410218,
              17.360719
            ],
            [
              78.410215,
              17.36072
            ],
            [
              78.410193,
              17.360728
            ],
            [
              78.410198,
              17.360748
            ],
            [
              78.410199,
              17.360752
            ],
            [
              78.410199,
              17.360755
            ],
            [
              78.410199,
              17.360759
            ],
            [
              78.410199,
              17.360762
            ],
            [
              78.410198,
              17.360765
            ],
            [
              78.410197,
              17.360769
            ],
            [
              78.410196,
              17.360772
            ],
            [
              78.410195,
              17.360773
            ],
            [
              78.410194,
              17.360774
            ],
            [
              78.410194,
              17.360775
            ],
            [
              78.410193,
              17.360776
            ],
            [
              78.4097,
              17.361653
            ],
            [
              78.409551,
              17.361918
            ],
            [
              78.409529,
              17.361923
            ],
            [
              78.40878,
              17.363215
            ],
            [
              78.40879,
              17.36325
            ],
            [
              78.408791,
              17.363254
            ],
            [
              78.408791,
              17.363257
            ],
            [
              78.408791,
              17.363261
            ],
            [
              78.408791,
              17.363264
            ],
            [
              78.40879,
              17.363268
            ],
            [
              78.40879,
              17.363271
            ],
            [
              78.408788,
              17.363274
            ],
            [
              78.408787,
              17.363277
            ],
            [
              78.408062,
              17.364571
            ],
            [
              78.408114,
              17.364791
            ],
            [
              78.408114,
              17.364795
            ],
            [
              78.408115,
              17.364795
            ],
            [
              78.408115,
              17.364796
            ],
            [
              78.408115,
              17.364798
            ],
            [
              78.408115,
              17.364802
            ],
            [
              78.408114,
              17.364805
            ],
            [
              78.408114,
              17.364809
            ],
            [
              78.408112,
              17.364812
            ],
            [
              78.408111,
              17.364815
            ],
            [
              78.408109,
              17.364818
            ],
            [
              78.408091,
              17.364849
            ],
            [
              78.40863,
              17.367137
            ],
            [
              78.41057,
              17.370736
            ],
            [
              78.410572,
              17.370739
            ],
            [
              78.410573,
              17.370743
            ],
            [
              78.410574,
              17.370746
            ],
            [
              78.410574,
              17.37075
            ],
            [
              78.410575,
              17.370753
            ],
            [
              78.410574,
              17.370757
            ],
            [
              78.410574,
              17.37076
            ],
            [
              78.410573,
              17.370763
            ],
            [
              78.410572,
              17.370767
            ],
            [
              78.41057,
              17.37077
            ],
            [
              78.410569,
              17.370773
            ],
            [
              78.410567,
              17.370776
            ],
            [
              78.410564,
              17.370778
            ],
            [
              78.410562,
              17.370781
            ],
            [
              78.410559,
              17.370783
            ],
            [
              78.410556,
              17.370785
            ],
            [
              78.410553,
              17.370786
            ],
            [
              78.410549,
              17.370788
            ],
            [
              78.410546,
              17.370788
            ],
            [
              78.410543,
              17.370789
            ],
            [
              78.410539,
              17.370789
            ],
            [
              78.410536,
              17.370789
            ],
            [
              78.410533,
              17.370789
            ],
            [
              78.410532,
              17.370789
            ],
            [
              78.410529,
              17.370788
            ],
            [
              78.410322,
              17.370729
            ],
            [
              78.410171,
              17.370824
            ],
            [
              78.41013,
              17.370978
            ],
            [
              78.410228,
              17.371203
            ],
            [
              78.410229,
              17.371206
            ],
            [
              78.410229,
              17.371207
            ],
            [
              78.41023,
              17.371207
            ],
            [
              78.41023,
              17.371209
            ],
            [
              78.410231,
              17.371213
            ],
            [
              78.410231,
              17.371216
            ],
            [
              78.410231,
              17.37122
            ],
            [
              78.41023,
              17.371224
            ],
            [
              78.410229,
              17.371227
            ],
            [
              78.410228,
              17.37123
            ],
            [
              78.410227,
              17.371234
            ],
            [
              78.410225,
              17.371237
            ],
            [
              78.410223,
              17.37124
            ],
            [
              78.410221,
              17.371242
            ],
            [
              78.410218,
              17.371245
            ],
            [
              78.410215,
              17.371247
            ],
            [
              78.410212,
              17.371249
            ],
            [
              78.41021,
              17.37125
            ],
            [
              78.410209,
              17.37125
            ],
            [
              78.410206,
              17.371251
            ],
            [
              78.408225,
              17.371862
            ],
            [
              78.408132,
              17.371987
            ],
            [
              78.408138,
              17.372132
            ],
            [
              78.408199,
              17.372217
            ],
            [
              78.408221,
              17.372245
            ],
            [
              78.408383,
              17.372289
            ],
            [
              78.408386,
              17.37229
            ],
            [
              78.408389,
              17.372291
            ],
            [
              78.408392,
              17.372293
            ],
            [
              78.408395,
              17.372295
            ],
            [
              78.408397,
              17.372296
            ],
            [
              78.408397,
              17.372297
            ],
            [
              78.408398,
              17.372297
            ],
            [
              78.4084,
              17.3723
            ],
            [
              78.408402,
              17.372302
            ],
            [
              78.408404,
              17.372305
            ],
            [
              78.408406,
              17.372308
            ],
            [
              78.408407,
              17.372311
            ],
            [
              78.408408,
              17.372315
            ],
            [
              78.408409,
              17.372318
            ],
            [
              78.408409,
              17.372322
            ],
            [
              78.408409,
              17.372325
            ],
            [
              78.408409,
              17.372329
            ],
            [
              78.408408,
              17.372332
            ],
            [
              78.408407,
              17.372335
            ],
            [
              78.408406,
              17.372338
            ],
            [
              78.408404,
              17.372342
            ],
            [
              78.408403,
              17.372344
            ],
            [
              78.4084,
              17.372347
            ],
            [
              78.408398,
              17.37235
            ],
            [
              78.408395,
              17.372352
            ],
            [
              78.408392,
              17.372354
            ],
            [
              78.408389,
              17.372356
            ],
            [
              78.408387,
              17.372356
            ],
            [
              78.408387,
              17.372357
            ],
            [
              78.408386,
              17.372357
            ],
            [
              78.408383,
              17.372358
            ],
            [
              78.40838,
              17.372359
            ],
            [
              78.408376,
              17.372359
            ],
            [
              78.406149,
              17.372531
            ],
            [
              78.405807,
              17.373585
            ],
            [
              78.406537,
              17.383277
            ],
            [
              78.406548,
              17.383281
            ],
            [
              78.406551,
              17.38328
            ],
            [
              78.410395,
              17.382199
            ],
            [
              78.410397,
              17.382198
            ]
          ]
        ]
      }
    }
  ]
}