{
  "type": "FeatureCollection",
  "features": [
    {
      "type": "Feature",
      "properties": {},
      "geometry": {
        "type": "Polygon",
        "coordinates": [
          [
            [
              78.265478,
              17.323218
            ],
            [
              78.267307,
              17.325841
            ],
            [
              78.268843,
              17.328633
            ],
            [
              78.276201,
              17.330389
            ],
            [
              78.284705,
              17.330317
            ],
            [
              78.292838,
              17.332073
            ],
            [
              78.29711,
              17.331657
            ],
            [
              78.297225,
              17.331728
            ],
            [
              78.301353,
              17.336028
            ],
            [
              78.306187,
              17.338957
            ],
            [
              78.311251,
              17.339764
            ],
            [
              78.313588,
              17.338301
            ],
            [
              78.313813,
              17.338273
            ],
            [
              78.319164,
              17.340578
            ],
            [
              78.325677,
              17.345843
            ],
            [
              78.335814,
              17.340572
            ],
            [
              78.336281,
              17.334051
            ],
            [
              78.325378,
              17.322765
            ],
            [
              78.312096,
              17.320277
            ],
            [
              78.283562,
              17.317942
            ],
            [
              78.270379,
              17.317799
            ],
            [
              78.267854,
              17.32007
            ],
            [
              78.265478,
              17.323218
            ]
          ]
        ]
      }
    }
  ]
}