{
  "type": "FeatureCollection",
  "features": [
    {
      "type": "Feature",
      "properties": {},
      "geometry": {
        "type": "Polygon",
        "coordinates": [
          [
            [
              78.400462,
              17.407668
            ],
            [
              78.40107,
              17.408123
            ],
            [
              78.404055,
              17.414065
            ],
            [
              78.407645,
              17.414259
            ],
            [
              78.412612,
              17.419847
            ],
            [
              78.420739,
              17.416915
            ],
            [
              78.42319,
              17.41559
            ],
            [
              78.423323,
              17.415583
            ],
            [
              78.423543,
              17.415666
            ],
            [
              78.423747,
              17.415689
            ],
            [
              78.425305,
              17.415481
            ],
            [
              78.426396,
              17.423386
            ],
            [
              78.429522,
              17.424389
            ],
            [
              78.436627,
              17.426314
            ],
            [
              78.440976,
              17.427589
            ],
            [
              78.448849,
              17.426152
            ],
            [
              78.448763,
              17.42485
            ],
            [
              78.448483,
              17.424225
            ],
            [
              78.448476,
              17.424074
            ],
            [
              78.448534,
              17.423961
            ],
            [
              78.449474,
              17.422871
            ],
            [
              78.449701,
              17.422328
            ],
            [
              78.448199,
              17.41948
            ],
            [
              78.449275,
              17.418179
            ],
            [
              78.449361,
              17.41628
            ],
            [
              78.450867,
              17.414111
            ],
            [
              78.450129,
              17.411749
            ],
            [
              78.451236,
              17.408797
            ],
            [
              78.451892,
              17.407851
            ],
            [
              78.451806,
              17.407683
            ],
            [
              78.451865,
              17.407483
            ],
            [
              78.447932,
              17.407297
            ],
            [
              78.446619,
              17.407053
            ],
            [
              78.446577,
              17.407082
            ],
            [
              78.444329,
              17.406628
            ],
            [
              78.441219,
              17.407036
            ],
            [
              78.440668,
              17.406368
            ],
            [
              78.438208,
              17.407961
            ],
            [
              78.43805,
              17.408176
            ],
            [
              78.438141,
              17.408266
            ],
            [
              78.438053,
              17.408522
            ],
            [
              78.436513,
              17.410736
            ],
            [
              78.434558,
              17.411395
            ],
            [
              78.432208,
              17.410879
            ],
            [
              78.425192,
              17.414046
            ],
            [
              78.424675,
              17.414114
            ],
            [
              78.422024,
              17.406341
            ],
            [
              78.423728,
              17.404357
            ],
            [
              78.423595,
              17.404441
            ],
            [
              78.423416,
              17.404428
            ],
            [
              78.423296,
              17.404324
            ],
            [
              78.423257,
              17.404149
            ],
            [
              78.423304,
              17.404026
            ],
            [
              78.423773,
              17.403363
            ],
            [
              78.424489,
              17.395766
            ],
            [
              78.424449,
              17.395585
            ],
            [
              78.424533,
              17.395424
            ],
            [
              78.424723,
              17.395352
            ],
            [
              78.424419,
              17.395344
            ],
            [
              78.415776,
              17.398196
            ],
            [
              78.415152,
              17.398283
            ],
            [
              78.41475,
              17.398647
            ],
            [
              78.415102,
              17.398618
            ],
            [
              78.415111,
              17.398722
            ],
            [
              78.412522,
              17.401058
            ],
            [
              78.408469,
              17.402619
            ],
            [
              78.40279,
              17.406006
            ],
            [
              78.402596,
              17.405917
            ],
            [
              78.402695,
              17.406002
            ],
            [
              78.402742,
              17.406123
            ],
            [
              78.402727,
              17.406252
            ],
            [
              78.402654,
              17.406359
            ],
            [
              78.400462,
              17.407668
            ]
          ]
        ]
      }
    }
  ]
}