{
  "type": "FeatureCollection",
  "features": [
    {
      "type": "Feature",
      "properties": {},
      "geometry": {
        "type": "Polygon",
        "coordinates": [
          [
            [
              78.391379,
              17.364953
            ],
            [
              78.392287,
              17.366359
            ],
            [
              78.392695,
              17.367912
            ],
            [
              78.392668,
              17.368786
            ],
            [
              78.392682,
              17.368754
            ],
            [
              78.392699,
              17.368672
            ],
            [
              78.3927,
              17.368669
            ],
            [
              78.392701,
              17.368665
            ],
            [
              78.392703,
              17.368662
            ],
            [
              78.392704,
              17.36866
            ],
            [
              78.392706,
              17.368657
            ],
            [
              78.392709,
              17.368654
            ],
            [
              78.392743,
              17.368618
            ],
            [
              78.392751,
              17.3686
            ],
            [
              78.392767,
              17.368593
            ],
            [
              78.392786,
              17.368573
            ],
            [
              78.392788,
              17.36857
            ],
            [
              78.392791,
              17.368568
            ],
            [
              78.392794,
              17.368566
            ],
            [
              78.392797,
              17.368565
            ],
            [
              78.3928,
              17.368564
            ],
            [
              78.392907,
              17.368528
            ],
            [
              78.39291,
              17.368527
            ],
            [
              78.392913,
              17.368526
            ],
            [
              78.392916,
              17.368526
            ],
            [
              78.39292,
              17.368526
            ],
            [
              78.392923,
              17.368526
            ],
            [
              78.392926,
              17.368527
            ],
            [
              78.393077,
              17.368561
            ],
            [
              78.40032,
              17.36821
            ],
            [
              78.400763,
              17.367297
            ],
            [
              78.401802,
              17.365089
            ],
            [
              78.401802,
              17.365087
            ],
            [
              78.401801,
              17.365084
            ],
            [
              78.401801,
              17.36508
            ],
            [
              78.401801,
              17.365077
            ],
            [
              78.401801,
              17.365073
            ],
            [
              78.401802,
              17.36507
            ],
            [
              78.401803,
              17.365067
            ],
            [
              78.401804,
              17.365063
            ],
            [
              78.402033,
              17.364566
            ],
            [
              78.39944,
              17.360682
            ],
            [
              78.394924,
              17.357818
            ],
            [
              78.394911,
              17.357824
            ],
            [
              78.394861,
              17.357921
            ],
            [
              78.391632,
              17.364274
            ],
            [
              78.39163,
              17.364278
            ],
            [
              78.391628,
              17.364281
            ],
            [
              78.391627,
              17.364282
            ],
            [
              78.391619,
              17.364297
            ],
            [
              78.39153,
              17.364374
            ],
            [
              78.391511,
              17.364392
            ],
            [
              78.391508,
              17.364395
            ],
            [
              78.391505,
              17.364397
            ],
            [
              78.391502,
              17.364398
            ],
            [
              78.391502,
              17.364399
            ],
            [
              78.391501,
              17.364399
            ],
            [
              78.391499,
              17.3644
            ],
            [
              78.391496,
              17.364401
            ],
            [
              78.391492,
              17.364402
            ],
            [
              78.391489,
              17.364402
            ],
            [
              78.391477,
              17.364403
            ],
            [
              78.391371,
              17.364421
            ],
            [
              78.391349,
              17.364413
            ],
            [
              78.391333,
              17.364414
            ],
            [
              78.391329,
              17.364414
            ],
            [
              78.391326,
              17.364414
            ],
            [
              78.391322,
              17.364413
            ],
            [
              78.391319,
              17.364412
            ],
            [
              78.391316,
              17.364411
            ],
            [
              78.391312,
              17.364409
            ],
            [
              78.391252,
              17.364375
            ],
            [
              78.391226,
              17.364365
            ],
            [
              78.391221,
              17.364358
            ],
            [
              78.391214,
              17.364354
            ],
            [
              78.391211,
              17.364352
            ],
            [
              78.391208,
              17.36435
            ],
            [
              78.391206,
              17.364348
            ],
            [
              78.391203,
              17.364345
            ],
            [
              78.391201,
              17.364342
            ],
            [
              78.391138,
              17.364245
            ],
            [
              78.391379,
              17.364953
            ]
          ]
        ]
      }
    }
  ]
}