{
  "type": "FeatureCollection",
  "features": [
    {
      "type": "Feature",
      "properties": {},
      "geometry": {
        "type": "Polygon",
        "coordinates": [
          [
            [
              78.410566,
              17.399261
            ],
            [
              78.413907,
              17.398718
            ],
            [
              78.414714,
              17.39865
            ],
            [
              78.414714,
              17.398649
            ],
            [
              78.414714,
              17.398646
            ],
            [
              78.414714,
              17.398642
            ],
            [
              78.414715,
              17.398638
            ],
            [
              78.414716,
              17.398635
            ],
            [
              78.414717,
              17.398632
            ],
            [
              78.414719,
              17.398629
            ],
            [
              78.414721,
              17.398626
            ],
            [
              78.414723,
              17.398623
            ],
            [
              78.414726,
              17.39862
            ],
            [
              78.415127,
              17.398256
            ],
            [
              78.41513,
              17.398254
            ],
            [
              78.415133,
              17.398252
            ],
            [
              78.415136,
              17.39825
            ],
            [
              78.41514,
              17.398249
            ],
            [
              78.41514,
              17.398248
            ],
            [
              78.415141,
              17.398248
            ],
            [
              78.415143,
              17.398248
            ],
            [
              78.415147,
              17.398247
            ],
            [
              78.415767,
              17.398161
            ],
            [
              78.424408,
              17.39531
            ],
            [
              78.42441,
              17.395309
            ],
            [
              78.424413,
              17.395309
            ],
            [
              78.424416,
              17.395308
            ],
            [
              78.42442,
              17.395308
            ],
            [
              78.424724,
              17.395316
            ],
            [
              78.424727,
              17.395316
            ],
            [
              78.424731,
              17.395317
            ],
            [
              78.424734,
              17.395318
            ],
            [
              78.424737,
              17.395319
            ],
            [
              78.424741,
              17.395321
            ],
            [
              78.424744,
              17.395323
            ],
            [
              78.424746,
              17.395325
            ],
            [
              78.424749,
              17.395327
            ],
            [
              78.424751,
              17.39533
            ],
            [
              78.424752,
              17.395332
            ],
            [
              78.425313,
              17.395367
            ],
            [
              78.426967,
              17.394554
            ],
            [
              78.427153,
              17.394556
            ],
            [
              78.427293,
              17.394677
            ],
            [
              78.426426,
              17.393108
            ],
            [
              78.423154,
              17.391743
            ],
            [
              78.422821,
              17.3875
            ],
            [
              78.422306,
              17.382036
            ],
            [
              78.421403,
              17.379538
            ],
            [
              78.421636,
              17.379458
            ],
            [
              78.421443,
              17.379112
            ],
            [
              78.410432,
              17.382194
            ],
            [
              78.41055,
              17.382191
            ],
            [
              78.410554,
              17.382192
            ],
            [
              78.410558,
              17.382192
            ],
            [
              78.410561,
              17.382193
            ],
            [
              78.410564,
              17.382194
            ],
            [
              78.410568,
              17.382195
            ],
            [
              78.41067,
              17.382247
            ],
            [
              78.410673,
              17.382249
            ],
            [
              78.410676,
              17.382251
            ],
            [
              78.410676,
              17.382252
            ],
            [
              78.410678,
              17.382253
            ],
            [
              78.410681,
              17.382256
            ],
            [
              78.410683,
              17.382259
            ],
            [
              78.410685,
              17.382262
            ],
            [
              78.410686,
              17.382265
            ],
            [
              78.410766,
              17.38245
            ],
            [
              78.410767,
              17.382454
            ],
            [
              78.410768,
              17.382457
            ],
            [
              78.410769,
              17.382461
            ],
            [
              78.410769,
              17.382465
            ],
            [
              78.410769,
              17.382466
            ],
            [
              78.410769,
              17.382467
            ],
            [
              78.410769,
              17.382469
            ],
            [
              78.410768,
              17.382472
            ],
            [
              78.410663,
              17.382924
            ],
            [
              78.410682,
              17.382952
            ],
            [
              78.410684,
              17.382955
            ],
            [
              78.410685,
              17.382958
            ],
            [
              78.410687,
              17.382962
            ],
            [
              78.410687,
              17.382965
            ],
            [
              78.410688,
              17.382969
            ],
            [
              78.410688,
              17.382973
            ],
            [
              78.410688,
              17.382976
            ],
            [
              78.410687,
              17.38298
            ],
            [
              78.410684,
              17.382991
            ],
            [
              78.410311,
              17.384546
            ],
            [
              78.410655,
              17.384814
            ],
            [
              78.410658,
              17.384817
            ],
            [
              78.41066,
              17.384819
            ],
            [
              78.410662,
              17.384822
            ],
            [
              78.410664,
              17.384825
            ],
            [
              78.410666,
              17.384828
            ],
            [
              78.410667,
              17.384831
            ],
            [
              78.410668,
              17.384835
            ],
            [
              78.410668,
              17.384836
            ],
            [
              78.412291,
              17.386137
            ],
            [
              78.412409,
              17.386229
            ],
            [
              78.412411,
              17.386231
            ],
            [
              78.412413,
              17.386234
            ],
            [
              78.412415,
              17.386236
            ],
            [
              78.412417,
              17.386238
            ],
            [
              78.412417,
              17.386239
            ],
            [
              78.412419,
              17.386242
            ],
            [
              78.41242,
              17.386245
            ],
            [
              78.412421,
              17.386248
            ],
            [
              78.413137,
              17.388867
            ],
            [
              78.413138,
              17.38887
            ],
            [
              78.413138,
              17.388874
            ],
            [
              78.413138,
              17.388877
            ],
            [
              78.413138,
              17.38888
            ],
            [
              78.413137,
              17.388884
            ],
            [
              78.413131,
              17.388913
            ],
            [
              78.41314,
              17.388945
            ],
            [
              78.413102,
              17.389049
            ],
            [
              78.413101,
              17.389053
            ],
            [
              78.413101,
              17.389056
            ],
            [
              78.413099,
              17.389059
            ],
            [
              78.413098,
              17.389062
            ],
            [
              78.413097,
              17.389065
            ],
            [
              78.413096,
              17.389065
            ],
            [
              78.409996,
              17.393744
            ],
            [
              78.409995,
              17.393745
            ],
            [
              78.409995,
              17.393746
            ],
            [
              78.409994,
              17.393747
            ],
            [
              78.409992,
              17.393749
            ],
            [
              78.409989,
              17.393752
            ],
            [
              78.409987,
              17.393754
            ],
            [
              78.409984,
              17.393756
            ],
            [
              78.409981,
              17.393757
            ],
            [
              78.40998,
              17.393757
            ],
            [
              78.409893,
              17.393824
            ],
            [
              78.409783,
              17.393843
            ],
            [
              78.409782,
              17.393843
            ],
            [
              78.409779,
              17.393844
            ],
            [
              78.409775,
              17.393845
            ],
            [
              78.409771,
              17.393846
            ],
            [
              78.409768,
              17.393846
            ],
            [
              78.409764,
              17.393846
            ],
            [
              78.40976,
              17.393845
            ],
            [
              78.409757,
              17.393844
            ],
            [
              78.409753,
              17.393843
            ],
            [
              78.40975,
              17.393841
            ],
            [
              78.409745,
              17.393838
            ],
            [
              78.409622,
              17.393792
            ],
            [
              78.40959,
              17.393752
            ],
            [
              78.409579,
              17.393746
            ],
            [
              78.409576,
              17.393744
            ],
            [
              78.409573,
              17.393742
            ],
            [
              78.40957,
              17.393739
            ],
            [
              78.409568,
              17.393736
            ],
            [
              78.409566,
              17.393733
            ],
            [
              78.409564,
              17.39373
            ],
            [
              78.409551,
              17.393704
            ],
            [
              78.409541,
              17.393691
            ],
            [
              78.409606,
              17.393839
            ],
            [
              78.409251,
              17.395665
            ],
            [
              78.409927,
              17.397599
            ],
            [
              78.410566,
              17.399261
            ]
          ]
        ]
      }
    }
  ]
}