{
  "type": "FeatureCollection",
  "features": [
    {
      "type": "Feature",
      "properties": {},
      "geometry": {
        "type": "Polygon",
        "coordinates": [
          [
            [
              78.462208,
              17.525531
            ],
            [
              78.464591,
              17.524178
            ],
            [
              78.47174,
              17.521146
            ],
            [
              78.481169,
              17.518552
            ],
            [
              78.483285,
              17.522674
            ],
            [
              78.487948,
              17.531595
            ],
            [
              78.491378,
              17.541683
            ],
            [
              78.493581,
              17.551431
            ],
            [
              78.492962,
              17.554876
            ],
            [
              78.486795,
              17.562692
            ],
            [
              78.484324,
              17.568319
            ],
            [
              78.481857,
              17.568656
            ],
            [
              78.480537,
              17.567734
            ],
            [
              78.477719,
              17.566643
            ],
            [
              78.477016,
              17.564881
            ],
            [
              78.475166,
              17.563537
            ],
            [
              78.466699,
              17.56328
            ],
            [
              78.455066,
              17.562855
            ],
            [
              78.446606,
              17.567562
            ],
            [
              78.440358,
              17.567216
            ],
            [
              78.433308,
              17.566379
            ],
            [
              78.431457,
              17.564868
            ],
            [
              78.431546,
              17.56092
            ],
            [
              78.436034,
              17.560251
            ],
            [
              78.442292,
              17.559242
            ],
            [
              78.442116,
              17.557897
            ],
            [
              78.440883,
              17.554957
            ],
            [
              78.440881,
              17.552942
            ],
            [
              78.441939,
              17.551262
            ],
            [
              78.456387,
              17.550928
            ],
            [
              78.456828,
              17.549836
            ],
            [
              78.456122,
              17.546559
            ],
            [
              78.45621,
              17.542776
            ],
            [
              78.460267,
              17.53529
            ],
            [
              78.461149,
              17.532597
            ],
            [
              78.462208,
              17.525531
            ]
          ]
        ]
      }
    }
  ]
}