{
  "type": "FeatureCollection",
  "features": [
    {
      "type": "Feature",
      "properties": {},
      "geometry": {
        "type": "Polygon",
        "coordinates": [
          [
            [
              78.449904,
              17.455349
            ],
            [
              78.449064,
              17.458074
            ],
            [
              78.449233,
              17.460731
            ],
            [
              78.448726,
              17.463711
            ],
            [
              78.449063,
              17.465483
            ],
            [
              78.449148,
              17.465483
            ],
            [
              78.451597,
              17.464677
            ],
            [
              78.45413,
              17.463872
            ],
            [
              78.457255,
              17.463872
            ],
            [
              78.459281,
              17.463871
            ],
            [
              78.460885,
              17.46347
            ],
            [
              78.464008,
              17.462667
            ],
            [
              78.467979,
              17.461697
            ],
            [
              78.472373,
              17.462903
            ],
            [
              78.472372,
              17.464354
            ],
            [
              78.472707,
              17.467094
            ],
            [
              78.47279,
              17.469753
            ],
            [
              78.473718,
              17.472089
            ],
            [
              78.47414,
              17.474183
            ],
            [
              78.473801,
              17.47676
            ],
            [
              78.473463,
              17.479175
            ],
            [
              78.473123,
              17.481268
            ],
            [
              78.473458,
              17.484087
            ],
            [
              78.47371,
              17.487387
            ],
            [
              78.474215,
              17.489078
            ],
            [
              78.473958,
              17.491733
            ],
            [
              78.475303,
              17.495675
            ],
            [
              78.47606,
              17.498168
            ],
            [
              78.474796,
              17.498409
            ],
            [
              78.465607,
              17.497931
            ],
            [
              78.463245,
              17.500104
            ],
            [
              78.46046,
              17.501794
            ],
            [
              78.455987,
              17.502677
            ],
            [
              78.454722,
              17.500988
            ],
            [
              78.452359,
              17.499057
            ],
            [
              78.452612,
              17.496805
            ],
            [
              78.452865,
              17.495195
            ],
            [
              78.452274,
              17.49423
            ],
            [
              78.452189,
              17.493505
            ],
            [
              78.451429,
              17.491895
            ],
            [
              78.450923,
              17.488755
            ],
            [
              78.449404,
              17.488273
            ],
            [
              78.447295,
              17.488756
            ],
            [
              78.445102,
              17.489239
            ],
            [
              78.443585,
              17.489561
            ],
            [
              78.440803,
              17.49117
            ],
            [
              78.438189,
              17.492296
            ],
            [
              78.437093,
              17.4931
            ],
            [
              78.435238,
              17.493502
            ],
            [
              78.434563,
              17.493503
            ],
            [
              78.433972,
              17.493181
            ],
            [
              78.432029,
              17.491896
            ],
            [
              78.430252,
              17.490531
            ],
            [
              78.428219,
              17.488844
            ],
            [
              78.424669,
              17.485465
            ],
            [
              78.422985,
              17.482727
            ],
            [
              78.42231,
              17.480553
            ],
            [
              78.422307,
              17.478702
            ],
            [
              78.422304,
              17.477011
            ],
            [
              78.423147,
              17.475965
            ],
            [
              78.423147,
              17.475562
            ],
            [
              78.423906,
              17.474998
            ],
            [
              78.427283,
              17.469926
            ],
            [
              78.428971,
              17.467429
            ],
            [
              78.43024,
              17.464369
            ],
            [
              78.430835,
              17.462115
            ],
            [
              78.432779,
              17.45817
            ],
            [
              78.435397,
              17.457043
            ],
            [
              78.438263,
              17.457043
            ],
            [
              78.441721,
              17.456639
            ],
            [
              78.445771,
              17.455995
            ],
            [
              78.449904,
              17.455349
            ]
          ]
        ]
      }
    }
  ]
}