{
  "type": "FeatureCollection",
  "features": [
    {
      "type": "Feature",
      "properties": {},
      "geometry": {
        "type": "Polygon",
        "coordinates": [
          [
            [
              78.476695,
              17.49939
            ],
            [
              78.476159,
              17.499895
            ],
            [
              78.478382,
              17.505089
            ],
            [
              78.479228,
              17.50845
            ],
            [
              78.479685,
              17.51145
            ],
            [
              78.479913,
              17.514449
            ],
            [
              78.480983,
              17.517301
            ],
            [
              78.479145,
              17.517373
            ],
            [
              78.475314,
              17.518177
            ],
            [
              78.4711,
              17.519858
            ],
            [
              78.468109,
              17.521028
            ],
            [
              78.463891,
              17.523075
            ],
            [
              78.460978,
              17.524391
            ],
            [
              78.460518,
              17.526218
            ],
            [
              78.460135,
              17.529069
            ],
            [
              78.459138,
              17.531335
            ],
            [
              78.459061,
              17.533675
            ],
            [
              78.457835,
              17.535355
            ],
            [
              78.456533,
              17.538202
            ],
            [
              78.454924,
              17.538056
            ],
            [
              78.452933,
              17.537907
            ],
            [
              78.450021,
              17.537541
            ],
            [
              78.447417,
              17.536956
            ],
            [
              78.445272,
              17.536517
            ],
            [
              78.442595,
              17.53571
            ],
            [
              78.440222,
              17.534687
            ],
            [
              78.438533,
              17.53279
            ],
            [
              78.438609,
              17.532644
            ],
            [
              78.439602,
              17.529139
            ],
            [
              78.442587,
              17.525486
            ],
            [
              78.443581,
              17.52366
            ],
            [
              78.445036,
              17.521907
            ],
            [
              78.447333,
              17.51818
            ],
            [
              78.448175,
              17.514818
            ],
            [
              78.448481,
              17.511528
            ],
            [
              78.450549,
              17.508092
            ],
            [
              78.453998,
              17.505385
            ],
            [
              78.458061,
              17.50341
            ],
            [
              78.461206,
              17.502458
            ],
            [
              78.464581,
              17.500263
            ],
            [
              78.468492,
              17.498802
            ],
            [
              78.476695,
              17.49939
            ]
          ]
        ]
      }
    }
  ]
}