{
  "type": "FeatureCollection",
  "features": [
    {
      "type": "Feature",
      "properties": {},
      "geometry": {
        "type": "Polygon",
        "coordinates": [
          [
            [
              78.441299,
              17.442526
            ],
            [
              78.441098,
              17.440739
            ],
            [
              78.440295,
              17.437794
            ],
            [
              78.444354,
              17.436503
            ],
            [
              78.445876,
              17.434204
            ],
            [
              78.449471,
              17.434768
            ],
            [
              78.451416,
              17.435333
            ],
            [
              78.452896,
              17.43614
            ],
            [
              78.455433,
              17.435454
            ],
            [
              78.456236,
              17.437068
            ],
            [
              78.456828,
              17.438722
            ],
            [
              78.454291,
              17.440779
            ],
            [
              78.453208,
              17.443437
            ],
            [
              78.448888,
              17.444393
            ],
            [
              78.448333,
              17.441469
            ],
            [
              78.441299,
              17.442526
            ]
          ]
        ]
      }
    }
  ]
}