{
  "type": "FeatureCollection",
  "features": [
    {
      "type": "Feature",
      "properties": {},
      "geometry": {
        "type": "Polygon",
        "coordinates": [
          [
            [
              78.430476,
              17.463338
            ],
            [
              78.430087,
              17.46439
            ],
            [
              78.429209,
              17.466144
            ],
            [
              78.427492,
              17.469575
            ],
            [
              78.426501,
              17.470978
            ],
            [
              78.425674,
              17.471368
            ],
            [
              78.423283,
              17.469276
            ],
            [
              78.421806,
              17.469419
            ],
            [
              78.421727,
              17.467275
            ],
            [
              78.421559,
              17.466623
            ],
            [
              78.421362,
              17.466066
            ],
            [
              78.42079,
              17.464897
            ],
            [
              78.424345,
              17.46326
            ],
            [
              78.427043,
              17.462675
            ],
            [
              78.430476,
              17.463338
            ]
          ]
        ]
      }
    }
  ]
}