{
  "type": "FeatureCollection",
  "features": [
    {
      "type": "Feature",
      "properties": {},
      "geometry": {
        "type": "Polygon",
        "coordinates": [
          [
            [
              78.415955,
              17.426894
            ],
            [
              78.425148,
              17.423806
            ],
            [
              78.426491,
              17.423346
            ],
            [
              78.434135,
              17.425317
            ],
            [
              78.439128,
              17.427157
            ],
            [
              78.445463,
              17.42742
            ],
            [
              78.450112,
              17.426303
            ],
            [
              78.452212,
              17.426927
            ],
            [
              78.449939,
              17.429851
            ],
            [
              78.445394,
              17.434056
            ],
            [
              78.444318,
              17.436469
            ],
            [
              78.440219,
              17.437742
            ],
            [
              78.441048,
              17.440725
            ],
            [
              78.441169,
              17.442376
            ],
            [
              78.440348,
              17.442059
            ],
            [
              78.434941,
              17.443773
            ],
            [
              78.43272,
              17.444403
            ],
            [
              78.432238,
              17.44102
            ],
            [
              78.432031,
              17.438096
            ],
            [
              78.432754,
              17.436454
            ],
            [
              78.428244,
              17.436454
            ],
            [
              78.422975,
              17.436913
            ],
            [
              78.421185,
              17.431296
            ],
            [
              78.419532,
              17.430902
            ],
            [
              78.415955,
              17.426894
            ]
          ]
        ]
      }
    }
  ]
}