{
  "type": "FeatureCollection",
  "features": [
    {
      "type": "Feature",
      "properties": {},
      "geometry": {
        "type": "Polygon",
        "coordinates": [
          [
            [
              78.417199,
              17.460138
            ],
            [
              78.417969,
              17.463222
            ],
            [
              78.420732,
              17.464735
            ],
            [
              78.421321,
              17.466419
            ],
            [
              78.421682,
              17.467293
            ],
            [
              78.421756,
              17.469492
            ],
            [
              78.423313,
              17.469487
            ],
            [
              78.424672,
              17.47074
            ],
            [
              78.425533,
              17.472122
            ],
            [
              78.423399,
              17.475764
            ],
            [
              78.421485,
              17.477033
            ],
            [
              78.417199,
              17.480244
            ],
            [
              78.415705,
              17.479207
            ],
            [
              78.413666,
              17.476512
            ],
            [
              78.413304,
              17.474525
            ],
            [
              78.411447,
              17.469729
            ],
            [
              78.413032,
              17.469168
            ],
            [
              78.412534,
              17.466619
            ],
            [
              78.416656,
              17.465841
            ],
            [
              78.417199,
              17.460138
            ]
          ]
        ]
      }
    }
  ]
}