{
  "type": "FeatureCollection",
  "features": [
    {
      "type": "Feature",
      "properties": {},
      "geometry": {
        "type": "Polygon",
        "coordinates": [
          [
            [
              78.40776,
              17.490792
            ],
            [
              78.411714,
              17.485072
            ],
            [
              78.412886,
              17.483529
            ],
            [
              78.415944,
              17.481816
            ],
            [
              78.41859,
              17.479274
            ],
            [
              78.421805,
              17.476978
            ],
            [
              78.424567,
              17.475209
            ],
            [
              78.427965,
              17.473348
            ],
            [
              78.429943,
              17.472565
            ],
            [
              78.4333,
              17.486412
            ],
            [
              78.430431,
              17.487764
            ],
            [
              78.427839,
              17.490443
            ],
            [
              78.429802,
              17.493852
            ],
            [
              78.423862,
              17.494676
            ],
            [
              78.420539,
              17.497598
            ],
            [
              78.419663,
              17.498169
            ],
            [
              78.415887,
              17.500285
            ],
            [
              78.416016,
              17.499933
            ],
            [
              78.415455,
              17.499029
            ],
            [
              78.414782,
              17.498179
            ],
            [
              78.413997,
              17.496924
            ],
            [
              78.40776,
              17.490792
            ]
          ]
        ]
      }
    }
  ]
}