{
  "type": "FeatureCollection",
  "features": [
    {
      "type": "Feature",
      "properties": {},
      "geometry": {
        "type": "Polygon",
        "coordinates": [
          [
            [
              78.366494,
              17.469058
            ],
            [
              78.366921,
              17.458583
            ],
            [
              78.364298,
              17.455943
            ],
            [
              78.363507,
              17.446533
            ],
            [
              78.362304,
              17.442764
            ],
            [
              78.363353,
              17.440125
            ],
            [
              78.370844,
              17.432446
            ],
            [
              78.378625,
              17.425668
            ],
            [
              78.389297,
              17.431696
            ],
            [
              78.39523,
              17.434332
            ],
            [
              78.399567,
              17.438545
            ],
            [
              78.405336,
              17.441764
            ],
            [
              78.406397,
              17.444649
            ],
            [
              78.403675,
              17.450178
            ],
            [
              78.405662,
              17.460626
            ],
            [
              78.399721,
              17.463516
            ],
            [
              78.386135,
              17.467531
            ],
            [
              78.37428,
              17.470403
            ],
            [
              78.366494,
              17.469058
            ]
          ]
        ]
      }
    }
  ]
}