{
  "type": "FeatureCollection",
  "features": [
    {
      "type": "Feature",
      "properties": {},
      "geometry": {
        "type": "Polygon",
        "coordinates": [
          [
            [
              78.414178,
              17.587003
            ],
            [
              78.408476,
              17.582351
            ],
            [
              78.419251,
              17.551726
            ],
            [
              78.428651,
              17.529674
            ],
            [
              78.437403,
              17.529345
            ],
            [
              78.435146,
              17.534829
            ],
            [
              78.433882,
              17.540496
            ],
            [
              78.442755,
              17.541324
            ],
            [
              78.442557,
              17.549906
            ],
            [
              78.443572,
              17.556847
            ],
            [
              78.438051,
              17.577473
            ],
            [
              78.425667,
              17.590843
            ],
            [
              78.414178,
              17.587003
            ]
          ]
        ]
      }
    }
  ]
}