{
  "type": "FeatureCollection",
  "features": [
    {
      "type": "Feature",
      "properties": {},
      "geometry": {
        "type": "Polygon",
        "coordinates": [
          [
            [
              78.419369,
              17.478058
            ],
            [
              78.418302,
              17.476542
            ],
            [
              78.418205,
              17.475435
            ],
            [
              78.413262,
              17.475233
            ],
            [
              78.412344,
              17.46971
            ],
            [
              78.417146,
              17.459269
            ],
            [
              78.427102,
              17.461964
            ],
            [
              78.431409,
              17.462166
            ],
            [
              78.4407,
              17.462468
            ],
            [
              78.445693,
              17.466813
            ],
            [
              78.435999,
              17.470114
            ],
            [
              78.429574,
              17.473145
            ],
            [
              78.426624,
              17.474249
            ],
            [
              78.424607,
              17.475317
            ],
            [
              78.423263,
              17.475958
            ],
            [
              78.421664,
              17.476936
            ],
            [
              78.420707,
              17.477624
            ],
            [
              78.420028,
              17.477951
            ],
            [
              78.419369,
              17.478058
            ]
          ]
        ]
      }
    }
  ]
}