{
  "type": "FeatureCollection",
  "features": [
    {
      "type": "Feature",
      "properties": {},
      "geometry": {
        "type": "Polygon",
        "coordinates": [
          [
            [
              78.42246,
              17.498198
            ],
            [
              78.421523,
              17.49771
            ],
            [
              78.421044,
              17.496722
            ],
            [
              78.423529,
              17.494941
            ],
            [
              78.424147,
              17.494061
            ],
            [
              78.4246,
              17.49188
            ],
            [
              78.424971,
              17.490289
            ],
            [
              78.423929,
              17.489478
            ],
            [
              78.424525,
              17.487869
            ],
            [
              78.425083,
              17.487038
            ],
            [
              78.431846,
              17.487573
            ],
            [
              78.432733,
              17.489884
            ],
            [
              78.434541,
              17.494283
            ],
            [
              78.435029,
              17.496749
            ],
            [
              78.435029,
              17.496767
            ],
            [
              78.433691,
              17.497888
            ],
            [
              78.431593,
              17.500786
            ],
            [
              78.42983,
              17.503626
            ],
            [
              78.42938,
              17.503249
            ],
            [
              78.429079,
              17.50082
            ],
            [
              78.425833,
              17.5015
            ],
            [
              78.42425,
              17.499164
            ],
            [
              78.42246,
              17.498198
            ]
          ]
        ]
      }
    }
  ]
}