{
  "type": "FeatureCollection",
  "features": [
    {
      "type": "Feature",
      "properties": {},
      "geometry": {
        "type": "Polygon",
        "coordinates": [
          [
            [
              78.393441,
              17.497257
            ],
            [
              78.393796,
              17.497663
            ],
            [
              78.394098,
              17.498536
            ],
            [
              78.394524,
              17.500252
            ],
            [
              78.395858,
              17.505171
            ],
            [
              78.396266,
              17.508601
            ],
            [
              78.403925,
              17.520344
            ],
            [
              78.401355,
              17.530344
            ],
            [
              78.393644,
              17.54005
            ],
            [
              78.388606,
              17.541128
            ],
            [
              78.388334,
              17.538873
            ],
            [
              78.381342,
              17.527403
            ],
            [
              78.375289,
              17.531153
            ],
            [
              78.370663,
              17.526153
            ],
            [
              78.372205,
              17.518506
            ],
            [
              78.373439,
              17.509485
            ],
            [
              78.379093,
              17.50674
            ],
            [
              78.386379,
              17.506269
            ],
            [
              78.388566,
              17.503184
            ],
            [
              78.389705,
              17.500273
            ],
            [
              78.390408,
              17.498692
            ],
            [
              78.393441,
              17.497257
            ]
          ]
        ]
      }
    }
  ]
}