{
  "type": "FeatureCollection",
  "features": [
    {
      "type": "Feature",
      "properties": {},
      "geometry": {
        "type": "Polygon",
        "coordinates": [
          [
            [
              78.40911,
              17.522757
            ],
            [
              78.409005,
              17.518294
            ],
            [
              78.410611,
              17.517583
            ],
            [
              78.415485,
              17.516735
            ],
            [
              78.417381,
              17.514377
            ],
            [
              78.419887,
              17.513228
            ],
            [
              78.421871,
              17.51243
            ],
            [
              78.424252,
              17.511623
            ],
            [
              78.43077,
              17.504771
            ],
            [
              78.432007,
              17.510326
            ],
            [
              78.437412,
              17.516837
            ],
            [
              78.434871,
              17.519125
            ],
            [
              78.431413,
              17.520741
            ],
            [
              78.429519,
              17.520811
            ],
            [
              78.429587,
              17.522757
            ],
            [
              78.429995,
              17.524703
            ],
            [
              78.425641,
              17.529569
            ],
            [
              78.419654,
              17.531191
            ],
            [
              78.413056,
              17.532293
            ],
            [
              78.409246,
              17.528206
            ],
            [
              78.40911,
              17.522757
            ]
          ]
        ]
      }
    }
  ]
}