{
  "type": "FeatureCollection",
  "features": [
    {
      "type": "Feature",
      "properties": {},
      "geometry": {
        "type": "Polygon",
        "coordinates": [
          [
            [
              78.361323,
              17.496925
            ],
            [
              78.365624,
              17.496374
            ],
            [
              78.377617,
              17.497627
            ],
            [
              78.376669,
              17.509059
            ],
            [
              78.373563,
              17.518438
            ],
            [
              78.373046,
              17.524527
            ],
            [
              78.36476,
              17.529549
            ],
            [
              78.354222,
              17.529306
            ],
            [
              78.345236,
              17.530295
            ],
            [
              78.339772,
              17.529598
            ],
            [
              78.338286,
              17.524823
            ],
            [
              78.343667,
              17.517397
            ],
            [
              78.348986,
              17.506141
            ],
            [
              78.349302,
              17.50491
            ],
            [
              78.348763,
              17.494315
            ],
            [
              78.35036,
              17.494042
            ],
            [
              78.361323,
              17.496925
            ]
          ]
        ]
      }
    }
  ]
}