{
  "type": "FeatureCollection",
  "features": [
    {
      "type": "Feature",
      "properties": {},
      "geometry": {
        "type": "Polygon",
        "coordinates": [
          [
            [
              78.363784,
              17.438624
            ],
            [
              78.365516,
              17.438102
            ],
            [
              78.374258,
              17.437062
            ],
            [
              78.377173,
              17.442603
            ],
            [
              78.38257,
              17.452701
            ],
            [
              78.385922,
              17.467109
            ],
            [
              78.37904,
              17.469018
            ],
            [
              78.371334,
              17.46491
            ],
            [
              78.367078,
              17.463634
            ],
            [
              78.359174,
              17.466185
            ],
            [
              78.348839,
              17.467055
            ],
            [
              78.348869,
              17.472451
            ],
            [
              78.34931,
              17.479711
            ],
            [
              78.336428,
              17.483424
            ],
            [
              78.330169,
              17.47057
            ],
            [
              78.334998,
              17.462957
            ],
            [
              78.346105,
              17.4509
            ],
            [
              78.35273,
              17.444754
            ],
            [
              78.363784,
              17.438624
            ]
          ]
        ]
      }
    }
  ]
}