{
  "type": "FeatureCollection",
  "features": [
    {
      "type": "Feature",
      "properties": {},
      "geometry": {
        "type": "Polygon",
        "coordinates": [
          [
            [
              78.496254,
              17.406798
            ],
            [
              78.493526,
              17.407727
            ],
            [
              78.488655,
              17.409512
            ],
            [
              78.486278,
              17.410182
            ],
            [
              78.485342,
              17.403711
            ],
            [
              78.494695,
              17.40122
            ],
            [
              78.494518,
              17.398956
            ],
            [
              78.499673,
              17.400949
            ],
            [
              78.496956,
              17.4065
            ],
            [
              78.496254,
              17.406798
            ]
          ]
        ]
      }
    }
  ]
}