{
  "type": "FeatureCollection",
  "features": [
    {
      "type": "Feature",
      "properties": {},
      "geometry": {
        "type": "Polygon",
        "coordinates": [
          [
            [
              78.51052,
              17.422411
            ],
            [
              78.509782,
              17.421741
            ],
            [
              78.509852,
              17.4203
            ],
            [
              78.510625,
              17.417317
            ],
            [
              78.511152,
              17.41658
            ],
            [
              78.512768,
              17.415306
            ],
            [
              78.513716,
              17.414971
            ],
            [
              78.515929,
              17.414234
            ],
            [
              78.516843,
              17.414066
            ],
            [
              78.518292,
              17.415732
            ],
            [
              78.522744,
              17.419496
            ],
            [
              78.526221,
              17.424791
            ],
            [
              78.523446,
              17.426265
            ],
            [
              78.520425,
              17.426768
            ],
            [
              78.518458,
              17.429315
            ],
            [
              78.510952,
              17.42408
            ],
            [
              78.51052,
              17.422411
            ]
          ]
        ]
      }
    }
  ]
}