{
  "type": "FeatureCollection",
  "features": [
    {
      "type": "Feature",
      "properties": {},
      "geometry": {
        "type": "Polygon",
        "coordinates": [
          [
            [
              78.505768,
              17.395301
            ],
            [
              78.505397,
              17.394504
            ],
            [
              78.505773,
              17.394442
            ],
            [
              78.510763,
              17.393916
            ],
            [
              78.510988,
              17.394884
            ],
            [
              78.505768,
              17.395301
            ]
          ]
        ]
      }
    }
  ]
}