{
  "type": "FeatureCollection",
  "features": [
    {
      "type": "Feature",
      "properties": {},
      "geometry": {
        "type": "Polygon",
        "coordinates": [
          [
            [
              78.462862,
              17.423889
            ],
            [
              78.461907,
              17.418223
            ],
            [
              78.461144,
              17.415956
            ],
            [
              78.46441,
              17.415308
            ],
            [
              78.46581,
              17.415066
            ],
            [
              78.46665,
              17.415984
            ],
            [
              78.46612,
              17.417643
            ],
            [
              78.466735,
              17.418696
            ],
            [
              78.46634,
              17.420024
            ],
            [
              78.465683,
              17.423403
            ],
            [
              78.465301,
              17.423808
            ],
            [
              78.464813,
              17.423484
            ],
            [
              78.462862,
              17.423889
            ]
          ]
        ]
      }
    }
  ]
}