{
  "type": "FeatureCollection",
  "features": [
    {
      "type": "Feature",
      "properties": {},
      "geometry": {
        "type": "Polygon",
        "coordinates": [
          [
            [
              78.545226,
              17.415627
            ],
            [
              78.538608,
              17.407543
            ],
            [
              78.537662,
              17.403032
            ],
            [
              78.537595,
              17.399423
            ],
            [
              78.535164,
              17.398779
            ],
            [
              78.535434,
              17.398199
            ],
            [
              78.53692,
              17.393624
            ],
            [
              78.539013,
              17.39343
            ],
            [
              78.538608,
              17.392206
            ],
            [
              78.541174,
              17.387437
            ],
            [
              78.544618,
              17.38705
            ],
            [
              78.552924,
              17.386084
            ],
            [
              78.5536,
              17.392141
            ],
            [
              78.554613,
              17.401163
            ],
            [
              78.550561,
              17.400648
            ],
            [
              78.549953,
              17.400068
            ],
            [
              78.542727,
              17.39633
            ],
            [
              78.542525,
              17.396975
            ],
            [
              78.541714,
              17.400519
            ],
            [
              78.547049,
              17.401485
            ],
            [
              78.545226,
              17.415627
            ]
          ]
        ]
      }
    }
  ]
}