{
  "type": "FeatureCollection",
  "features": [
    {
      "type": "Feature",
      "properties": {},
      "geometry": {
        "type": "Polygon",
        "coordinates": [
          [
            [
              78.455318,
              17.439925
            ],
            [
              78.455293,
              17.438955
            ],
            [
              78.455335,
              17.438278
            ],
            [
              78.45438,
              17.436564
            ],
            [
              78.455616,
              17.435728
            ],
            [
              78.456001,
              17.435912
            ],
            [
              78.458183,
              17.434968
            ],
            [
              78.459734,
              17.434265
            ],
            [
              78.459778,
              17.434382
            ],
            [
              78.460024,
              17.435001
            ],
            [
              78.460409,
              17.435787
            ],
            [
              78.460716,
              17.436063
            ],
            [
              78.461934,
              17.437309
            ],
            [
              78.462258,
              17.437702
            ],
            [
              78.459761,
              17.438529
            ],
            [
              78.460295,
              17.440001
            ],
            [
              78.46012,
              17.440042
            ],
            [
              78.457973,
              17.440402
            ],
            [
              78.455765,
              17.440486
            ],
            [
              78.455318,
              17.439925
            ]
          ]
        ]
      }
    }
  ]
}