{
  "type": "FeatureCollection",
  "features": [
    {
      "type": "Feature",
      "properties": {},
      "geometry": {
        "type": "Polygon",
        "coordinates": [
          [
            [
              78.469031,
              17.438625
            ],
            [
              78.474579,
              17.436385
            ],
            [
              78.474991,
              17.440099
            ],
            [
              78.475358,
              17.443408
            ],
            [
              78.477243,
              17.443322
            ],
            [
              78.480947,
              17.438245
            ],
            [
              78.482213,
              17.436897
            ],
            [
              78.485182,
              17.433821
            ],
            [
              78.486982,
              17.433131
            ],
            [
              78.488211,
              17.43309
            ],
            [
              78.487929,
              17.43629
            ],
            [
              78.487731,
              17.439335
            ],
            [
              78.487641,
              17.440941
            ],
            [
              78.487456,
              17.443116
            ],
            [
              78.487795,
              17.443418
            ],
            [
              78.487276,
              17.449371
            ],
            [
              78.486124,
              17.451641
            ],
            [
              78.482479,
              17.452598
            ],
            [
              78.4758,
              17.452169
            ],
            [
              78.474116,
              17.448125
            ],
            [
              78.475386,
              17.444565
            ],
            [
              78.475644,
              17.443842
            ],
            [
              78.475376,
              17.443572
            ],
            [
              78.470568,
              17.444172
            ],
            [
              78.469031,
              17.438625
            ]
          ]
        ]
      }
    }
  ]
}