{
  "type": "FeatureCollection",
  "features": [
    {
      "type": "Feature",
      "properties": {},
      "geometry": {
        "type": "Polygon",
        "coordinates": [
          [
            [
              78.49353,
              17.435478
            ],
            [
              78.493676,
              17.435238
            ],
            [
              78.495227,
              17.434998
            ],
            [
              78.496275,
              17.434835
            ],
            [
              78.49595,
              17.43423
            ],
            [
              78.496089,
              17.433773
            ],
            [
              78.4966,
              17.43358
            ],
            [
              78.49722,
              17.433402
            ],
            [
              78.497443,
              17.43347
            ],
            [
              78.497623,
              17.433532
            ],
            [
              78.497873,
              17.433651
            ],
            [
              78.498133,
              17.433843
            ],
            [
              78.498425,
              17.434154
            ],
            [
              78.498587,
              17.434326
            ],
            [
              78.498672,
              17.434494
            ],
            [
              78.500996,
              17.434122
            ],
            [
              78.500923,
              17.434685
            ],
            [
              78.499884,
              17.434868
            ],
            [
              78.498783,
              17.435074
            ],
            [
              78.498447,
              17.435127
            ],
            [
              78.498111,
              17.435181
            ],
            [
              78.497443,
              17.435293
            ],
            [
              78.497098,
              17.435339
            ],
            [
              78.496921,
              17.435364
            ],
            [
              78.496752,
              17.435386
            ],
            [
              78.49641,
              17.435434
            ],
            [
              78.496068,
              17.435481
            ],
            [
              78.495802,
              17.435519
            ],
            [
              78.495539,
              17.435555
            ],
            [
              78.495398,
              17.435571
            ],
            [
              78.495262,
              17.435593
            ],
            [
              78.49502,
              17.435626
            ],
            [
              78.494461,
              17.435705
            ],
            [
              78.494186,
              17.435742
            ],
            [
              78.493932,
              17.435778
            ],
            [
              78.493972,
              17.435922
            ],
            [
              78.494006,
              17.436039
            ],
            [
              78.494035,
              17.436143
            ],
            [
              78.493872,
              17.435894
            ],
            [
              78.493679,
              17.435664
            ],
            [
              78.49353,
              17.435478
            ]
          ]
        ]
      }
    }
  ]
}