{
  "type": "FeatureCollection",
  "features": [
    {
      "type": "Feature",
      "properties": {},
      "geometry": {
        "type": "Polygon",
        "coordinates": [
          [
            [
              78.498444,
              17.44169
            ],
            [
              78.500236,
              17.43651
            ],
            [
              78.501173,
              17.434506
            ],
            [
              78.50106,
              17.433558
            ],
            [
              78.502138,
              17.43326
            ],
            [
              78.503558,
              17.433504
            ],
            [
              78.509434,
              17.43456
            ],
            [
              78.512727,
              17.434479
            ],
            [
              78.516617,
              17.431147
            ],
            [
              78.518064,
              17.429441
            ],
            [
              78.522834,
              17.43261
            ],
            [
              78.519768,
              17.435237
            ],
            [
              78.517837,
              17.436889
            ],
            [
              78.516159,
              17.436815
            ],
            [
              78.512468,
              17.434756
            ],
            [
              78.509715,
              17.434702
            ],
            [
              78.508352,
              17.437627
            ],
            [
              78.505371,
              17.440877
            ],
            [
              78.498444,
              17.44169
            ]
          ]
        ]
      }
    }
  ]
}