{
  "type": "FeatureCollection",
  "features": [
    {
      "type": "Feature",
      "properties": {},
      "geometry": {
        "type": "Polygon",
        "coordinates": [
          [
            [
              78.49693,
              17.386028
            ],
            [
              78.495758,
              17.384767
            ],
            [
              78.501155,
              17.385046
            ],
            [
              78.506895,
              17.385582
            ],
            [
              78.511169,
              17.385885
            ],
            [
              78.511633,
              17.391596
            ],
            [
              78.503026,
              17.39281
            ],
            [
              78.499211,
              17.388737
            ],
            [
              78.49693,
              17.386028
            ]
          ]
        ]
      }
    }
  ]
}