{
  "type": "FeatureCollection",
  "features": [
    {
      "type": "Feature",
      "properties": {},
      "geometry": {
        "type": "Polygon",
        "coordinates": [
          [
            [
              78.478996,
              17.38578
            ],
            [
              78.482376,
              17.385306
            ],
            [
              78.482514,
              17.386292
            ],
            [
              78.482601,
              17.387227
            ],
            [
              78.482864,
              17.389236
            ],
            [
              78.483017,
              17.390493
            ],
            [
              78.485077,
              17.390417
            ],
            [
              78.485495,
              17.390406
            ],
            [
              78.486487,
              17.390827
            ],
            [
              78.486964,
              17.393803
            ],
            [
              78.486139,
              17.395126
            ],
            [
              78.485928,
              17.395628
            ],
            [
              78.483454,
              17.398023
            ],
            [
              78.483331,
              17.39809
            ],
            [
              78.484542,
              17.400485
            ],
            [
              78.484805,
              17.401289
            ],
            [
              78.484858,
              17.402143
            ],
            [
              78.483895,
              17.402144
            ],
            [
              78.483616,
              17.402215
            ],
            [
              78.483423,
              17.402384
            ],
            [
              78.482908,
              17.402953
            ],
            [
              78.480615,
              17.404996
            ],
            [
              78.478439,
              17.406119
            ],
            [
              78.477758,
              17.406441
            ],
            [
              78.477189,
              17.406718
            ],
            [
              78.476717,
              17.409334
            ],
            [
              78.476428,
              17.409232
            ],
            [
              78.475301,
              17.408776
            ],
            [
              78.473071,
              17.408213
            ],
            [
              78.469362,
              17.408003
            ],
            [
              78.468727,
              17.408013
            ],
            [
              78.467635,
              17.407111
            ],
            [
              78.467311,
              17.405904
            ],
            [
              78.467627,
              17.404363
            ],
            [
              78.467971,
              17.40294
            ],
            [
              78.468148,
              17.402638
            ],
            [
              78.469124,
              17.401875
            ],
            [
              78.470423,
              17.400928
            ],
            [
              78.471204,
              17.400767
            ],
            [
              78.47256,
              17.400256
            ],
            [
              78.473229,
              17.400336
            ],
            [
              78.473936,
              17.399336
            ],
            [
              78.474295,
              17.396843
            ],
            [
              78.476052,
              17.393542
            ],
            [
              78.472693,
              17.393311
            ],
            [
              78.470518,
              17.393178
            ],
            [
              78.470475,
              17.392158
            ],
            [
              78.470491,
              17.390547
            ],
            [
              78.478996,
              17.38578
            ]
          ]
        ]
      }
    }
  ]
}