{
  "type": "FeatureCollection",
  "features": [
    {
      "type": "Feature",
      "properties": {},
      "geometry": {
        "type": "Polygon",
        "coordinates": [
          [
            [
              78.490061,
              17.425132
            ],
            [
              78.489966,
              17.424729
            ],
            [
              78.489871,
              17.424329
            ],
            [
              78.489832,
              17.424142
            ],
            [
              78.489797,
              17.423991
            ],
            [
              78.489757,
              17.423842
            ],
            [
              78.489725,
              17.423704
            ],
            [
              78.489667,
              17.423415
            ],
            [
              78.489611,
              17.423152
            ],
            [
              78.489688,
              17.423036
            ],
            [
              78.489835,
              17.422816
            ],
            [
              78.489449,
              17.421878
            ],
            [
              78.488659,
              17.422265
            ],
            [
              78.488267,
              17.422461
            ],
            [
              78.488076,
              17.422533
            ],
            [
              78.487897,
              17.422503
            ],
            [
              78.487448,
              17.42246
            ],
            [
              78.48534,
              17.422359
            ],
            [
              78.483371,
              17.419834
            ],
            [
              78.489138,
              17.418404
            ],
            [
              78.491295,
              17.418264
            ],
            [
              78.492219,
              17.418207
            ],
            [
              78.492679,
              17.418183
            ],
            [
              78.493042,
              17.418159
            ],
            [
              78.493167,
              17.418162
            ],
            [
              78.493562,
              17.418302
            ],
            [
              78.493863,
              17.418414
            ],
            [
              78.494691,
              17.418692
            ],
            [
              78.495519,
              17.422742
            ],
            [
              78.494457,
              17.423327
            ],
            [
              78.494244,
              17.423812
            ],
            [
              78.490061,
              17.425132
            ]
          ]
        ]
      }
    }
  ]
}