{
  "type": "FeatureCollection",
  "features": [
    {
      "type": "Feature",
      "properties": {},
      "geometry": {
        "type": "Polygon",
        "coordinates": [
          [
            [
              78.490987,
              17.413231
            ],
            [
              78.490846,
              17.412353
            ],
            [
              78.490713,
              17.411439
            ],
            [
              78.49069,
              17.411194
            ],
            [
              78.491697,
              17.411217
            ],
            [
              78.492673,
              17.411143
            ],
            [
              78.492717,
              17.412995
            ],
            [
              78.490987,
              17.413231
            ]
          ]
        ]
      }
    }
  ]
}