{
  "type": "FeatureCollection",
  "features": [
    {
      "type": "Feature",
      "properties": {},
      "geometry": {
        "type": "Polygon",
        "coordinates": [
          [
            [
              78.488038,
              17.432776
            ],
            [
              78.487887,
              17.428869
            ],
            [
              78.491512,
              17.428254
            ],
            [
              78.496027,
              17.427316
            ],
            [
              78.497748,
              17.427316
            ],
            [
              78.497993,
              17.427081
            ],
            [
              78.495966,
              17.425557
            ],
            [
              78.494922,
              17.42462
            ],
            [
              78.493928,
              17.424394
            ],
            [
              78.494609,
              17.423438
            ],
            [
              78.495254,
              17.423014
            ],
            [
              78.496052,
              17.422546
            ],
            [
              78.496998,
              17.422157
            ],
            [
              78.499217,
              17.42135
            ],
            [
              78.500327,
              17.420997
            ],
            [
              78.501434,
              17.420635
            ],
            [
              78.503144,
              17.420304
            ],
            [
              78.505427,
              17.42377
            ],
            [
              78.504629,
              17.423799
            ],
            [
              78.501827,
              17.423954
            ],
            [
              78.501885,
              17.42501
            ],
            [
              78.501931,
              17.426054
            ],
            [
              78.502127,
              17.42827
            ],
            [
              78.502202,
              17.429247
            ],
            [
              78.501151,
              17.430515
            ],
            [
              78.497686,
              17.431917
            ],
            [
              78.488038,
              17.432776
            ]
          ]
        ]
      }
    }
  ]
}