{
  "type": "FeatureCollection",
  "features": [
    {
      "type": "Feature",
      "properties": {},
      "geometry": {
        "type": "Polygon",
        "coordinates": [
          [
            [
              78.497473,
              17.440712
            ],
            [
              78.49665,
              17.440306
            ],
            [
              78.496125,
              17.440184
            ],
            [
              78.495726,
              17.440254
            ],
            [
              78.495643,
              17.439737
            ],
            [
              78.495459,
              17.438668
            ],
            [
              78.494448,
              17.437176
            ],
            [
              78.494093,
              17.436337
            ],
            [
              78.493937,
              17.435782
            ],
            [
              78.497356,
              17.435308
            ],
            [
              78.499143,
              17.435024
            ],
            [
              78.500831,
              17.434713
            ],
            [
              78.50063,
              17.435231
            ],
            [
              78.500079,
              17.436675
            ],
            [
              78.498816,
              17.440361
            ],
            [
              78.497473,
              17.440712
            ]
          ]
        ]
      }
    }
  ]
}