{
  "type": "FeatureCollection",
  "features": [
    {
      "type": "Feature",
      "properties": {},
      "geometry": {
        "type": "Polygon",
        "coordinates": [
          [
            [
              78.464695,
              17.392296
            ],
            [
              78.464847,
              17.39199
            ],
            [
              78.464963,
              17.391735
            ],
            [
              78.465339,
              17.390335
            ],
            [
              78.466421,
              17.390262
            ],
            [
              78.467997,
              17.390221
            ],
            [
              78.468038,
              17.39042
            ],
            [
              78.46806,
              17.390725
            ],
            [
              78.46777,
              17.390794
            ],
            [
              78.466007,
              17.391119
            ],
            [
              78.46534,
              17.391666
            ],
            [
              78.464825,
              17.392344
            ],
            [
              78.464695,
              17.392296
            ]
          ]
        ]
      }
    }
  ]
}