{
  "type": "FeatureCollection",
  "features": [
    {
      "type": "Feature",
      "properties": {},
      "geometry": {
        "type": "Polygon",
        "coordinates": [
          [
            [
              78.494327,
              17.394843
            ],
            [
              78.492482,
              17.39437
            ],
            [
              78.492074,
              17.393256
            ],
            [
              78.490855,
              17.391499
            ],
            [
              78.496961,
              17.390438
            ],
            [
              78.497745,
              17.390939
            ],
            [
              78.498565,
              17.39246
            ],
            [
              78.497485,
              17.393119
            ],
            [
              78.496479,
              17.393688
            ],
            [
              78.494327,
              17.394843
            ]
          ]
        ]
      }
    }
  ]
}