{
  "type": "FeatureCollection",
  "features": [
    {
      "type": "Feature",
      "properties": {},
      "geometry": {
        "type": "Polygon",
        "coordinates": [
          [
            [
              78.502205,
              17.428317
            ],
            [
              78.501999,
              17.426214
            ],
            [
              78.501894,
              17.424029
            ],
            [
              78.503205,
              17.424085
            ],
            [
              78.50558,
              17.423833
            ],
            [
              78.50319,
              17.420211
            ],
            [
              78.505489,
              17.41975
            ],
            [
              78.506201,
              17.41988
            ],
            [
              78.506986,
              17.420317
            ],
            [
              78.508243,
              17.421039
            ],
            [
              78.509758,
              17.421785
            ],
            [
              78.510471,
              17.42242
            ],
            [
              78.510802,
              17.423605
            ],
            [
              78.510886,
              17.423946
            ],
            [
              78.510923,
              17.424089
            ],
            [
              78.511095,
              17.425663
            ],
            [
              78.511407,
              17.427092
            ],
            [
              78.511565,
              17.427813
            ],
            [
              78.511614,
              17.428086
            ],
            [
              78.511612,
              17.428568
            ],
            [
              78.509898,
              17.429733
            ],
            [
              78.509039,
              17.430322
            ],
            [
              78.508207,
              17.430878
            ],
            [
              78.508071,
              17.430861
            ],
            [
              78.506484,
              17.430535
            ],
            [
              78.504908,
              17.430215
            ],
            [
              78.502205,
              17.428317
            ]
          ]
        ]
      }
    }
  ]
}