{
  "type": "FeatureCollection",
  "features": [
    {
      "type": "Feature",
      "properties": {},
      "geometry": {
        "type": "Polygon",
        "coordinates": [
          [
            [
              78.500926,
              17.399767
            ],
            [
              78.50177,
              17.398323
            ],
            [
              78.503109,
              17.395962
            ],
            [
              78.504856,
              17.394545
            ],
            [
              78.505356,
              17.394489
            ],
            [
              78.505758,
              17.395323
            ],
            [
              78.510912,
              17.394913
            ],
            [
              78.512191,
              17.399267
            ],
            [
              78.510037,
              17.399851
            ],
            [
              78.507708,
              17.401434
            ],
            [
              78.504826,
              17.400962
            ],
            [
              78.500926,
              17.399767
            ]
          ]
        ]
      }
    }
  ]
}