{
  "type": "FeatureCollection",
  "features": [
    {
      "type": "Feature",
      "properties": {},
      "geometry": {
        "type": "Polygon",
        "coordinates": [
          [
            [
              78.403958677,
              17.483959452
            ],
            [
              78.408304254,
              17.47881122
            ],
            [
              78.414397272,
              17.480044829
            ],
            [
              78.41563312,
              17.481799282
            ],
            [
              78.412717486,
              17.483648192
            ],
            [
              78.411440038,
              17.485421895
            ],
            [
              78.407486688,
              17.490775409
            ],
            [
              78.40533114,
              17.488280915
            ],
            [
              78.403958677,
              17.483959452
            ]
          ]
        ]
      }
    }
  ]
}