{
  "type": "FeatureCollection",
  "features": [
    {
      "type": "Feature",
      "properties": {},
      "geometry": {
        "type": "Polygon",
        "coordinates": [
          [
            [
              78.423539,
              17.475921
            ],
            [
              78.427728,
              17.473506
            ],
            [
              78.427758,
              17.47438
            ],
            [
              78.427973,
              17.476373
            ],
            [
              78.428127,
              17.47822
            ],
            [
              78.428619,
              17.479188
            ],
            [
              78.428711,
              17.480097
            ],
            [
              78.42865,
              17.480889
            ],
            [
              78.427605,
              17.48124
            ],
            [
              78.427512,
              17.482325
            ],
            [
              78.427451,
              17.483879
            ],
            [
              78.426959,
              17.484524
            ],
            [
              78.426252,
              17.48558
            ],
            [
              78.426283,
              17.486195
            ],
            [
              78.426652,
              17.486752
            ],
            [
              78.426221,
              17.487485
            ],
            [
              78.424961,
              17.487133
            ],
            [
              78.424469,
              17.487515
            ],
            [
              78.424313,
              17.487851
            ],
            [
              78.42416,
              17.488408
            ],
            [
              78.423575,
              17.489258
            ],
            [
              78.425082,
              17.490167
            ],
            [
              78.425112,
              17.490578
            ],
            [
              78.424252,
              17.492102
            ],
            [
              78.424344,
              17.49342
            ],
            [
              78.423497,
              17.495036
            ],
            [
              78.422106,
              17.495728
            ],
            [
              78.421017,
              17.497112
            ],
            [
              78.420473,
              17.497977
            ],
            [
              78.417691,
              17.498322
            ],
            [
              78.417207,
              17.497861
            ],
            [
              78.416239,
              17.498495
            ],
            [
              78.415339,
              17.49886
            ],
            [
              78.414983,
              17.498449
            ],
            [
              78.414345,
              17.497523
            ],
            [
              78.413945,
              17.496975
            ],
            [
              78.412008,
              17.49509
            ],
            [
              78.407594,
              17.490737
            ],
            [
              78.409735,
              17.487927
            ],
            [
              78.411849,
              17.484937
            ],
            [
              78.412707,
              17.483823
            ],
            [
              78.416243,
              17.481511
            ],
            [
              78.4182,
              17.479586
            ],
            [
              78.421212,
              17.477437
            ],
            [
              78.423539,
              17.475921
            ]
          ]
        ]
      }
    }
  ]
}