{
  "type": "FeatureCollection",
  "features": [
    {
      "type": "Feature",
      "properties": {},
      "geometry": {
        "type": "Polygon",
        "coordinates": [
          [
            [
              78.400129,
              17.513652
            ],
            [
              78.401736,
              17.510688
            ],
            [
              78.40174,
              17.503249
            ],
            [
              78.402089,
              17.499373
            ],
            [
              78.402039,
              17.498662
            ],
            [
              78.40179,
              17.498283
            ],
            [
              78.399754,
              17.494717
            ],
            [
              78.404104,
              17.492821
            ],
            [
              78.406398,
              17.496738
            ],
            [
              78.409466,
              17.49797
            ],
            [
              78.410667,
              17.49695
            ],
            [
              78.412612,
              17.497979
            ],
            [
              78.412803,
              17.498405
            ],
            [
              78.414181,
              17.497401
            ],
            [
              78.414896,
              17.498469
            ],
            [
              78.415071,
              17.498641
            ],
            [
              78.414313,
              17.499124
            ],
            [
              78.414053,
              17.499473
            ],
            [
              78.413494,
              17.501531
            ],
            [
              78.411696,
              17.50139
            ],
            [
              78.408296,
              17.502242
            ],
            [
              78.407781,
              17.507027
            ],
            [
              78.409741,
              17.50813
            ],
            [
              78.410703,
              17.510335
            ],
            [
              78.413105,
              17.513295
            ],
            [
              78.405756,
              17.515152
            ],
            [
              78.400129,
              17.513652
            ]
          ]
        ]
      }
    }
  ]
}