{
  "type": "FeatureCollection",
  "features": [
    {
      "type": "Feature",
      "properties": {},
      "geometry": {
        "type": "Polygon",
        "coordinates": [
          [
            [
              78.488991,
              17.390867
            ],
            [
              78.49558,
              17.389687
            ],
            [
              78.499043,
              17.389451
            ],
            [
              78.50118,
              17.390567
            ],
            [
              78.502911,
              17.392262
            ],
            [
              78.504688,
              17.394687
            ],
            [
              78.510827,
              17.393872
            ],
            [
              78.512356,
              17.397885
            ],
            [
              78.513886,
              17.401855
            ],
            [
              78.512334,
              17.401962
            ],
            [
              78.511052,
              17.401618
            ],
            [
              78.50959,
              17.402219
            ],
            [
              78.508736,
              17.401468
            ],
            [
              78.507566,
              17.401704
            ],
            [
              78.505902,
              17.400503
            ],
            [
              78.505835,
              17.399709
            ],
            [
              78.503541,
              17.399022
            ],
            [
              78.502664,
              17.399344
            ],
            [
              78.500955,
              17.399279
            ],
            [
              78.500437,
              17.399365
            ],
            [
              78.498526,
              17.399816
            ],
            [
              78.495512,
              17.399902
            ],
            [
              78.494388,
              17.399301
            ],
            [
              78.494096,
              17.398657
            ],
            [
              78.492634,
              17.397927
            ],
            [
              78.490025,
              17.395116
            ],
            [
              78.4898,
              17.393721
            ],
            [
              78.488991,
              17.390867
            ]
          ]
        ]
      }
    }
  ]
}