{
  "type": "FeatureCollection",
  "features": [
    {
      "type": "Feature",
      "properties": {},
      "geometry": {
        "type": "Polygon",
        "coordinates": [
          [
            [
              78.499078,
              17.417566
            ],
            [
              78.497418,
              17.414678
            ],
            [
              78.492926,
              17.399026
            ],
            [
              78.494749,
              17.40002
            ],
            [
              78.496767,
              17.40002
            ],
            [
              78.49911,
              17.399895
            ],
            [
              78.500347,
              17.399585
            ],
            [
              78.502593,
              17.39943
            ],
            [
              78.503634,
              17.399274
            ],
            [
              78.50575,
              17.399895
            ],
            [
              78.50575,
              17.400765
            ],
            [
              78.50614,
              17.400889
            ],
            [
              78.507214,
              17.401821
            ],
            [
              78.508842,
              17.401697
            ],
            [
              78.509623,
              17.402287
            ],
            [
              78.513431,
              17.402069
            ],
            [
              78.516067,
              17.403902
            ],
            [
              78.518671,
              17.412722
            ],
            [
              78.51457,
              17.414275
            ],
            [
              78.511413,
              17.414554
            ],
            [
              78.509786,
              17.415331
            ],
            [
              78.506661,
              17.41589
            ],
            [
              78.504936,
              17.416417
            ],
            [
              78.501747,
              17.417473
            ],
            [
              78.499078,
              17.417566
            ]
          ]
        ]
      }
    }
  ]
}