{
  "type": "FeatureCollection",
  "features": [
    {
      "type": "Feature",
      "properties": {},
      "geometry": {
        "type": "Polygon",
        "coordinates": [
          [
            [
              78.526506,
              17.442044
            ],
            [
              78.525554,
              17.441392
            ],
            [
              78.524063,
              17.440555
            ],
            [
              78.522378,
              17.439624
            ],
            [
              78.526493,
              17.437916
            ],
            [
              78.535068,
              17.434909
            ],
            [
              78.53732,
              17.43392
            ],
            [
              78.539671,
              17.43357
            ],
            [
              78.543447,
              17.434357
            ],
            [
              78.545382,
              17.435009
            ],
            [
              78.547036,
              17.436164
            ],
            [
              78.544581,
              17.439928
            ],
            [
              78.548045,
              17.444445
            ],
            [
              78.547226,
              17.448139
            ],
            [
              78.546366,
              17.449723
            ],
            [
              78.545473,
              17.449817
            ],
            [
              78.544979,
              17.449834
            ],
            [
              78.544535,
              17.449791
            ],
            [
              78.543422,
              17.449874
            ],
            [
              78.542161,
              17.449933
            ],
            [
              78.54094,
              17.450099
            ],
            [
              78.539773,
              17.450439
            ],
            [
              78.536421,
              17.449277
            ],
            [
              78.531182,
              17.446173
            ],
            [
              78.530478,
              17.446091
            ],
            [
              78.529426,
              17.445585
            ],
            [
              78.52865,
              17.445143
            ],
            [
              78.528259,
              17.444542
            ],
            [
              78.52807,
              17.444248
            ],
            [
              78.527553,
              17.443269
            ],
            [
              78.526506,
              17.442044
            ]
          ]
        ]
      }
    }
  ]
}