{
  "type": "FeatureCollection",
  "features": [
    {
      "type": "Feature",
      "properties": {},
      "geometry": {
        "type": "Polygon",
        "coordinates": [
          [
            [
              78.530627,
              17.426947
            ],
            [
              78.533033,
              17.425918
            ],
            [
              78.536435,
              17.424968
            ],
            [
              78.538509,
              17.42291
            ],
            [
              78.541704,
              17.419783
            ],
            [
              78.545894,
              17.423385
            ],
            [
              78.550789,
              17.427858
            ],
            [
              78.553984,
              17.431855
            ],
            [
              78.554481,
              17.435101
            ],
            [
              78.549171,
              17.43799
            ],
            [
              78.546143,
              17.434863
            ],
            [
              78.541994,
              17.433518
            ],
            [
              78.53768,
              17.433241
            ],
            [
              78.533199,
              17.434982
            ],
            [
              78.524902,
              17.438149
            ],
            [
              78.521002,
              17.439257
            ],
            [
              78.516937,
              17.438624
            ],
            [
              78.515692,
              17.437872
            ],
            [
              78.51619,
              17.437159
            ],
            [
              78.516921,
              17.437345
            ],
            [
              78.517849,
              17.437159
            ],
            [
              78.519343,
              17.436367
            ],
            [
              78.525753,
              17.430537
            ],
            [
              78.530627,
              17.426947
            ]
          ]
        ]
      }
    }
  ]
}