{
  "type": "FeatureCollection",
  "features": [
    {
      "type": "Feature",
      "properties": {},
      "geometry": {
        "type": "Polygon",
        "coordinates": [
          [
            [
              78.5298,
              17.449683
            ],
            [
              78.529112,
              17.447823
            ],
            [
              78.5287,
              17.445195
            ],
            [
              78.530383,
              17.44616
            ],
            [
              78.5322,
              17.446883
            ],
            [
              78.534669,
              17.448372
            ],
            [
              78.535395,
              17.448806
            ],
            [
              78.536144,
              17.449273
            ],
            [
              78.538246,
              17.450062
            ],
            [
              78.539658,
              17.450485
            ],
            [
              78.540692,
              17.450216
            ],
            [
              78.541131,
              17.450122
            ],
            [
              78.541584,
              17.450059
            ],
            [
              78.54258,
              17.449955
            ],
            [
              78.543539,
              17.449944
            ],
            [
              78.546001,
              17.4499
            ],
            [
              78.548682,
              17.449683
            ],
            [
              78.550165,
              17.455778
            ],
            [
              78.548287,
              17.45666
            ],
            [
              78.546223,
              17.457112
            ],
            [
              78.544147,
              17.457694
            ],
            [
              78.542091,
              17.458195
            ],
            [
              78.540088,
              17.458805
            ],
            [
              78.538182,
              17.458588
            ],
            [
              78.536418,
              17.4587
            ],
            [
              78.532767,
              17.458934
            ],
            [
              78.531797,
              17.45654
            ],
            [
              78.5298,
              17.449683
            ]
          ]
        ]
      }
    }
  ]
}