{
  "type": "FeatureCollection",
  "features": [
    {
      "type": "Feature",
      "properties": {},
      "geometry": {
        "type": "Polygon",
        "coordinates": [
          [
            [
              78.531262,
              17.462397
            ],
            [
              78.519014,
              17.460246
            ],
            [
              78.507452,
              17.456732
            ],
            [
              78.497016,
              17.453811
            ],
            [
              78.4967,
              17.449996
            ],
            [
              78.499012,
              17.443615
            ],
            [
              78.505139,
              17.441171
            ],
            [
              78.511967,
              17.436675
            ],
            [
              78.516145,
              17.43887
            ],
            [
              78.518206,
              17.439513
            ],
            [
              78.520623,
              17.439653
            ],
            [
              78.521981,
              17.439742
            ],
            [
              78.523302,
              17.440219
            ],
            [
              78.524324,
              17.440882
            ],
            [
              78.525858,
              17.442004
            ],
            [
              78.527294,
              17.443271
            ],
            [
              78.528334,
              17.44567
            ],
            [
              78.529412,
              17.449917
            ],
            [
              78.532286,
              17.458863
            ],
            [
              78.532764,
              17.460351
            ],
            [
              78.532917,
              17.461496
            ],
            [
              78.531262,
              17.462397
            ]
          ]
        ]
      }
    }
  ]
}