{
  "type": "FeatureCollection",
  "features": [
    {
      "type": "Feature",
      "properties": {},
      "geometry": {
        "type": "Polygon",
        "coordinates": [
          [
            [
              78.434069,
              17.456486
            ],
            [
              78.435006,
              17.454506
            ],
            [
              78.437143,
              17.449652
            ],
            [
              78.43841,
              17.447563
            ],
            [
              78.439227,
              17.445862
            ],
            [
              78.443687,
              17.447032
            ],
            [
              78.44919,
              17.447201
            ],
            [
              78.449179,
              17.448341
            ],
            [
              78.451459,
              17.447941
            ],
            [
              78.451099,
              17.449887
            ],
            [
              78.450019,
              17.455611
            ],
            [
              78.444919,
              17.45624
            ],
            [
              78.436399,
              17.457213
            ],
            [
              78.434069,
              17.456486
            ]
          ]
        ]
      }
    }
  ]
}