{
  "type": "FeatureCollection",
  "features": [
    {
      "type": "Feature",
      "properties": {},
      "geometry": {
        "type": "Polygon",
        "coordinates": [
          [
            [
              78.4137,
              17.474888
            ],
            [
              78.414158,
              17.473963
            ],
            [
              78.415693,
              17.471086
            ],
            [
              78.416798,
              17.467412
            ],
            [
              78.417875,
              17.462788
            ],
            [
              78.417659,
              17.460578
            ],
            [
              78.41809,
              17.46009
            ],
            [
              78.419141,
              17.460578
            ],
            [
              78.425578,
              17.461452
            ],
            [
              78.430157,
              17.461965
            ],
            [
              78.434547,
              17.462222
            ],
            [
              78.440499,
              17.462479
            ],
            [
              78.4419,
              17.463764
            ],
            [
              78.440068,
              17.467104
            ],
            [
              78.435059,
              17.467464
            ],
            [
              78.433712,
              17.46808
            ],
            [
              78.431746,
              17.469673
            ],
            [
              78.429806,
              17.470161
            ],
            [
              78.428648,
              17.470932
            ],
            [
              78.426709,
              17.471471
            ],
            [
              78.42415,
              17.473629
            ],
            [
              78.418521,
              17.475351
            ],
            [
              78.41467,
              17.475145
            ],
            [
              78.4137,
              17.474888
            ]
          ]
        ]
      }
    }
  ]
}