{
  "type": "FeatureCollection",
  "features": [
    {
      "type": "Feature",
      "properties": {},
      "geometry": {
        "type": "Polygon",
        "coordinates": [
          [
            [
              78.439309,
              17.445682
            ],
            [
              78.442619,
              17.439562
            ],
            [
              78.44396,
              17.436955
            ],
            [
              78.448239,
              17.437545
            ],
            [
              78.448218,
              17.438609
            ],
            [
              78.448218,
              17.441905
            ],
            [
              78.449218,
              17.447032
            ],
            [
              78.446772,
              17.447032
            ],
            [
              78.4441,
              17.446924
            ],
            [
              78.439309,
              17.445682
            ]
          ]
        ]
      }
    }
  ]
}