{
  "type": "FeatureCollection",
  "features": [
    {
      "type": "Feature",
      "properties": {},
      "geometry": {
        "type": "Polygon",
        "coordinates": [
          [
            [
              78.43258,
              17.444254
            ],
            [
              78.429461,
              17.444669
            ],
            [
              78.424528,
              17.444116
            ],
            [
              78.424238,
              17.439686
            ],
            [
              78.428808,
              17.437472
            ],
            [
              78.433378,
              17.436641
            ],
            [
              78.43657,
              17.43415
            ],
            [
              78.439399,
              17.430274
            ],
            [
              78.445783,
              17.430205
            ],
            [
              78.449192,
              17.430205
            ],
            [
              78.446798,
              17.432696
            ],
            [
              78.44426,
              17.435603
            ],
            [
              78.441068,
              17.441763
            ],
            [
              78.437513,
              17.447853
            ],
            [
              78.432943,
              17.448683
            ],
            [
              78.43258,
              17.444254
            ]
          ]
        ]
      }
    }
  ]
}