{
  "type": "FeatureCollection",
  "features": [
    {
      "type": "Feature",
      "properties": {},
      "geometry": {
        "type": "Polygon",
        "coordinates": [
          [
            [
              78.453113,
              17.403274
            ],
            [
              78.455021,
              17.404388
            ],
            [
              78.457383,
              17.40297
            ],
            [
              78.460092,
              17.403122
            ],
            [
              78.462198,
              17.40297
            ],
            [
              78.464121,
              17.404071
            ],
            [
              78.466586,
              17.406966
            ],
            [
              78.46553,
              17.412681
            ],
            [
              78.461976,
              17.415665
            ],
            [
              78.457172,
              17.417446
            ],
            [
              78.451962,
              17.417064
            ],
            [
              78.449183,
              17.416962
            ],
            [
              78.449183,
              17.415687
            ],
            [
              78.450757,
              17.414134
            ],
            [
              78.449463,
              17.411821
            ],
            [
              78.450696,
              17.407887
            ],
            [
              78.453113,
              17.403274
            ]
          ]
        ]
      }
    }
  ]
}