{
  "type": "FeatureCollection",
  "features": [
    {
      "type": "Feature",
      "properties": {},
      "geometry": {
        "type": "Polygon",
        "coordinates": [
          [
            [
              78.420969,
              17.465732
            ],
            [
              78.424981,
              17.466278
            ],
            [
              78.427846,
              17.469763
            ],
            [
              78.429781,
              17.47359
            ],
            [
              78.431787,
              17.482337
            ],
            [
              78.426629,
              17.490537
            ],
            [
              78.419896,
              17.49607
            ],
            [
              78.414385,
              17.499617
            ],
            [
              78.406446,
              17.496333
            ],
            [
              78.404446,
              17.493599
            ],
            [
              78.407806,
              17.490802
            ],
            [
              78.403428,
              17.484044
            ],
            [
              78.406932,
              17.481176
            ],
            [
              78.413026,
              17.470793
            ],
            [
              78.420969,
              17.465732
            ]
          ]
        ]
      }
    }
  ]
}