{
  "type": "FeatureCollection",
  "features": [
    {
      "type": "Feature",
      "properties": {},
      "geometry": {
        "type": "Polygon",
        "coordinates": [
          [
            [
              78.446803,
              17.415026
            ],
            [
              78.44878,
              17.414797
            ],
            [
              78.448994,
              17.417142
            ],
            [
              78.457252,
              17.41765
            ],
            [
              78.460878,
              17.423088
            ],
            [
              78.463374,
              17.432102
            ],
            [
              78.459706,
              17.432497
            ],
            [
              78.458315,
              17.432653
            ],
            [
              78.456398,
              17.432014
            ],
            [
              78.452881,
              17.43097
            ],
            [
              78.450054,
              17.429899
            ],
            [
              78.449131,
              17.429656
            ],
            [
              78.447959,
              17.429689
            ],
            [
              78.445392,
              17.429944
            ],
            [
              78.438971,
              17.43024
            ],
            [
              78.43996,
              17.427265
            ],
            [
              78.438262,
              17.426434
            ],
            [
              78.433467,
              17.424932
            ],
            [
              78.428394,
              17.423678
            ],
            [
              78.426738,
              17.423078
            ],
            [
              78.427623,
              17.422588
            ],
            [
              78.428985,
              17.420579
            ],
            [
              78.429308,
              17.417043
            ],
            [
              78.435712,
              17.41605
            ],
            [
              78.439958,
              17.415854
            ],
            [
              78.443462,
              17.415844
            ],
            [
              78.446803,
              17.415026
            ]
          ]
        ]
      }
    }
  ]
}