{
  "type": "FeatureCollection",
  "features": [
    {
      "type": "Feature",
      "properties": {},
      "geometry": {
        "type": "Polygon",
        "coordinates": [
          [
            [
              78.426358,
              17.423244
            ],
            [
              78.428654,
              17.42401
            ],
            [
              78.434451,
              17.425471
            ],
            [
              78.437787,
              17.426497
            ],
            [
              78.439719,
              17.427524
            ],
            [
              78.438812,
              17.430189
            ],
            [
              78.439006,
              17.430558
            ],
            [
              78.437884,
              17.432067
            ],
            [
              78.436499,
              17.433915
            ],
            [
              78.434545,
              17.435507
            ],
            [
              78.432911,
              17.436864
            ],
            [
              78.43181,
              17.437527
            ],
            [
              78.429082,
              17.438345
            ],
            [
              78.428642,
              17.43718
            ],
            [
              78.423709,
              17.439317
            ],
            [
              78.422985,
              17.438807
            ],
            [
              78.421256,
              17.439398
            ],
            [
              78.419065,
              17.440901
            ],
            [
              78.418811,
              17.441834
            ],
            [
              78.417007,
              17.442628
            ],
            [
              78.410575,
              17.435529
            ],
            [
              78.420362,
              17.431314
            ],
            [
              78.41589,
              17.427097
            ],
            [
              78.426358,
              17.423244
            ]
          ]
        ]
      }
    }
  ]
}