{
  "type": "FeatureCollection",
  "features": [
    {
      "type": "Feature",
      "properties": {},
      "geometry": {
        "type": "Polygon",
        "coordinates": [
          [
            [
              78.391334664,
              17.498264364
            ],
            [
              78.391643446,
              17.499320883
            ],
            [
              78.392339282,
              17.505615318
            ],
            [
              78.392014621,
              17.50568389
            ],
            [
              78.391752954,
              17.506867705
            ],
            [
              78.39170997,
              17.507437451
            ],
            [
              78.391946272,
              17.509516503
            ],
            [
              78.392186139,
              17.512176399
            ],
            [
              78.393183059,
              17.516358736
            ],
            [
              78.392670713,
              17.518743793
            ],
            [
              78.389500212,
              17.518915946
            ],
            [
              78.387653949,
              17.524174029
            ],
            [
              78.375860116,
              17.526548224
            ],
            [
              78.370331105,
              17.531401015
            ],
            [
              78.367720832,
              17.540907041
            ],
            [
              78.363280825,
              17.541009516
            ],
            [
              78.36035839,
              17.540182129
            ],
            [
              78.361869286,
              17.535330204
            ],
            [
              78.36436763,
              17.527687309
            ],
            [
              78.369156763,
              17.521704084
            ],
            [
              78.37434334,
              17.519227573
            ],
            [
              78.378345114,
              17.513963823
            ],
            [
              78.378996782,
              17.506847466
            ],
            [
              78.377158865,
              17.506849438
            ],
            [
              78.376402849,
              17.501384205
            ],
            [
              78.377701274,
              17.497426499
            ],
            [
              78.380733291,
              17.498935543
            ],
            [
              78.382499136,
              17.49949394
            ],
            [
              78.391334664,
              17.498264364
            ]
          ]
        ]
      }
    }
  ]
}