{
  "type": "FeatureCollection",
  "features": [
    {
      "type": "Feature",
      "properties": {},
      "geometry": {
        "type": "Polygon",
        "coordinates": [
          [
            [
              78.392834,
              17.440908
            ],
            [
              78.396487,
              17.45149
            ],
            [
              78.384734,
              17.45254
            ],
            [
              78.38359,
              17.448383
            ],
            [
              78.386979,
              17.444268
            ],
            [
              78.387552,
              17.442756
            ],
            [
              78.388828,
              17.44116
            ],
            [
              78.392834,
              17.440908
            ]
          ]
        ]
      }
    }
  ]
}