{
  "type": "FeatureCollection",
  "features": [
    {
      "type": "Feature",
      "properties": {},
      "geometry": {
        "type": "Polygon",
        "coordinates": [
          [
            [
              78.397671,
              17.541419
            ],
            [
              78.399269,
              17.539871
            ],
            [
              78.400478,
              17.537669
            ],
            [
              78.401688,
              17.534871
            ],
            [
              78.404682,
              17.534315
            ],
            [
              78.410007,
              17.532486
            ],
            [
              78.410622,
              17.532212
            ],
            [
              78.411918,
              17.531039
            ],
            [
              78.412271,
              17.530715
            ],
            [
              78.41255,
              17.530461
            ],
            [
              78.414772,
              17.528524
            ],
            [
              78.414656,
              17.528179
            ],
            [
              78.41612,
              17.527597
            ],
            [
              78.417311,
              17.527558
            ],
            [
              78.417791,
              17.527964
            ],
            [
              78.419077,
              17.52791
            ],
            [
              78.420037,
              17.529812
            ],
            [
              78.420007,
              17.531026
            ],
            [
              78.420399,
              17.532676
            ],
            [
              78.413501,
              17.534865
            ],
            [
              78.410715,
              17.540348
            ],
            [
              78.407342,
              17.541856
            ],
            [
              78.401519,
              17.544852
            ],
            [
              78.399689,
              17.542441
            ],
            [
              78.397671,
              17.541419
            ]
          ]
        ]
      }
    }
  ]
}