{
  "type": "FeatureCollection",
  "features": [
    {
      "type": "Feature",
      "properties": {},
      "geometry": {
        "type": "Polygon",
        "coordinates": [
          [
            [
              78.423636,
              17.475656
            ],
            [
              78.425833,
              17.472252
            ],
            [
              78.428016,
              17.469084
            ],
            [
              78.430735,
              17.463479
            ],
            [
              78.432559,
              17.459538
            ],
            [
              78.440399,
              17.462341
            ],
            [
              78.445642,
              17.466635
            ],
            [
              78.4456,
              17.467085
            ],
            [
              78.444147,
              17.467586
            ],
            [
              78.438214,
              17.469876
            ],
            [
              78.434047,
              17.471085
            ],
            [
              78.428341,
              17.472986
            ],
            [
              78.423636,
              17.475656
            ]
          ]
        ]
      }
    }
  ]
}