{
  "type": "FeatureCollection",
  "features": [
    {
      "type": "Feature",
      "properties": {},
      "geometry": {
        "type": "Polygon",
        "coordinates": [
          [
            [
              78.432243,
              17.459047
            ],
            [
              78.430734,
              17.462042
            ],
            [
              78.42828,
              17.461839
            ],
            [
              78.422373,
              17.460503
            ],
            [
              78.41614,
              17.458896
            ],
            [
              78.408933,
              17.458342
            ],
            [
              78.406886,
              17.45658
            ],
            [
              78.406786,
              17.45519
            ],
            [
              78.40729,
              17.453939
            ],
            [
              78.408051,
              17.45277
            ],
            [
              78.40941,
              17.453658
            ],
            [
              78.412802,
              17.453448
            ],
            [
              78.41153,
              17.450142
            ],
            [
              78.413852,
              17.448316
            ],
            [
              78.416294,
              17.447919
            ],
            [
              78.421625,
              17.449155
            ],
            [
              78.425083,
              17.44925
            ],
            [
              78.427735,
              17.449959
            ],
            [
              78.4306,
              17.449569
            ],
            [
              78.43035,
              17.445124
            ],
            [
              78.434909,
              17.443808
            ],
            [
              78.439237,
              17.444706
            ],
            [
              78.437757,
              17.448323
            ],
            [
              78.435193,
              17.453097
            ],
            [
              78.433749,
              17.456169
            ],
            [
              78.432243,
              17.459047
            ]
          ]
        ]
      }
    }
  ]
}