{
  "type": "FeatureCollection",
  "features": [
    {
      "type": "Feature",
      "properties": {},
      "geometry": {
        "type": "Polygon",
        "coordinates": [
          [
            [
              78.43885,
              17.446759
            ],
            [
              78.441762,
              17.441838
            ],
            [
              78.442481,
              17.440748
            ],
            [
              78.444088,
              17.436763
            ],
            [
              78.440395,
              17.437597
            ],
            [
              78.439816,
              17.436575
            ],
            [
              78.438004,
              17.436065
            ],
            [
              78.436589,
              17.436208
            ],
            [
              78.432611,
              17.436425
            ],
            [
              78.431583,
              17.435729
            ],
            [
              78.428293,
              17.436497
            ],
            [
              78.427119,
              17.434185
            ],
            [
              78.425225,
              17.429848
            ],
            [
              78.431967,
              17.429667
            ],
            [
              78.438672,
              17.429956
            ],
            [
              78.442573,
              17.430029
            ],
            [
              78.447801,
              17.429848
            ],
            [
              78.449998,
              17.430029
            ],
            [
              78.445503,
              17.434022
            ],
            [
              78.448764,
              17.434484
            ],
            [
              78.452597,
              17.43604
            ],
            [
              78.455637,
              17.435157
            ],
            [
              78.45718,
              17.438562
            ],
            [
              78.455814,
              17.439613
            ],
            [
              78.453346,
              17.443438
            ],
            [
              78.45198,
              17.446633
            ],
            [
              78.449116,
              17.447011
            ],
            [
              78.446825,
              17.446591
            ],
            [
              78.43885,
              17.446759
            ]
          ]
        ]
      }
    }
  ]
}