{
  "type": "FeatureCollection",
  "features": [
    {
      "type": "Feature",
      "properties": {},
      "geometry": {
        "type": "Polygon",
        "coordinates": [
          [
            [
              78.441049,
              17.442506
            ],
            [
              78.439924,
              17.442011
            ],
            [
              78.432742,
              17.444528
            ],
            [
              78.427118,
              17.443868
            ],
            [
              78.424393,
              17.442217
            ],
            [
              78.414077,
              17.438235
            ],
            [
              78.412206,
              17.43525
            ],
            [
              78.417948,
              17.432665
            ],
            [
              78.421658,
              17.43088
            ],
            [
              78.425109,
              17.429895
            ],
            [
              78.427432,
              17.435066
            ],
            [
              78.428275,
              17.436603
            ],
            [
              78.431558,
              17.4358
            ],
            [
              78.432664,
              17.436636
            ],
            [
              78.437897,
              17.43613
            ],
            [
              78.439787,
              17.436636
            ],
            [
              78.440363,
              17.437669
            ],
            [
              78.444005,
              17.436812
            ],
            [
              78.442391,
              17.440748
            ],
            [
              78.441049,
              17.442506
            ]
          ]
        ]
      }
    }
  ]
}