{
  "type": "FeatureCollection",
  "features": [
    {
      "type": "Feature",
      "properties": {},
      "geometry": {
        "type": "Polygon",
        "coordinates": [
          [
            [
              78.524292,
              17.376391
            ],
            [
              78.525016,
              17.372369
            ],
            [
              78.522267,
              17.368694
            ],
            [
              78.523444,
              17.368646
            ],
            [
              78.525839,
              17.368571
            ],
            [
              78.528716,
              17.368547
            ],
            [
              78.528663,
              17.371062
            ],
            [
              78.529876,
              17.375915
            ],
            [
              78.526969,
              17.374872
            ],
            [
              78.524292,
              17.376391
            ]
          ]
        ]
      }
    }
  ]
}