{
  "type": "FeatureCollection",
  "features": [
    {
      "type": "Feature",
      "properties": {},
      "geometry": {
        "type": "Polygon",
        "coordinates": [
          [
            [
              78.524216,
              17.376531
            ],
            [
              78.523961,
              17.376344
            ],
            [
              78.52376,
              17.375637
            ],
            [
              78.523493,
              17.374593
            ],
            [
              78.522888,
              17.372222
            ],
            [
              78.522515,
              17.370655
            ],
            [
              78.522676,
              17.369917
            ],
            [
              78.52332,
              17.370321
            ],
            [
              78.52403,
              17.371188
            ],
            [
              78.524909,
              17.372422
            ],
            [
              78.524677,
              17.373819
            ],
            [
              78.524216,
              17.376531
            ]
          ]
        ]
      }
    }
  ]
}