{
  "type": "FeatureCollection",
  "features": [
    {
      "type": "Feature",
      "properties": {},
      "geometry": {
        "type": "Polygon",
        "coordinates": [
          [
            [
              78.531945,
              17.354366
            ],
            [
              78.529602,
              17.352373
            ],
            [
              78.531992,
              17.34417
            ],
            [
              78.546181,
              17.342241
            ],
            [
              78.550261,
              17.345433
            ],
            [
              78.549706,
              17.345712
            ],
            [
              78.547016,
              17.347498
            ],
            [
              78.543085,
              17.349379
            ],
            [
              78.540658,
              17.350272
            ],
            [
              78.538553,
              17.351054
            ],
            [
              78.537002,
              17.351497
            ],
            [
              78.536677,
              17.35187
            ],
            [
              78.53425,
              17.353266
            ],
            [
              78.531945,
              17.354366
            ]
          ]
        ]
      }
    }
  ]
}