{
  "type": "FeatureCollection",
  "features": [
    {
      "type": "Feature",
      "properties": {},
      "geometry": {
        "type": "Polygon",
        "coordinates": [
          [
            [
              78.568509,
              17.332562
            ],
            [
              78.567845,
              17.32964
            ],
            [
              78.566701,
              17.328676
            ],
            [
              78.568721,
              17.328699
            ],
            [
              78.571067,
              17.328679
            ],
            [
              78.57391,
              17.326231
            ],
            [
              78.574388,
              17.326648
            ],
            [
              78.574731,
              17.327312
            ],
            [
              78.574955,
              17.327964
            ],
            [
              78.575354,
              17.328717
            ],
            [
              78.575479,
              17.330484
            ],
            [
              78.575354,
              17.331742
            ],
            [
              78.575225,
              17.332452
            ],
            [
              78.575185,
              17.332783
            ],
            [
              78.575148,
              17.333147
            ],
            [
              78.575061,
              17.333868
            ],
            [
              78.574737,
              17.334479
            ],
            [
              78.574232,
              17.335581
            ],
            [
              78.573945,
              17.336104
            ],
            [
              78.573652,
              17.336574
            ],
            [
              78.573176,
              17.336678
            ],
            [
              78.56955,
              17.337929
            ],
            [
              78.568509,
              17.332562
            ]
          ]
        ]
      }
    }
  ]
}