{
  "type": "FeatureCollection",
  "features": [
    {
      "type": "Feature",
      "properties": {},
      "geometry": {
        "type": "Polygon",
        "coordinates": [
          [
            [
              78.459394,
              17.394734
            ],
            [
              78.45962,
              17.391795
            ],
            [
              78.460649,
              17.391638
            ],
            [
              78.46321,
              17.391327
            ],
            [
              78.464657,
              17.391186
            ],
            [
              78.465426,
              17.391428
            ],
            [
              78.464886,
              17.392248
            ],
            [
              78.463594,
              17.393637
            ],
            [
              78.463014,
              17.393965
            ],
            [
              78.46206,
              17.394266
            ],
            [
              78.460522,
              17.39457
            ],
            [
              78.459394,
              17.394734
            ]
          ]
        ]
      }
    }
  ]
}