{
  "type": "FeatureCollection",
  "features": [
    {
      "type": "Feature",
      "properties": {},
      "geometry": {
        "type": "Polygon",
        "coordinates": [
          [
            [
              78.498709,
              17.374449
            ],
            [
              78.498988,
              17.37337
            ],
            [
              78.4997,
              17.372079
            ],
            [
              78.500525,
              17.370777
            ],
            [
              78.501552,
              17.369865
            ],
            [
              78.501903,
              17.367874
            ],
            [
              78.501669,
              17.365362
            ],
            [
              78.50145,
              17.364264
            ],
            [
              78.50285,
              17.363652
            ],
            [
              78.505627,
              17.362157
            ],
            [
              78.506125,
              17.361886
            ],
            [
              78.506695,
              17.361818
            ],
            [
              78.508142,
              17.362089
            ],
            [
              78.510207,
              17.362225
            ],
            [
              78.512428,
              17.363231
            ],
            [
              78.512188,
              17.367004
            ],
            [
              78.511711,
              17.367248
            ],
            [
              78.511149,
              17.367394
            ],
            [
              78.51006,
              17.367703
            ],
            [
              78.509778,
              17.372054
            ],
            [
              78.508044,
              17.37257
            ],
            [
              78.507293,
              17.372745
            ],
            [
              78.502694,
              17.373455
            ],
            [
              78.501587,
              17.373522
            ],
            [
              78.500446,
              17.37388
            ],
            [
              78.498709,
              17.374449
            ]
          ]
        ]
      }
    }
  ]
}