{
  "type": "FeatureCollection",
  "features": [
    {
      "type": "Feature",
      "properties": {},
      "geometry": {
        "type": "Polygon",
        "coordinates": [
          [
            [
              78.493184,
              17.39012
            ],
            [
              78.492182,
              17.387597
            ],
            [
              78.4876,
              17.385152
            ],
            [
              78.491608,
              17.378257
            ],
            [
              78.494132,
              17.378033
            ],
            [
              78.494865,
              17.380805
            ],
            [
              78.495276,
              17.380805
            ],
            [
              78.498181,
              17.383073
            ],
            [
              78.501245,
              17.38571
            ],
            [
              78.499001,
              17.389397
            ],
            [
              78.496327,
              17.390723
            ],
            [
              78.493184,
              17.39012
            ]
          ]
        ]
      }
    }
  ]
}