{
  "type": "FeatureCollection",
  "features": [
    {
      "type": "Feature",
      "properties": {},
      "geometry": {
        "type": "Polygon",
        "coordinates": [
          [
            [
              78.528899,
              17.368428
            ],
            [
              78.527346,
              17.360911
            ],
            [
              78.526883,
              17.357898
            ],
            [
              78.531414,
              17.354943
            ],
            [
              78.535259,
              17.353018
            ],
            [
              78.535409,
              17.353686
            ],
            [
              78.535453,
              17.354406
            ],
            [
              78.535527,
              17.355734
            ],
            [
              78.535711,
              17.35848
            ],
            [
              78.535985,
              17.362894
            ],
            [
              78.537019,
              17.366025
            ],
            [
              78.538099,
              17.368101
            ],
            [
              78.533987,
              17.368312
            ],
            [
              78.528899,
              17.368428
            ]
          ]
        ]
      }
    }
  ]
}