{
  "type": "FeatureCollection",
  "features": [
    {
      "type": "Feature",
      "properties": {},
      "geometry": {
        "type": "Polygon",
        "coordinates": [
          [
            [
              78.543158,
              17.328602
            ],
            [
              78.540454,
              17.323821
            ],
            [
              78.544658,
              17.31234
            ],
            [
              78.551217,
              17.3091
            ],
            [
              78.552081,
              17.308936
            ],
            [
              78.564912,
              17.311571
            ],
            [
              78.561402,
              17.316131
            ],
            [
              78.570035,
              17.315086
            ],
            [
              78.574639,
              17.321679
            ],
            [
              78.571991,
              17.323492
            ],
            [
              78.566925,
              17.323437
            ],
            [
              78.5675,
              17.328051
            ],
            [
              78.560309,
              17.327831
            ],
            [
              78.555821,
              17.327612
            ],
            [
              78.547821,
              17.326953
            ],
            [
              78.544713,
              17.327502
            ],
            [
              78.543158,
              17.328602
            ]
          ]
        ]
      }
    }
  ]
}