{
  "type": "FeatureCollection",
  "features": [
    {
      "type": "Feature",
      "properties": {},
      "geometry": {
        "type": "Polygon",
        "coordinates": [
          [
            [
              78.557402,
              17.36627
            ],
            [
              78.557158,
              17.366278
            ],
            [
              78.557101,
              17.36503
            ],
            [
              78.557264,
              17.36365
            ],
            [
              78.560951,
              17.363882
            ],
            [
              78.560705,
              17.367262
            ],
            [
              78.557402,
              17.36627
            ]
          ]
        ]
      }
    }
  ]
}