{
  "type": "FeatureCollection",
  "features": [
    {
      "type": "Feature",
      "properties": {},
      "geometry": {
        "type": "Polygon",
        "coordinates": [
          [
            [
              78.509908,
              17.372037
            ],
            [
              78.509889,
              17.371358
            ],
            [
              78.510176,
              17.367771
            ],
            [
              78.511724,
              17.367333
            ],
            [
              78.512279,
              17.367041
            ],
            [
              78.512525,
              17.363255
            ],
            [
              78.514936,
              17.362132
            ],
            [
              78.518626,
              17.360034
            ],
            [
              78.522603,
              17.35956
            ],
            [
              78.522928,
              17.360983
            ],
            [
              78.522335,
              17.361421
            ],
            [
              78.521742,
              17.363373
            ],
            [
              78.521475,
              17.365322
            ],
            [
              78.520882,
              17.366253
            ],
            [
              78.519601,
              17.367877
            ],
            [
              78.518722,
              17.368807
            ],
            [
              78.51333,
              17.370194
            ],
            [
              78.509908,
              17.372037
            ]
          ]
        ]
      }
    }
  ]
}