{
  "type": "FeatureCollection",
  "features": [
    {
      "type": "Feature",
      "properties": {},
      "geometry": {
        "type": "Polygon",
        "coordinates": [
          [
            [
              78.590831,
              17.332025
            ],
            [
              78.59311,
              17.328968
            ],
            [
              78.607794,
              17.320309
            ],
            [
              78.6134,
              17.32156
            ],
            [
              78.619326,
              17.332261
            ],
            [
              78.630491,
              17.33832
            ],
            [
              78.630182,
              17.341526
            ],
            [
              78.625679,
              17.343051
            ],
            [
              78.604336,
              17.339863
            ],
            [
              78.594058,
              17.340199
            ],
            [
              78.591124,
              17.336657
            ],
            [
              78.590831,
              17.332025
            ]
          ]
        ]
      }
    }
  ]
}