{
  "type": "FeatureCollection",
  "features": [
    {
      "type": "Feature",
      "properties": {},
      "geometry": {
        "type": "Polygon",
        "coordinates": [
          [
            [
              78.502392,
              17.373608
            ],
            [
              78.507729,
              17.372812
            ],
            [
              78.509402,
              17.372324
            ],
            [
              78.510026,
              17.372012
            ],
            [
              78.510613,
              17.371685
            ],
            [
              78.513495,
              17.370249
            ],
            [
              78.51783,
              17.369204
            ],
            [
              78.51998,
              17.368808
            ],
            [
              78.521934,
              17.368631
            ],
            [
              78.523895,
              17.376389
            ],
            [
              78.516555,
              17.379507
            ],
            [
              78.512912,
              17.383068
            ],
            [
              78.509945,
              17.384773
            ],
            [
              78.508344,
              17.375826
            ],
            [
              78.504933,
              17.377072
            ],
            [
              78.502392,
              17.373608
            ]
          ]
        ]
      }
    }
  ]
}