{
  "type": "FeatureCollection",
  "features": [
    {
      "type": "Feature",
      "properties": {},
      "geometry": {
        "type": "Polygon",
        "coordinates": [
          [
            [
              78.557173,
              17.368427
            ],
            [
              78.555507,
              17.370054
            ],
            [
              78.552627,
              17.370952
            ],
            [
              78.548952,
              17.367015
            ],
            [
              78.550608,
              17.365594
            ],
            [
              78.550814,
              17.36536
            ],
            [
              78.557016,
              17.364949
            ],
            [
              78.557173,
              17.368427
            ]
          ]
        ]
      }
    }
  ]
}