{
  "type": "FeatureCollection",
  "features": [
    {
      "type": "Feature",
      "properties": {},
      "geometry": {
        "type": "Polygon",
        "coordinates": [
          [
            [
              78.41912,
              17.527886
            ],
            [
              78.417796,
              17.527949
            ],
            [
              78.417319,
              17.52753
            ],
            [
              78.416114,
              17.527585
            ],
            [
              78.41465,
              17.528171
            ],
            [
              78.413645,
              17.525833
            ],
            [
              78.414309,
              17.525431
            ],
            [
              78.415373,
              17.524369
            ],
            [
              78.416881,
              17.524622
            ],
            [
              78.418623,
              17.524693
            ],
            [
              78.423016,
              17.524512
            ],
            [
              78.425575,
              17.523448
            ],
            [
              78.426851,
              17.52341
            ],
            [
              78.42975,
              17.52224
            ],
            [
              78.430299,
              17.521851
            ],
            [
              78.431064,
              17.520955
            ],
            [
              78.435098,
              17.519119
            ],
            [
              78.436587,
              17.517437
            ],
            [
              78.439898,
              17.515132
            ],
            [
              78.441438,
              17.514392
            ],
            [
              78.442158,
              17.513826
            ],
            [
              78.442261,
              17.513071
            ],
            [
              78.445304,
              17.511781
            ],
            [
              78.447638,
              17.510896
            ],
            [
              78.446596,
              17.518258
            ],
            [
              78.441972,
              17.524568
            ],
            [
              78.441416,
              17.525618
            ],
            [
              78.439707,
              17.526859
            ],
            [
              78.4375,
              17.529461
            ],
            [
              78.436327,
              17.531454
            ],
            [
              78.435321,
              17.534246
            ],
            [
              78.433115,
              17.533612
            ],
            [
              78.431306,
              17.533895
            ],
            [
              78.430465,
              17.534739
            ],
            [
              78.428465,
              17.536282
            ],
            [
              78.427164,
              17.536766
            ],
            [
              78.425771,
              17.534424
            ],
            [
              78.421519,
              17.534599
            ],
            [
              78.420478,
              17.532667
            ],
            [
              78.42008,
              17.531085
            ],
            [
              78.420116,
              17.529794
            ],
            [
              78.41912,
              17.527886
            ]
          ]
        ]
      }
    }
  ]
}