{
  "type": "FeatureCollection",
  "features": [
    {
      "type": "Feature",
      "properties": {},
      "geometry": {
        "type": "Polygon",
        "coordinates": [
          [
            [
              78.329946,
              17.471239
            ],
            [
              78.335783,
              17.46231
            ],
            [
              78.340267,
              17.456653
            ],
            [
              78.342119,
              17.454634
            ],
            [
              78.34384,
              17.452731
            ],
            [
              78.34535,
              17.451492
            ],
            [
              78.3474,
              17.450708
            ],
            [
              78.352399,
              17.445568
            ],
            [
              78.354908,
              17.443568
            ],
            [
              78.360226,
              17.441286
            ],
            [
              78.363538,
              17.438887
            ],
            [
              78.367072,
              17.436002
            ],
            [
              78.370205,
              17.432958
            ],
            [
              78.38401,
              17.421919
            ],
            [
              78.394511,
              17.434856
            ],
            [
              78.399358,
              17.433039
            ],
            [
              78.401608,
              17.435791
            ],
            [
              78.399992,
              17.438379
            ],
            [
              78.403339,
              17.450599
            ],
            [
              78.396415,
              17.451259
            ],
            [
              78.397511,
              17.455112
            ],
            [
              78.397338,
              17.458635
            ],
            [
              78.384875,
              17.463478
            ],
            [
              78.384183,
              17.467001
            ],
            [
              78.371893,
              17.473715
            ],
            [
              78.370508,
              17.481475
            ],
            [
              78.361277,
              17.483842
            ],
            [
              78.350199,
              17.487639
            ],
            [
              78.349564,
              17.479989
            ],
            [
              78.342697,
              17.481858
            ],
            [
              78.335658,
              17.483456
            ],
            [
              78.335832,
              17.4812
            ],
            [
              78.329946,
              17.471239
            ]
          ]
        ]
      }
    }
  ]
}