{
  "type": "FeatureCollection",
  "features": [
    {
      "type": "Feature",
      "properties": {},
      "geometry": {
        "type": "Polygon",
        "coordinates": [
          [
            [
              78.587139,
              17.404931
            ],
            [
              78.593952,
              17.40704
            ],
            [
              78.601361,
              17.409441
            ],
            [
              78.630894,
              17.420031
            ],
            [
              78.644544,
              17.427336
            ],
            [
              78.660754,
              17.437319
            ],
            [
              78.669919,
              17.443635
            ],
            [
              78.691265,
              17.447285
            ],
            [
              78.703022,
              17.439131
            ],
            [
              78.711575,
              17.428532
            ],
            [
              78.730784,
              17.458673
            ],
            [
              78.727776,
              17.462748
            ],
            [
              78.736337,
              17.461931
            ],
            [
              78.749967,
              17.468652
            ],
            [
              78.761316,
              17.486162
            ],
            [
              78.731765,
              17.492655
            ],
            [
              78.694381,
              17.50197
            ],
            [
              78.679028,
              17.51555
            ],
            [
              78.6671,
              17.525877
            ],
            [
              78.661995,
              17.525268
            ],
            [
              78.637309,
              17.509278
            ],
            [
              78.609045,
              17.494691
            ],
            [
              78.602213,
              17.487397
            ],
            [
              78.586632,
              17.479053
            ],
            [
              78.58667,
              17.472347
            ],
            [
              78.583719,
              17.45996
            ],
            [
              78.592555,
              17.455123
            ],
            [
              78.590971,
              17.450442
            ],
            [
              78.587511,
              17.435613
            ],
            [
              78.579108,
              17.430599
            ],
            [
              78.581693,
              17.426167
            ],
            [
              78.582924,
              17.424154
            ],
            [
              78.583649,
              17.423845
            ],
            [
              78.584584,
              17.423431
            ],
            [
              78.585083,
              17.420978
            ],
            [
              78.584762,
              17.419834
            ],
            [
              78.584674,
              17.41837
            ],
            [
              78.587139,
              17.404931
            ]
          ]
        ]
      }
    }
  ]
}