{
  "type": "FeatureCollection",
  "features": [
    {
      "type": "Feature",
      "properties": {},
      "geometry": {
        "type": "Polygon",
        "coordinates": [
          [
            [
              78.58141,
              17.44055
            ],
            [
              78.584354,
              17.440817
            ],
            [
              78.588319,
              17.445229
            ],
            [
              78.589297,
              17.449257
            ],
            [
              78.58211,
              17.452152
            ],
            [
              78.582393,
              17.454395
            ],
            [
              78.582392,
              17.45583
            ],
            [
              78.58258,
              17.457715
            ],
            [
              78.582486,
              17.459598
            ],
            [
              78.582674,
              17.461122
            ],
            [
              78.58352,
              17.462467
            ],
            [
              78.584085,
              17.464709
            ],
            [
              78.583896,
              17.467668
            ],
            [
              78.584743,
              17.469731
            ],
            [
              78.585683,
              17.471256
            ],
            [
              78.586059,
              17.473319
            ],
            [
              78.585538,
              17.476921
            ],
            [
              78.585995,
              17.478631
            ],
            [
              78.585443,
              17.479289
            ],
            [
              78.584167,
              17.479651
            ],
            [
              78.581476,
              17.479882
            ],
            [
              78.579269,
              17.480408
            ],
            [
              78.576164,
              17.481329
            ],
            [
              78.575085,
              17.480144
            ],
            [
              78.574327,
              17.478894
            ],
            [
              78.572981,
              17.476525
            ],
            [
              78.571981,
              17.474616
            ],
            [
              78.570394,
              17.472938
            ],
            [
              78.56929,
              17.47205
            ],
            [
              78.568256,
              17.471392
            ],
            [
              78.567014,
              17.470438
            ],
            [
              78.565737,
              17.469385
            ],
            [
              78.564634,
              17.46797
            ],
            [
              78.563116,
              17.466489
            ],
            [
              78.562185,
              17.465009
            ],
            [
              78.561357,
              17.463232
            ],
            [
              78.558287,
              17.461689
            ],
            [
              78.558218,
              17.460702
            ],
            [
              78.557597,
              17.459912
            ],
            [
              78.557045,
              17.45853
            ],
            [
              78.555786,
              17.456315
            ],
            [
              78.557282,
              17.455339
            ],
            [
              78.559525,
              17.451398
            ],
            [
              78.56093,
              17.448978
            ],
            [
              78.563789,
              17.445077
            ],
            [
              78.564008,
              17.443395
            ],
            [
              78.566022,
              17.442147
            ],
            [
              78.567214,
              17.437787
            ],
            [
              78.568255,
              17.435921
            ],
            [
              78.568789,
              17.434402
            ],
            [
              78.573481,
              17.435501
            ],
            [
              78.57589,
              17.436382
            ],
            [
              78.577651,
              17.437408
            ],
            [
              78.579625,
              17.438756
            ],
            [
              78.58141,
              17.44055
            ]
          ]
        ]
      }
    }
  ]
}