{
  "type": "FeatureCollection",
  "features": [
    {
      "type": "Feature",
      "properties": {},
      "geometry": {
        "type": "Polygon",
        "coordinates": [
          [
            [
              78.495569,
              17.397054
            ],
            [
              78.496989,
              17.395915
            ],
            [
              78.498759,
              17.39469
            ],
            [
              78.50027,
              17.394722
            ],
            [
              78.502157,
              17.395258
            ],
            [
              78.504056,
              17.394327
            ],
            [
              78.50463,
              17.394727
            ],
            [
              78.502959,
              17.396138
            ],
            [
              78.505529,
              17.398705
            ],
            [
              78.506393,
              17.399768
            ],
            [
              78.507442,
              17.400435
            ],
            [
              78.509523,
              17.402255
            ],
            [
              78.51135,
              17.40421
            ],
            [
              78.512678,
              17.405191
            ],
            [
              78.513705,
              17.405525
            ],
            [
              78.518237,
              17.410514
            ],
            [
              78.519796,
              17.419171
            ],
            [
              78.510721,
              17.420309
            ],
            [
              78.500643,
              17.420601
            ],
            [
              78.498595,
              17.41605
            ],
            [
              78.497872,
              17.414101
            ],
            [
              78.497774,
              17.41287
            ],
            [
              78.498056,
              17.410915
            ],
            [
              78.497849,
              17.409088
            ],
            [
              78.496471,
              17.40645
            ],
            [
              78.494994,
              17.40187
            ],
            [
              78.49486,
              17.399702
            ],
            [
              78.494368,
              17.399007
            ],
            [
              78.493582,
              17.39836
            ],
            [
              78.495569,
              17.397054
            ]
          ]
        ]
      }
    }
  ]
}