{
  "type": "FeatureCollection",
  "features": [
    {
      "type": "Feature",
      "properties": {},
      "geometry": {
        "type": "Polygon",
        "coordinates": [
          [
            [
              78.560257,
              17.401891
            ],
            [
              78.563366,
              17.401823
            ],
            [
              78.581311,
              17.401403
            ],
            [
              78.584189,
              17.403747
            ],
            [
              78.586887,
              17.404739
            ],
            [
              78.586459,
              17.407556
            ],
            [
              78.586015,
              17.41006
            ],
            [
              78.585033,
              17.415097
            ],
            [
              78.58452,
              17.418296
            ],
            [
              78.584725,
              17.419945
            ],
            [
              78.584959,
              17.420731
            ],
            [
              78.584796,
              17.421299
            ],
            [
              78.584412,
              17.423465
            ],
            [
              78.583665,
              17.423623
            ],
            [
              78.582857,
              17.423907
            ],
            [
              78.578867,
              17.430534
            ],
            [
              78.574055,
              17.435364
            ],
            [
              78.570123,
              17.434547
            ],
            [
              78.567932,
              17.433888
            ],
            [
              78.566055,
              17.433159
            ],
            [
              78.559611,
              17.430851
            ],
            [
              78.558645,
              17.431658
            ],
            [
              78.557409,
              17.432269
            ],
            [
              78.554678,
              17.433554
            ],
            [
              78.554446,
              17.43257
            ],
            [
              78.55407,
              17.431659
            ],
            [
              78.553115,
              17.430418
            ],
            [
              78.551931,
              17.429269
            ],
            [
              78.550214,
              17.430179
            ],
            [
              78.548582,
              17.431329
            ],
            [
              78.547632,
              17.432065
            ],
            [
              78.546115,
              17.432505
            ],
            [
              78.542611,
              17.433572
            ],
            [
              78.539147,
              17.433342
            ],
            [
              78.532582,
              17.427267
            ],
            [
              78.535461,
              17.415572
            ],
            [
              78.537604,
              17.399839
            ],
            [
              78.544438,
              17.401253
            ],
            [
              78.552658,
              17.401435
            ],
            [
              78.560257,
              17.401891
            ]
          ]
        ]
      }
    }
  ]
}