{
  "type": "FeatureCollection",
  "features": [
    {
      "type": "Feature",
      "properties": {},
      "geometry": {
        "type": "Polygon",
        "coordinates": [
          [
            [
              78.484743,
              17.380916
            ],
            [
              78.485623,
              17.380657
            ],
            [
              78.489904,
              17.380726
            ],
            [
              78.490773,
              17.380841
            ],
            [
              78.491406,
              17.380959
            ],
            [
              78.491406,
              17.381436
            ],
            [
              78.491106,
              17.38241
            ],
            [
              78.490766,
              17.383288
            ],
            [
              78.490425,
              17.384326
            ],
            [
              78.48922,
              17.38461
            ],
            [
              78.487834,
              17.384688
            ],
            [
              78.487223,
              17.384963
            ],
            [
              78.486759,
              17.38567
            ],
            [
              78.48608,
              17.386934
            ],
            [
              78.487567,
              17.388507
            ],
            [
              78.486008,
              17.389118
            ],
            [
              78.48555,
              17.389868
            ],
            [
              78.484438,
              17.39158
            ],
            [
              78.483981,
              17.392832
            ],
            [
              78.483352,
              17.393891
            ],
            [
              78.483705,
              17.393981
            ],
            [
              78.484732,
              17.39436
            ],
            [
              78.485135,
              17.394596
            ],
            [
              78.485498,
              17.394823
            ],
            [
              78.48492,
              17.395868
            ],
            [
              78.484307,
              17.396829
            ],
            [
              78.482506,
              17.397917
            ],
            [
              78.481525,
              17.398552
            ],
            [
              78.480427,
              17.399095
            ],
            [
              78.479242,
              17.39964
            ],
            [
              78.477405,
              17.4004
            ],
            [
              78.475612,
              17.400928
            ],
            [
              78.474395,
              17.401181
            ],
            [
              78.472559,
              17.401033
            ],
            [
              78.471452,
              17.400843
            ],
            [
              78.470589,
              17.400759
            ],
            [
              78.470286,
              17.400227
            ],
            [
              78.470902,
              17.398696
            ],
            [
              78.471025,
              17.397812
            ],
            [
              78.471025,
              17.396869
            ],
            [
              78.470901,
              17.395513
            ],
            [
              78.470319,
              17.394171
            ],
            [
              78.469953,
              17.390548
            ],
            [
              78.470715,
              17.389795
            ],
            [
              78.471956,
              17.387859
            ],
            [
              78.473186,
              17.386258
            ],
            [
              78.474236,
              17.384548
            ],
            [
              78.474779,
              17.384195
            ],
            [
              78.475552,
              17.383375
            ],
            [
              78.477441,
              17.383211
            ],
            [
              78.479718,
              17.382965
            ],
            [
              78.480791,
              17.382391
            ],
            [
              78.481865,
              17.382063
            ],
            [
              78.482638,
              17.381735
            ],
            [
              78.483755,
              17.381121
            ],
            [
              78.484743,
              17.380916
            ]
          ]
        ]
      }
    }
  ]
}