{
  "type": "FeatureCollection",
  "features": [
    {
      "type": "Feature",
      "properties": {},
      "geometry": {
        "type": "Polygon",
        "coordinates": [
          [
            [
              78.552802,
              17.430319
            ],
            [
              78.553489,
              17.431161
            ],
            [
              78.553926,
              17.431746
            ],
            [
              78.55426,
              17.432367
            ],
            [
              78.554483,
              17.433873
            ],
            [
              78.557028,
              17.432553
            ],
            [
              78.558601,
              17.431832
            ],
            [
              78.559156,
              17.431409
            ],
            [
              78.55962,
              17.430904
            ],
            [
              78.561662,
              17.431639
            ],
            [
              78.563253,
              17.432191
            ],
            [
              78.565392,
              17.433046
            ],
            [
              78.568648,
              17.434295
            ],
            [
              78.568058,
              17.436022
            ],
            [
              78.567374,
              17.437133
            ],
            [
              78.566762,
              17.437855
            ],
            [
              78.566418,
              17.439673
            ],
            [
              78.566196,
              17.440748
            ],
            [
              78.565986,
              17.441257
            ],
            [
              78.565743,
              17.441823
            ],
            [
              78.565707,
              17.442132
            ],
            [
              78.565249,
              17.442472
            ],
            [
              78.563856,
              17.443311
            ],
            [
              78.563136,
              17.444844
            ],
            [
              78.562686,
              17.445985
            ],
            [
              78.561245,
              17.447108
            ],
            [
              78.560394,
              17.448294
            ],
            [
              78.559542,
              17.450478
            ],
            [
              78.558625,
              17.4521
            ],
            [
              78.557446,
              17.454157
            ],
            [
              78.555745,
              17.455218
            ],
            [
              78.555026,
              17.455157
            ],
            [
              78.552671,
              17.455408
            ],
            [
              78.551428,
              17.455159
            ],
            [
              78.549727,
              17.455098
            ],
            [
              78.547567,
              17.454164
            ],
            [
              78.545604,
              17.453852
            ],
            [
              78.544164,
              17.453414
            ],
            [
              78.543772,
              17.453226
            ],
            [
              78.541087,
              17.451668
            ],
            [
              78.54004,
              17.451355
            ],
            [
              78.538797,
              17.45073
            ],
            [
              78.538077,
              17.450231
            ],
            [
              78.537096,
              17.449294
            ],
            [
              78.536376,
              17.448669
            ],
            [
              78.53618,
              17.44842
            ],
            [
              78.535588,
              17.445736
            ],
            [
              78.534803,
              17.444799
            ],
            [
              78.533561,
              17.443175
            ],
            [
              78.532515,
              17.441677
            ],
            [
              78.530227,
              17.440241
            ],
            [
              78.530358,
              17.439429
            ],
            [
              78.532647,
              17.438305
            ],
            [
              78.534675,
              17.436994
            ],
            [
              78.536048,
              17.435932
            ],
            [
              78.537749,
              17.434745
            ],
            [
              78.537029,
              17.432435
            ],
            [
              78.539333,
              17.43384
            ],
            [
              78.542134,
              17.434143
            ],
            [
              78.544826,
              17.434502
            ],
            [
              78.546926,
              17.432653
            ],
            [
              78.548562,
              17.431565
            ],
            [
              78.549188,
              17.431007
            ],
            [
              78.550148,
              17.430273
            ],
            [
              78.551039,
              17.429778
            ],
            [
              78.55193,
              17.429357
            ],
            [
              78.552802,
              17.430319
            ]
          ]
        ]
      }
    }
  ]
}