{
  "type": "FeatureCollection",
  "features": [
    {
      "type": "Feature",
      "properties": {},
      "geometry": {
        "type": "Polygon",
        "coordinates": [
          [
            [
              78.603034,
              17.391599
            ],
            [
              78.604813,
              17.391082
            ],
            [
              78.608217,
              17.39145
            ],
            [
              78.611855,
              17.391751
            ],
            [
              78.614407,
              17.391456
            ],
            [
              78.616109,
              17.391086
            ],
            [
              78.616109,
              17.392195
            ],
            [
              78.616418,
              17.394409
            ],
            [
              78.616496,
              17.39655
            ],
            [
              78.616959,
              17.39847
            ],
            [
              78.617268,
              17.400019
            ],
            [
              78.616495,
              17.402159
            ],
            [
              78.616109,
              17.404741
            ],
            [
              78.616418,
              17.407543
            ],
            [
              78.615954,
              17.410493
            ],
            [
              78.615027,
              17.412778
            ],
            [
              78.612708,
              17.41219
            ],
            [
              78.610814,
              17.412242
            ],
            [
              78.610115,
              17.412359
            ],
            [
              78.607966,
              17.411558
            ],
            [
              78.605729,
              17.410725
            ],
            [
              78.603073,
              17.409758
            ],
            [
              78.601582,
              17.409165
            ],
            [
              78.599089,
              17.408291
            ],
            [
              78.59563,
              17.407257
            ],
            [
              78.592376,
              17.406216
            ],
            [
              78.589357,
              17.405256
            ],
            [
              78.586889,
              17.404372
            ],
            [
              78.585033,
              17.403265
            ],
            [
              78.583559,
              17.402158
            ],
            [
              78.582549,
              17.400608
            ],
            [
              78.584795,
              17.399576
            ],
            [
              78.586726,
              17.398247
            ],
            [
              78.589508,
              17.396476
            ],
            [
              78.592135,
              17.395516
            ],
            [
              78.594067,
              17.394482
            ],
            [
              78.597159,
              17.392562
            ],
            [
              78.601023,
              17.391674
            ],
            [
              78.603034,
              17.391599
            ]
          ]
        ]
      }
    }
  ]
}