{
  "type": "FeatureCollection",
  "features": [
    {
      "type": "Feature",
      "properties": {},
      "geometry": {
        "type": "Polygon",
        "coordinates": [
          [
            [
              78.483366,
              17.397575
            ],
            [
              78.48458,
              17.398314
            ],
            [
              78.485979,
              17.399232
            ],
            [
              78.487835,
              17.400548
            ],
            [
              78.488285,
              17.400831
            ],
            [
              78.489361,
              17.400732
            ],
            [
              78.490644,
              17.400281
            ],
            [
              78.49193,
              17.399494
            ],
            [
              78.492662,
              17.398979
            ],
            [
              78.493431,
              17.398591
            ],
            [
              78.494195,
              17.399168
            ],
            [
              78.494667,
              17.399668
            ],
            [
              78.49479,
              17.400669
            ],
            [
              78.494947,
              17.402421
            ],
            [
              78.49554,
              17.404478
            ],
            [
              78.495982,
              17.405833
            ],
            [
              78.496424,
              17.406721
            ],
            [
              78.495517,
              17.406962
            ],
            [
              78.494522,
              17.407407
            ],
            [
              78.490038,
              17.408774
            ],
            [
              78.486846,
              17.40998
            ],
            [
              78.485847,
              17.410291
            ],
            [
              78.484702,
              17.41074
            ],
            [
              78.481888,
              17.411572
            ],
            [
              78.479925,
              17.412206
            ],
            [
              78.478847,
              17.412567
            ],
            [
              78.47818,
              17.412742
            ],
            [
              78.477661,
              17.412018
            ],
            [
              78.4771,
              17.411196
            ],
            [
              78.476123,
              17.409551
            ],
            [
              78.47549,
              17.408748
            ],
            [
              78.474204,
              17.408102
            ],
            [
              78.473079,
              17.407939
            ],
            [
              78.47209,
              17.407939
            ],
            [
              78.470624,
              17.407711
            ],
            [
              78.469465,
              17.407711
            ],
            [
              78.468748,
              17.407581
            ],
            [
              78.468169,
              17.407256
            ],
            [
              78.467794,
              17.40693
            ],
            [
              78.467555,
              17.406247
            ],
            [
              78.467453,
              17.405694
            ],
            [
              78.467856,
              17.405203
            ],
            [
              78.467733,
              17.404473
            ],
            [
              78.468169,
              17.403456
            ],
            [
              78.468944,
              17.401977
            ],
            [
              78.46967,
              17.400822
            ],
            [
              78.472721,
              17.401469
            ],
            [
              78.475821,
              17.401191
            ],
            [
              78.476741,
              17.400868
            ],
            [
              78.477661,
              17.400591
            ],
            [
              78.479089,
              17.399952
            ],
            [
              78.480143,
              17.399468
            ],
            [
              78.481651,
              17.398642
            ],
            [
              78.483366,
              17.397575
            ]
          ]
        ]
      }
    }
  ]
}