{
  "type": "FeatureCollection",
  "features": [
    {
      "type": "Feature",
      "properties": {},
      "geometry": {
        "type": "Polygon",
        "coordinates": [
          [
            [
              78.490846,
              17.417929
            ],
            [
              78.491135,
              17.418604
            ],
            [
              78.491522,
              17.419253
            ],
            [
              78.491875,
              17.420027
            ],
            [
              78.492293,
              17.420763
            ],
            [
              78.492939,
              17.421374
            ],
            [
              78.493451,
              17.422035
            ],
            [
              78.493743,
              17.422502
            ],
            [
              78.494238,
              17.423051
            ],
            [
              78.494467,
              17.423302
            ],
            [
              78.494684,
              17.423492
            ],
            [
              78.495003,
              17.423292
            ],
            [
              78.495565,
              17.422919
            ],
            [
              78.496063,
              17.422407
            ],
            [
              78.496777,
              17.421957
            ],
            [
              78.497996,
              17.421604
            ],
            [
              78.498972,
              17.421275
            ],
            [
              78.499671,
              17.42107
            ],
            [
              78.500525,
              17.420798
            ],
            [
              78.500648,
              17.421461
            ],
            [
              78.500859,
              17.422351
            ],
            [
              78.500979,
              17.423012
            ],
            [
              78.50122,
              17.423902
            ],
            [
              78.501521,
              17.425052
            ],
            [
              78.501551,
              17.425741
            ],
            [
              78.501702,
              17.426201
            ],
            [
              78.501822,
              17.42689
            ],
            [
              78.501702,
              17.427637
            ],
            [
              78.501882,
              17.428154
            ],
            [
              78.501973,
              17.429016
            ],
            [
              78.501852,
              17.429447
            ],
            [
              78.501611,
              17.429992
            ],
            [
              78.500889,
              17.430337
            ],
            [
              78.500347,
              17.430394
            ],
            [
              78.499504,
              17.430624
            ],
            [
              78.498902,
              17.431055
            ],
            [
              78.49842,
              17.431515
            ],
            [
              78.497667,
              17.432061
            ],
            [
              78.497186,
              17.431946
            ],
            [
              78.496252,
              17.431658
            ],
            [
              78.494807,
              17.43163
            ],
            [
              78.493302,
              17.4314
            ],
            [
              78.492519,
              17.431227
            ],
            [
              78.492368,
              17.431141
            ],
            [
              78.492037,
              17.430854
            ],
            [
              78.491555,
              17.430251
            ],
            [
              78.491074,
              17.429906
            ],
            [
              78.490502,
              17.42959
            ],
            [
              78.49008,
              17.429332
            ],
            [
              78.489719,
              17.429217
            ],
            [
              78.489327,
              17.429044
            ],
            [
              78.488906,
              17.428757
            ],
            [
              78.488394,
              17.428499
            ],
            [
              78.487732,
              17.428298
            ],
            [
              78.487611,
              17.428068
            ],
            [
              78.48737,
              17.427723
            ],
            [
              78.487099,
              17.427292
            ],
            [
              78.486829,
              17.42666
            ],
            [
              78.486708,
              17.426172
            ],
            [
              78.486648,
              17.425913
            ],
            [
              78.486287,
              17.425454
            ],
            [
              78.486136,
              17.425052
            ],
            [
              78.486046,
              17.42442
            ],
            [
              78.486106,
              17.423931
            ],
            [
              78.485971,
              17.423461
            ],
            [
              78.485765,
              17.423114
            ],
            [
              78.486056,
              17.422789
            ],
            [
              78.486335,
              17.422523
            ],
            [
              78.486481,
              17.422153
            ],
            [
              78.486869,
              17.421597
            ],
            [
              78.48733,
              17.421158
            ],
            [
              78.487657,
              17.420834
            ],
            [
              78.487803,
              17.420544
            ],
            [
              78.48796,
              17.420359
            ],
            [
              78.488264,
              17.41985
            ],
            [
              78.488504,
              17.419255
            ],
            [
              78.488809,
              17.418642
            ],
            [
              78.488951,
              17.416855
            ],
            [
              78.489386,
              17.416772
            ],
            [
              78.490273,
              17.416623
            ],
            [
              78.490562,
              17.416585
            ],
            [
              78.490625,
              17.417036
            ],
            [
              78.490846,
              17.417929
            ]
          ]
        ]
      }
    }
  ]
}