{
  "type": "FeatureCollection",
  "features": [
    {
      "type": "Feature",
      "properties": {},
      "geometry": {
        "type": "Polygon",
        "coordinates": [
          [
            [
              78.550416,
              17.381606
            ],
            [
              78.552055,
              17.382019
            ],
            [
              78.558272,
              17.384825
            ],
            [
              78.558851,
              17.391265
            ],
            [
              78.560056,
              17.4012
            ],
            [
              78.556778,
              17.4012
            ],
            [
              78.545885,
              17.401016
            ],
            [
              78.538484,
              17.399821
            ],
            [
              78.533131,
              17.397871
            ],
            [
              78.532802,
              17.397367
            ],
            [
              78.532567,
              17.396504
            ],
            [
              78.532387,
              17.394699
            ],
            [
              78.533642,
              17.392737
            ],
            [
              78.535956,
              17.390299
            ],
            [
              78.534703,
              17.386481
            ],
            [
              78.539378,
              17.383491
            ],
            [
              78.550416,
              17.381606
            ]
          ]
        ]
      }
    }
  ]
}