{
  "type": "FeatureCollection",
  "features": [
    {
      "type": "Feature",
      "properties": {},
      "geometry": {
        "type": "Polygon",
        "coordinates": [
          [
            [
              78.495945,
              17.40692
            ],
            [
              78.497018,
              17.408212
            ],
            [
              78.497564,
              17.409975
            ],
            [
              78.497473,
              17.41399
            ],
            [
              78.497825,
              17.414806
            ],
            [
              78.498177,
              17.415783
            ],
            [
              78.498563,
              17.416487
            ],
            [
              78.498915,
              17.417224
            ],
            [
              78.49915,
              17.417768
            ],
            [
              78.499385,
              17.418392
            ],
            [
              78.49962,
              17.419096
            ],
            [
              78.499889,
              17.419561
            ],
            [
              78.500193,
              17.419982
            ],
            [
              78.500323,
              17.420776
            ],
            [
              78.499542,
              17.420925
            ],
            [
              78.4991,
              17.42095
            ],
            [
              78.498163,
              17.421298
            ],
            [
              78.497226,
              17.421596
            ],
            [
              78.496549,
              17.421869
            ],
            [
              78.496289,
              17.422092
            ],
            [
              78.495847,
              17.42239
            ],
            [
              78.495691,
              17.422663
            ],
            [
              78.494988,
              17.423135
            ],
            [
              78.494468,
              17.423185
            ],
            [
              78.494259,
              17.423011
            ],
            [
              78.494016,
              17.422656
            ],
            [
              78.493734,
              17.422264
            ],
            [
              78.493451,
              17.421873
            ],
            [
              78.493078,
              17.421464
            ],
            [
              78.492702,
              17.421037
            ],
            [
              78.492402,
              17.420755
            ],
            [
              78.49223,
              17.420454
            ],
            [
              78.491917,
              17.419932
            ],
            [
              78.491698,
              17.419389
            ],
            [
              78.4914,
              17.418972
            ],
            [
              78.491137,
              17.418467
            ],
            [
              78.491006,
              17.417995
            ],
            [
              78.490876,
              17.417474
            ],
            [
              78.490692,
              17.416783
            ],
            [
              78.490636,
              17.416509
            ],
            [
              78.490226,
              17.416605
            ],
            [
              78.489666,
              17.416646
            ],
            [
              78.489397,
              17.416689
            ],
            [
              78.489158,
              17.416772
            ],
            [
              78.488929,
              17.41672
            ],
            [
              78.488674,
              17.416742
            ],
            [
              78.48856,
              17.41658
            ],
            [
              78.488482,
              17.417226
            ],
            [
              78.48843,
              17.417846
            ],
            [
              78.488652,
              17.418137
            ],
            [
              78.48868,
              17.418432
            ],
            [
              78.488531,
              17.418854
            ],
            [
              78.488328,
              17.419373
            ],
            [
              78.48807,
              17.419873
            ],
            [
              78.487707,
              17.420379
            ],
            [
              78.487247,
              17.421018
            ],
            [
              78.486661,
              17.421298
            ],
            [
              78.486218,
              17.422067
            ],
            [
              78.485828,
              17.422415
            ],
            [
              78.485171,
              17.422195
            ],
            [
              78.484963,
              17.421741
            ],
            [
              78.484695,
              17.42145
            ],
            [
              78.484553,
              17.421223
            ],
            [
              78.48406,
              17.420635
            ],
            [
              78.48356,
              17.420076
            ],
            [
              78.483243,
              17.419657
            ],
            [
              78.482986,
              17.419483
            ],
            [
              78.48272,
              17.419162
            ],
            [
              78.482378,
              17.418743
            ],
            [
              78.482069,
              17.418158
            ],
            [
              78.481255,
              17.417423
            ],
            [
              78.480741,
              17.416524
            ],
            [
              78.480441,
              17.415788
            ],
            [
              78.47997,
              17.414889
            ],
            [
              78.479542,
              17.414562
            ],
            [
              78.479303,
              17.414195
            ],
            [
              78.479178,
              17.413957
            ],
            [
              78.478297,
              17.412822
            ],
            [
              78.479113,
              17.41256
            ],
            [
              78.481618,
              17.41182
            ],
            [
              78.483373,
              17.411374
            ],
            [
              78.484523,
              17.410997
            ],
            [
              78.484571,
              17.411019
            ],
            [
              78.486809,
              17.410253
            ],
            [
              78.488967,
              17.409449
            ],
            [
              78.490282,
              17.40907
            ],
            [
              78.491249,
              17.408786
            ],
            [
              78.49177,
              17.408644
            ],
            [
              78.492341,
              17.40836
            ],
            [
              78.492777,
              17.408226
            ],
            [
              78.492776,
              17.408269
            ],
            [
              78.494554,
              17.407504
            ],
            [
              78.495945,
              17.40692
            ]
          ]
        ]
      }
    }
  ]
}