{
  "type": "FeatureCollection",
  "features": [
    {
      "type": "Feature",
      "properties": {},
      "geometry": {
        "type": "Polygon",
        "coordinates": [
          [
            [
              78.488875,
              17.390779
            ],
            [
              78.489869,
              17.390721
            ],
            [
              78.492635,
              17.39025
            ],
            [
              78.495994,
              17.389731
            ],
            [
              78.496483,
              17.391267
            ],
            [
              78.496705,
              17.391949
            ],
            [
              78.496784,
              17.392708
            ],
            [
              78.497189,
              17.392949
            ],
            [
              78.498035,
              17.393868
            ],
            [
              78.498624,
              17.394531
            ],
            [
              78.493337,
              17.3984
            ],
            [
              78.491069,
              17.399765
            ],
            [
              78.489245,
              17.400581
            ],
            [
              78.488312,
              17.400631
            ],
            [
              78.483646,
              17.397527
            ],
            [
              78.484368,
              17.396931
            ],
            [
              78.485284,
              17.395659
            ],
            [
              78.48564,
              17.394832
            ],
            [
              78.484927,
              17.394338
            ],
            [
              78.483553,
              17.393842
            ],
            [
              78.484068,
              17.393015
            ],
            [
              78.484354,
              17.3922
            ],
            [
              78.484775,
              17.391234
            ],
            [
              78.485482,
              17.390174
            ],
            [
              78.485991,
              17.389321
            ],
            [
              78.487727,
              17.388663
            ],
            [
              78.488875,
              17.390779
            ]
          ]
        ]
      }
    }
  ]
}