{
  "type": "FeatureCollection",
  "features": [
    {
      "type": "Feature",
      "properties": {},
      "geometry": {
        "type": "Polygon",
        "coordinates": [
          [
            [
              78.329768,
              17.426661
            ],
            [
              78.335385,
              17.426224
            ],
            [
              78.348296,
              17.422728
            ],
            [
              78.374726,
              17.429102
            ],
            [
              78.374697,
              17.436074
            ],
            [
              78.373441,
              17.448251
            ],
            [
              78.369491,
              17.451829
            ],
            [
              78.364373,
              17.456041
            ],
            [
              78.364829,
              17.457201
            ],
            [
              78.365822,
              17.458323
            ],
            [
              78.366014,
              17.45935
            ],
            [
              78.366858,
              17.461557
            ],
            [
              78.366948,
              17.461928
            ],
            [
              78.366966,
              17.46232
            ],
            [
              78.367039,
              17.46343
            ],
            [
              78.367326,
              17.465827
            ],
            [
              78.367211,
              17.466527
            ],
            [
              78.366992,
              17.467206
            ],
            [
              78.365679,
              17.469445
            ],
            [
              78.363021,
              17.475918
            ],
            [
              78.362842,
              17.476653
            ],
            [
              78.362362,
              17.477434
            ],
            [
              78.361169,
              17.479287
            ],
            [
              78.360432,
              17.482561
            ],
            [
              78.349474,
              17.482445
            ],
            [
              78.346252,
              17.483228
            ],
            [
              78.343366,
              17.485165
            ],
            [
              78.341733,
              17.486836
            ],
            [
              78.335233,
              17.48778
            ],
            [
              78.330883,
              17.486972
            ],
            [
              78.326134,
              17.486553
            ],
            [
              78.318713,
              17.483717
            ],
            [
              78.310995,
              17.481207
            ],
            [
              78.304008,
              17.480142
            ],
            [
              78.28906,
              17.474134
            ],
            [
              78.283547,
              17.470121
            ],
            [
              78.283709,
              17.465334
            ],
            [
              78.292843,
              17.461274
            ],
            [
              78.329768,
              17.426661
            ]
          ]
        ]
      }
    }
  ]
}