{
  "type": "FeatureCollection",
  "features": [
    {
      "type": "Feature",
      "properties": {},
      "geometry": {
        "type": "Polygon",
        "coordinates": [
          [
            [
              78.353757,
              17.507681
            ],
            [
              78.354193,
              17.507247
            ],
            [
              78.354734,
              17.506781
            ],
            [
              78.355801,
              17.505775
            ],
            [
              78.355943,
              17.505647
            ],
            [
              78.356098,
              17.505564
            ],
            [
              78.35653,
              17.505369
            ],
            [
              78.35738,
              17.505156
            ],
            [
              78.3593,
              17.504737
            ],
            [
              78.362344,
              17.506021
            ],
            [
              78.362063,
              17.508538
            ],
            [
              78.361412,
              17.511045
            ],
            [
              78.360227,
              17.515918
            ],
            [
              78.375169,
              17.521677
            ],
            [
              78.37421,
              17.526772
            ],
            [
              78.37593,
              17.535635
            ],
            [
              78.378248,
              17.544178
            ],
            [
              78.378283,
              17.553988
            ],
            [
              78.377493,
              17.566695
            ],
            [
              78.363407,
              17.568803
            ],
            [
              78.333638,
              17.560905
            ],
            [
              78.340869,
              17.555484
            ],
            [
              78.339608,
              17.52923
            ],
            [
              78.33358,
              17.515995
            ],
            [
              78.333585,
              17.511125
            ],
            [
              78.33986,
              17.510366
            ],
            [
              78.341995,
              17.515096
            ],
            [
              78.349278,
              17.513601
            ],
            [
              78.353757,
              17.507681
            ]
          ]
        ]
      }
    }
  ]
}