{
  "type": "FeatureCollection",
  "features": [
    {
      "type": "Feature",
      "properties": {},
      "geometry": {
        "type": "Polygon",
        "coordinates": [
          [
            [
              78.20109,
              17.53343
            ],
            [
              78.207152,
              17.53153
            ],
            [
              78.238233,
              17.51984
            ],
            [
              78.270482,
              17.521379
            ],
            [
              78.274521,
              17.526761
            ],
            [
              78.280083,
              17.542285
            ],
            [
              78.279552,
              17.551017
            ],
            [
              78.270903,
              17.565423
            ],
            [
              78.260701,
              17.5699
            ],
            [
              78.25059,
              17.563815
            ],
            [
              78.259536,
              17.546346
            ],
            [
              78.236103,
              17.538931
            ],
            [
              78.225983,
              17.542689
            ],
            [
              78.208953,
              17.549595
            ],
            [
              78.199145,
              17.552306
            ],
            [
              78.190652,
              17.536979
            ],
            [
              78.20109,
              17.53343
            ]
          ]
        ]
      }
    }
  ]
}