{
  "type": "FeatureCollection",
  "features": [
    {
      "type": "Feature",
      "properties": {},
      "geometry": {
        "type": "Polygon",
        "coordinates": [
          [
            [
              78.439752,
              17.394751
            ],
            [
              78.452935,
              17.39053
            ],
            [
              78.457021,
              17.393455
            ],
            [
              78.455319,
              17.395893
            ],
            [
              78.455494,
              17.398653
            ],
            [
              78.456094,
              17.402955
            ],
            [
              78.455669,
              17.403767
            ],
            [
              78.45488,
              17.404239
            ],
            [
              78.454303,
              17.404267
            ],
            [
              78.452946,
              17.40328
            ],
            [
              78.45182,
              17.401733
            ],
            [
              78.450813,
              17.399871
            ],
            [
              78.449883,
              17.39869
            ],
            [
              78.44893,
              17.398828
            ],
            [
              78.447372,
              17.398993
            ],
            [
              78.445719,
              17.398649
            ],
            [
              78.44359,
              17.398244
            ],
            [
              78.443077,
              17.39727
            ],
            [
              78.442567,
              17.396133
            ],
            [
              78.439752,
              17.394751
            ]
          ]
        ]
      }
    }
  ]
}