{
  "type": "FeatureCollection",
  "features": [
    {
      "type": "Feature",
      "properties": {},
      "geometry": {
        "type": "Polygon",
        "coordinates": [
          [
            [
              78.502535,
              17.35912
            ],
            [
              78.502619,
              17.358953
            ],
            [
              78.50271,
              17.358337
            ],
            [
              78.502674,
              17.357801
            ],
            [
              78.502901,
              17.357482
            ],
            [
              78.503192,
              17.357558
            ],
            [
              78.50398,
              17.357896
            ],
            [
              78.504518,
              17.358166
            ],
            [
              78.50441,
              17.358592
            ],
            [
              78.504295,
              17.359234
            ],
            [
              78.503124,
              17.359257
            ],
            [
              78.502535,
              17.35912
            ]
          ]
        ]
      }
    }
  ]
}