{
  "type": "FeatureCollection",
  "features": [
    {
      "type": "Feature",
      "properties": {},
      "geometry": {
        "type": "Polygon",
        "coordinates": [
          [
            [
              78.5031,
              17.357463
            ],
            [
              78.503233,
              17.357304
            ],
            [
              78.503495,
              17.357504
            ],
            [
              78.504038,
              17.357715
            ],
            [
              78.504461,
              17.357907
            ],
            [
              78.504638,
              17.357934
            ],
            [
              78.504883,
              17.357823
            ],
            [
              78.505233,
              17.357665
            ],
            [
              78.505229,
              17.357982
            ],
            [
              78.505165,
              17.358139
            ],
            [
              78.505113,
              17.358254
            ],
            [
              78.504903,
              17.358197
            ],
            [
              78.504713,
              17.358247
            ],
            [
              78.50454,
              17.359226
            ],
            [
              78.504327,
              17.359184
            ],
            [
              78.504449,
              17.358562
            ],
            [
              78.504553,
              17.358151
            ],
            [
              78.50426,
              17.357978
            ],
            [
              78.504054,
              17.357886
            ],
            [
              78.503817,
              17.357783
            ],
            [
              78.5031,
              17.357463
            ]
          ]
        ]
      }
    }
  ]
}