{
  "type": "FeatureCollection",
  "features": [
    {
      "type": "Feature",
      "properties": {},
      "geometry": {
        "type": "Polygon",
        "coordinates": [
          [
            [
              78.519444,
              17.368764
            ],
            [
              78.51911,
              17.368505
            ],
            [
              78.519926,
              17.367763
            ],
            [
              78.521049,
              17.366173
            ],
            [
              78.521319,
              17.36572
            ],
            [
              78.521545,
              17.365328
            ],
            [
              78.521598,
              17.364873
            ],
            [
              78.521766,
              17.363538
            ],
            [
              78.521874,
              17.362993
            ],
            [
              78.521991,
              17.36265
            ],
            [
              78.522077,
              17.362339
            ],
            [
              78.522271,
              17.36181
            ],
            [
              78.522412,
              17.361513
            ],
            [
              78.522506,
              17.361364
            ],
            [
              78.522637,
              17.361266
            ],
            [
              78.523764,
              17.360319
            ],
            [
              78.524085,
              17.359835
            ],
            [
              78.524769,
              17.35897
            ],
            [
              78.526625,
              17.35865
            ],
            [
              78.52867,
              17.368432
            ],
            [
              78.523511,
              17.368498
            ],
            [
              78.519444,
              17.368764
            ]
          ]
        ]
      }
    }
  ]
}