{
  "type": "FeatureCollection",
  "features": [
    {
      "type": "Feature",
      "properties": {},
      "geometry": {
        "type": "Polygon",
        "coordinates": [
          [
            [
              78.51258,
              17.363211
            ],
            [
              78.506441,
              17.352277
            ],
            [
              78.506692,
              17.351978
            ],
            [
              78.509353,
              17.347972
            ],
            [
              78.513832,
              17.344714
            ],
            [
              78.516869,
              17.341934
            ],
            [
              78.518905,
              17.34319
            ],
            [
              78.520564,
              17.345043
            ],
            [
              78.520403,
              17.34529
            ],
            [
              78.518618,
              17.347412
            ],
            [
              78.517584,
              17.34795
            ],
            [
              78.517835,
              17.348428
            ],
            [
              78.521185,
              17.354347
            ],
            [
              78.523377,
              17.355453
            ],
            [
              78.524661,
              17.359069
            ],
            [
              78.524004,
              17.359816
            ],
            [
              78.522694,
              17.359509
            ],
            [
              78.522462,
              17.359567
            ],
            [
              78.522222,
              17.359596
            ],
            [
              78.521747,
              17.359654
            ],
            [
              78.520673,
              17.359781
            ],
            [
              78.518628,
              17.360022
            ],
            [
              78.517764,
              17.360511
            ],
            [
              78.516916,
              17.360993
            ],
            [
              78.51593,
              17.361554
            ],
            [
              78.514925,
              17.362124
            ],
            [
              78.51258,
              17.363211
            ]
          ]
        ]
      }
    }
  ]
}