{
  "type": "FeatureCollection",
  "features": [
    {
      "type": "Feature",
      "properties": {},
      "geometry": {
        "type": "Polygon",
        "coordinates": [
          [
            [
              78.557912,
              17.376534
            ],
            [
              78.557476,
              17.369174
            ],
            [
              78.567369,
              17.366629
            ],
            [
              78.571588,
              17.365472
            ],
            [
              78.579299,
              17.366397
            ],
            [
              78.581821,
              17.369869
            ],
            [
              78.576098,
              17.373618
            ],
            [
              78.570134,
              17.37459
            ],
            [
              78.569649,
              17.377737
            ],
            [
              78.566351,
              17.378987
            ],
            [
              78.564702,
              17.381116
            ],
            [
              78.557912,
              17.376534
            ]
          ]
        ]
      }
    }
  ]
}