{
  "type": "FeatureCollection",
  "features": [
    {
      "type": "Feature",
      "properties": {},
      "geometry": {
        "type": "Polygon",
        "coordinates": [
          [
            [
              78.54568,
              17.355615
            ],
            [
              78.551797,
              17.356049
            ],
            [
              78.551546,
              17.36027
            ],
            [
              78.544865,
              17.358818
            ],
            [
              78.54568,
              17.355615
            ]
          ]
        ]
      }
    }
  ]
}