{
  "type": "FeatureCollection",
  "features": [
    {
      "type": "Feature",
      "properties": {},
      "geometry": {
        "type": "Polygon",
        "coordinates": [
          [
            [
              78.507518,
              17.391458
            ],
            [
              78.504596,
              17.390596
            ],
            [
              78.504735,
              17.389666
            ],
            [
              78.50548,
              17.38575
            ],
            [
              78.5087,
              17.385684
            ],
            [
              78.510752,
              17.385684
            ],
            [
              78.517163,
              17.380482
            ],
            [
              78.529463,
              17.379842
            ],
            [
              78.536244,
              17.39043
            ],
            [
              78.536071,
              17.396072
            ],
            [
              78.529602,
              17.397266
            ],
            [
              78.507518,
              17.391458
            ]
          ]
        ]
      }
    }
  ]
}