{
  "type": "FeatureCollection",
  "features": [
    {
      "type": "Feature",
      "properties": {},
      "geometry": {
        "type": "Polygon",
        "coordinates": [
          [
            [
              78.535324,
              17.368489
            ],
            [
              78.541433,
              17.375381
            ],
            [
              78.541085,
              17.375634
            ],
            [
              78.537314,
              17.374731
            ],
            [
              78.534044,
              17.371584
            ],
            [
              78.535324,
              17.368489
            ]
          ]
        ]
      }
    }
  ]
}