{
  "type": "FeatureCollection",
  "features": [
    {
      "type": "Feature",
      "properties": {},
      "geometry": {
        "type": "Polygon",
        "coordinates": [
          [
            [
              78.52126,
              17.354295
            ],
            [
              78.517761,
              17.348181
            ],
            [
              78.517686,
              17.347968
            ],
            [
              78.518088,
              17.347733
            ],
            [
              78.518573,
              17.347491
            ],
            [
              78.519002,
              17.347328
            ],
            [
              78.521043,
              17.346512
            ],
            [
              78.522988,
              17.345733
            ],
            [
              78.527774,
              17.345073
            ],
            [
              78.529318,
              17.349724
            ],
            [
              78.527764,
              17.354202
            ],
            [
              78.523798,
              17.355526
            ],
            [
              78.52126,
              17.354295
            ]
          ]
        ]
      }
    }
  ]
}