{
  "type": "FeatureCollection",
  "features": [
    {
      "type": "Feature",
      "properties": {},
      "geometry": {
        "type": "Polygon",
        "coordinates": [
          [
            [
              78.46462,
              17.404009
            ],
            [
              78.463391,
              17.403287
            ],
            [
              78.462214,
              17.402773
            ],
            [
              78.461137,
              17.402789
            ],
            [
              78.459858,
              17.402902
            ],
            [
              78.458108,
              17.402709
            ],
            [
              78.456274,
              17.403271
            ],
            [
              78.455584,
              17.39794
            ],
            [
              78.4558,
              17.395662
            ],
            [
              78.462391,
              17.394257
            ],
            [
              78.463509,
              17.393779
            ],
            [
              78.464547,
              17.392891
            ],
            [
              78.465666,
              17.391351
            ],
            [
              78.467654,
              17.390831
            ],
            [
              78.467777,
              17.399827
            ],
            [
              78.46462,
              17.404009
            ]
          ]
        ]
      }
    }
  ]
}