{
  "type": "FeatureCollection",
  "features": [
    {
      "type": "Feature",
      "properties": {},
      "geometry": {
        "type": "Polygon",
        "coordinates": [
          [
            [
              78.557228,
              17.331574
            ],
            [
              78.559349,
              17.327834
            ],
            [
              78.567616,
              17.328133
            ],
            [
              78.567109,
              17.323586
            ],
            [
              78.57123,
              17.323585
            ],
            [
              78.572037,
              17.323584
            ],
            [
              78.574706,
              17.321755
            ],
            [
              78.578757,
              17.318328
            ],
            [
              78.57954,
              17.318724
            ],
            [
              78.582229,
              17.32578
            ],
            [
              78.578558,
              17.326646
            ],
            [
              78.576058,
              17.326494
            ],
            [
              78.574283,
              17.326376
            ],
            [
              78.573898,
              17.326137
            ],
            [
              78.57231,
              17.327534
            ],
            [
              78.571062,
              17.328606
            ],
            [
              78.569964,
              17.328629
            ],
            [
              78.567977,
              17.328609
            ],
            [
              78.566979,
              17.328609
            ],
            [
              78.5666,
              17.328647
            ],
            [
              78.5678,
              17.329685
            ],
            [
              78.568049,
              17.330876
            ],
            [
              78.56831,
              17.332087
            ],
            [
              78.568512,
              17.333164
            ],
            [
              78.568721,
              17.334248
            ],
            [
              78.562023,
              17.336063
            ],
            [
              78.557228,
              17.331574
            ]
          ]
        ]
      }
    }
  ]
}