{
  "type": "FeatureCollection",
  "features": [
    {
      "type": "Feature",
      "properties": {},
      "geometry": {
        "type": "Polygon",
        "coordinates": [
          [
            [
              78.472333,
              17.381844
            ],
            [
              78.474397,
              17.380381
            ],
            [
              78.474595,
              17.375102
            ],
            [
              78.476124,
              17.371094
            ],
            [
              78.47726,
              17.369949
            ],
            [
              78.484193,
              17.37313
            ],
            [
              78.487724,
              17.37682
            ],
            [
              78.490057,
              17.37682
            ],
            [
              78.494123,
              17.376374
            ],
            [
              78.497856,
              17.374784
            ],
            [
              78.502162,
              17.373519
            ],
            [
              78.505318,
              17.377685
            ],
            [
              78.506375,
              17.378836
            ],
            [
              78.504255,
              17.381655
            ],
            [
              78.498189,
              17.382866
            ],
            [
              78.495056,
              17.380383
            ],
            [
              78.494323,
              17.377711
            ],
            [
              78.488058,
              17.378347
            ],
            [
              78.485059,
              17.380954
            ],
            [
              78.474801,
              17.384705
            ],
            [
              78.472333,
              17.381844
            ]
          ]
        ]
      }
    }
  ]
}