{
  "type": "FeatureCollection",
  "features": [
    {
      "type": "Feature",
      "properties": {},
      "geometry": {
        "type": "Polygon",
        "coordinates": [
          [
            [
              78.449914,
              17.410834
            ],
            [
              78.451533,
              17.406491
            ],
            [
              78.460464,
              17.407546
            ],
            [
              78.460826,
              17.410435
            ],
            [
              78.460973,
              17.413352
            ],
            [
              78.45857,
              17.415418
            ],
            [
              78.455594,
              17.415528
            ],
            [
              78.454143,
              17.414804
            ],
            [
              78.450884,
              17.412086
            ],
            [
              78.449914,
              17.410834
            ]
          ]
        ]
      }
    }
  ]
}