{
  "type": "FeatureCollection",
  "features": [
    {
      "type": "Feature",
      "properties": {},
      "geometry": {
        "type": "Polygon",
        "coordinates": [
          [
            [
              78.538166,
              17.368041
            ],
            [
              78.537136,
              17.366156
            ],
            [
              78.536072,
              17.362911
            ],
            [
              78.535456,
              17.3529
            ],
            [
              78.542667,
              17.349934
            ],
            [
              78.547163,
              17.34757
            ],
            [
              78.550389,
              17.345616
            ],
            [
              78.551176,
              17.346646
            ],
            [
              78.552123,
              17.34792
            ],
            [
              78.55436,
              17.348931
            ],
            [
              78.558133,
              17.34959
            ],
            [
              78.565584,
              17.350544
            ],
            [
              78.573642,
              17.35029
            ],
            [
              78.57231,
              17.35444
            ],
            [
              78.566784,
              17.358916
            ],
            [
              78.55573,
              17.352712
            ],
            [
              78.55453,
              17.350761
            ],
            [
              78.553646,
              17.349951
            ],
            [
              78.552842,
              17.351972
            ],
            [
              78.549818,
              17.352417
            ],
            [
              78.546438,
              17.351999
            ],
            [
              78.545556,
              17.354737
            ],
            [
              78.544424,
              17.359402
            ],
            [
              78.543152,
              17.363966
            ],
            [
              78.542165,
              17.36554
            ],
            [
              78.541561,
              17.366247
            ],
            [
              78.540999,
              17.366899
            ],
            [
              78.538984,
              17.367781
            ],
            [
              78.53848,
              17.367657
            ],
            [
              78.538166,
              17.368041
            ]
          ]
        ]
      }
    }
  ]
}