{
  "type": "FeatureCollection",
  "features": [
    {
      "type": "Feature",
      "properties": {},
      "geometry": {
        "type": "Polygon",
        "coordinates": [
          [
            [
              78.631367,
              17.321862
            ],
            [
              78.631064,
              17.321819
            ],
            [
              78.63076,
              17.321211
            ],
            [
              78.637491,
              17.319228
            ],
            [
              78.638976,
              17.321591
            ],
            [
              78.637476,
              17.322976
            ],
            [
              78.634232,
              17.323628
            ],
            [
              78.632852,
              17.323324
            ],
            [
              78.631367,
              17.321862
            ]
          ]
        ]
      }
    }
  ]
}