{
  "type": "FeatureCollection",
  "features": [
    {
      "type": "Feature",
      "properties": {},
      "geometry": {
        "type": "Polygon",
        "coordinates": [
          [
            [
              78.573688,
              17.336642
            ],
            [
              78.574393,
              17.3354
            ],
            [
              78.575096,
              17.333884
            ],
            [
              78.575217,
              17.332656
            ],
            [
              78.575619,
              17.330814
            ],
            [
              78.57559,
              17.329042
            ],
            [
              78.574396,
              17.326427
            ],
            [
              78.578557,
              17.32668
            ],
            [
              78.582252,
              17.325835
            ],
            [
              78.586879,
              17.327083
            ],
            [
              78.590791,
              17.331887
            ],
            [
              78.588687,
              17.333115
            ],
            [
              78.584787,
              17.334977
            ],
            [
              78.581926,
              17.335669
            ],
            [
              78.573688,
              17.336642
            ]
          ]
        ]
      }
    }
  ]
}