{
  "type": "FeatureCollection",
  "features": [
    {
      "type": "Feature",
      "properties": {},
      "geometry": {
        "type": "Polygon",
        "coordinates": [
          [
            [
              78.46058,
              17.407444
            ],
            [
              78.461034,
              17.406933
            ],
            [
              78.462536,
              17.406583
            ],
            [
              78.464008,
              17.405108
            ],
            [
              78.465281,
              17.40655
            ],
            [
              78.466803,
              17.407223
            ],
            [
              78.46773,
              17.407238
            ],
            [
              78.468705,
              17.407879
            ],
            [
              78.47131,
              17.407955
            ],
            [
              78.471358,
              17.411279
            ],
            [
              78.470861,
              17.413511
            ],
            [
              78.470431,
              17.413998
            ],
            [
              78.465754,
              17.415353
            ],
            [
              78.460592,
              17.416228
            ],
            [
              78.461194,
              17.414684
            ],
            [
              78.461019,
              17.413315
            ],
            [
              78.46097,
              17.412266
            ],
            [
              78.460989,
              17.411033
            ],
            [
              78.460744,
              17.40943
            ],
            [
              78.460661,
              17.408641
            ],
            [
              78.460579,
              17.40805
            ],
            [
              78.46058,
              17.407444
            ]
          ]
        ]
      }
    }
  ]
}