{
  "type": "FeatureCollection",
  "features": [
    {
      "type": "Feature",
      "properties": {},
      "geometry": {
        "type": "Polygon",
        "coordinates": [
          [
            [
              78.452587,
              17.426689
            ],
            [
              78.45456,
              17.423005
            ],
            [
              78.454623,
              17.423125
            ],
            [
              78.458081,
              17.423879
            ],
            [
              78.457276,
              17.424797
            ],
            [
              78.457102,
              17.426048
            ],
            [
              78.457466,
              17.426952
            ],
            [
              78.457134,
              17.427751
            ],
            [
              78.456392,
              17.428263
            ],
            [
              78.455365,
              17.428896
            ],
            [
              78.453628,
              17.428519
            ],
            [
              78.452996,
              17.427691
            ],
            [
              78.452587,
              17.426689
            ]
          ]
        ]
      }
    }
  ]
}