{
  "type": "FeatureCollection",
  "features": [
    {
      "type": "Feature",
      "properties": {},
      "geometry": {
        "type": "Polygon",
        "coordinates": [
          [
            [
              78.607476,
              17.306958
            ],
            [
              78.607496,
              17.304571
            ],
            [
              78.608004,
              17.301102
            ],
            [
              78.609254,
              17.29961
            ],
            [
              78.609899,
              17.300896
            ],
            [
              78.609293,
              17.306548
            ],
            [
              78.607476,
              17.306958
            ]
          ]
        ]
      }
    }
  ]
}