{
  "type": "FeatureCollection",
  "features": [
    {
      "type": "Feature",
      "properties": {},
      "geometry": {
        "type": "Polygon",
        "coordinates": [
          [
            [
              78.417757,
              17.346842
            ],
            [
              78.418637,
              17.35125
            ],
            [
              78.420335,
              17.351959
            ],
            [
              78.423776,
              17.352679
            ],
            [
              78.427274,
              17.352405
            ],
            [
              78.42802,
              17.352347
            ],
            [
              78.428306,
              17.352246
            ],
            [
              78.428309,
              17.352245
            ],
            [
              78.42831,
              17.352245
            ],
            [
              78.428313,
              17.352244
            ],
            [
              78.428316,
              17.352244
            ],
            [
              78.42832,
              17.352244
            ],
            [
              78.428323,
              17.352244
            ],
            [
              78.428327,
              17.352245
            ],
            [
              78.42833,
              17.352246
            ],
            [
              78.428333,
              17.352247
            ],
            [
              78.428366,
              17.352263
            ],
            [
              78.433358,
              17.350484
            ],
            [
              78.433528,
              17.347448
            ],
            [
              78.433612,
              17.345855
            ],
            [
              78.429914,
              17.341459
            ],
            [
              78.425274,
              17.339194
            ],
            [
              78.422935,
              17.341426
            ],
            [
              78.418037,
              17.342778
            ],
            [
              78.418036,
              17.342778
            ],
            [
              78.417157,
              17.343021
            ],
            [
              78.417147,
              17.343035
            ],
            [
              78.417702,
              17.346748
            ],
            [
              78.417753,
              17.346831
            ],
            [
              78.417754,
              17.346834
            ],
            [
              78.417756,
              17.346837
            ],
            [
              78.417757,
              17.34684
            ],
            [
              78.417757,
              17.346842
            ]
          ]
        ]
      }
    }
  ]
}