{
  "type": "FeatureCollection",
  "features": [
    {
      "type": "Feature",
      "properties": {},
      "geometry": {
        "type": "Polygon",
        "coordinates": [
          [
            [
              78.435613,
              17.405962
            ],
            [
              78.438023,
              17.408152
            ],
            [
              78.438036,
              17.408134
            ],
            [
              78.438179,
              17.407939
            ],
            [
              78.438181,
              17.407937
            ],
            [
              78.438183,
              17.407935
            ],
            [
              78.438186,
              17.407932
            ],
            [
              78.438188,
              17.407931
            ],
            [
              78.438188,
              17.40793
            ],
            [
              78.43823,
              17.407903
            ],
            [
              78.440648,
              17.406338
            ],
            [
              78.440651,
              17.406336
            ],
            [
              78.440655,
              17.406335
            ],
            [
              78.440658,
              17.406334
            ],
            [
              78.440661,
              17.406333
            ],
            [
              78.440665,
              17.406332
            ],
            [
              78.440667,
              17.406332
            ],
            [
              78.440668,
              17.406332
            ],
            [
              78.440672,
              17.406332
            ],
            [
              78.440675,
              17.406333
            ],
            [
              78.440679,
              17.406334
            ],
            [
              78.440682,
              17.406335
            ],
            [
              78.440685,
              17.406336
            ],
            [
              78.440688,
              17.406338
            ],
            [
              78.440691,
              17.40634
            ],
            [
              78.440693,
              17.406343
            ],
            [
              78.440696,
              17.406345
            ],
            [
              78.441234,
              17.406998
            ],
            [
              78.444324,
              17.406592
            ],
            [
              78.444328,
              17.406592
            ],
            [
              78.444331,
              17.406592
            ],
            [
              78.444332,
              17.406592
            ],
            [
              78.444336,
              17.406593
            ],
            [
              78.446569,
              17.407044
            ],
            [
              78.446599,
              17.407024
            ],
            [
              78.446602,
              17.407022
            ],
            [
              78.446605,
              17.40702
            ],
            [
              78.446608,
              17.407019
            ],
            [
              78.446611,
              17.407018
            ],
            [
              78.446615,
              17.407018
            ],
            [
              78.446618,
              17.407017
            ],
            [
              78.446622,
              17.407017
            ],
            [
              78.446624,
              17.407018
            ],
            [
              78.446625,
              17.407018
            ],
            [
              78.447936,
              17.407261
            ],
            [
              78.451866,
              17.407447
            ],
            [
              78.45187,
              17.407447
            ],
            [
              78.45187,
              17.407448
            ],
            [
              78.451871,
              17.407448
            ],
            [
              78.451873,
              17.407448
            ],
            [
              78.451877,
              17.407449
            ],
            [
              78.45188,
              17.407451
            ],
            [
              78.451883,
              17.407452
            ],
            [
              78.451886,
              17.407454
            ],
            [
              78.451889,
              17.407457
            ],
            [
              78.451892,
              17.407459
            ],
            [
              78.451894,
              17.407462
            ],
            [
              78.451896,
              17.407465
            ],
            [
              78.451897,
              17.407468
            ],
            [
              78.451899,
              17.407472
            ],
            [
              78.4519,
              17.407475
            ],
            [
              78.4519,
              17.407479
            ],
            [
              78.4519,
              17.407482
            ],
            [
              78.4519,
              17.407486
            ],
            [
              78.4519,
              17.407488
            ],
            [
              78.4519,
              17.407489
            ],
            [
              78.4519,
              17.40749
            ],
            [
              78.451899,
              17.407493
            ],
            [
              78.451847,
              17.407673
            ],
            [
              78.45186,
              17.407709
            ],
            [
              78.451896,
              17.407781
            ],
            [
              78.45198,
              17.407214
            ],
            [
              78.452085,
              17.406851
            ],
            [
              78.453248,
              17.403506
            ],
            [
              78.450268,
              17.398545
            ],
            [
              78.445127,
              17.398359
            ],
            [
              78.443187,
              17.398423
            ],
            [
              78.442998,
              17.398328
            ],
            [
              78.442934,
              17.398141
            ],
            [
              78.437121,
              17.398169
            ],
            [
              78.435281,
              17.405358
            ],
            [
              78.435613,
              17.405962
            ]
          ]
        ]
      }
    }
  ]
}