{
  "type": "FeatureCollection",
  "features": [
    {
      "type": "Feature",
      "properties": {},
      "geometry": {
        "type": "Polygon",
        "coordinates": [
          [
            [
              78.446094226,
              17.466931479
            ],
            [
              78.428368939,
              17.473088642
            ],
            [
              78.423487786,
              17.475839834
            ],
            [
              78.420830064,
              17.477650163
            ],
            [
              78.418205587,
              17.479539768
            ],
            [
              78.416114894,
              17.481543225
            ],
            [
              78.412709034,
              17.483692758
            ],
            [
              78.412584634,
              17.483771908
            ],
            [
              78.411778714,
              17.484786476
            ],
            [
              78.409762008,
              17.487792547
            ],
            [
              78.407602049,
              17.490622808
            ],
            [
              78.405252226,
              17.48892771
            ],
            [
              78.404075811,
              17.484094656
            ],
            [
              78.406361173,
              17.481737025
            ],
            [
              78.413346522,
              17.474836886
            ],
            [
              78.41705646,
              17.465929693
            ],
            [
              78.417365822,
              17.459853949
            ],
            [
              78.42967315,
              17.462212796
            ],
            [
              78.43987902,
              17.461622369
            ],
            [
              78.446094226,
              17.466931479
            ]
          ]
        ]
      }
    }
  ]
}