{
  "type": "FeatureCollection",
  "features": [
    {
      "type": "Feature",
      "properties": {},
      "geometry": {
        "type": "Polygon",
        "coordinates": [
          [
            [
              78.423679,
              17.475761
            ],
            [
              78.427869,
              17.473412
            ],
            [
              78.42782,
              17.474357
            ],
            [
              78.428036,
              17.476351
            ],
            [
              78.428189,
              17.478198
            ],
            [
              78.428681,
              17.479166
            ],
            [
              78.428773,
              17.480075
            ],
            [
              78.428712,
              17.480866
            ],
            [
              78.427667,
              17.481218
            ],
            [
              78.427574,
              17.482303
            ],
            [
              78.427513,
              17.483857
            ],
            [
              78.427021,
              17.484502
            ],
            [
              78.426314,
              17.485557
            ],
            [
              78.426345,
              17.486173
            ],
            [
              78.426714,
              17.48673
            ],
            [
              78.426283,
              17.487463
            ],
            [
              78.425023,
              17.487111
            ],
            [
              78.424531,
              17.487492
            ],
            [
              78.424375,
              17.487829
            ],
            [
              78.424222,
              17.488386
            ],
            [
              78.423638,
              17.489236
            ],
            [
              78.425144,
              17.490145
            ],
            [
              78.425175,
              17.490555
            ],
            [
              78.424314,
              17.49208
            ],
            [
              78.424406,
              17.493398
            ],
            [
              78.427915,
              17.494902
            ],
            [
              78.428603,
              17.496446
            ],
            [
              78.425446,
              17.497844
            ],
            [
              78.423952,
              17.498295
            ],
            [
              78.42425,
              17.499343
            ],
            [
              78.419977,
              17.500298
            ],
            [
              78.420137,
              17.498104
            ],
            [
              78.417586,
              17.49813
            ],
            [
              78.417366,
              17.497679
            ],
            [
              78.416452,
              17.498031
            ],
            [
              78.416039,
              17.4985
            ],
            [
              78.415334,
              17.498877
            ],
            [
              78.415007,
              17.49846
            ],
            [
              78.414515,
              17.497681
            ],
            [
              78.413943,
              17.496955
            ],
            [
              78.41207,
              17.495068
            ],
            [
              78.407698,
              17.490722
            ],
            [
              78.411795,
              17.484991
            ],
            [
              78.412982,
              17.483695
            ],
            [
              78.416497,
              17.481404
            ],
            [
              78.417344,
              17.480459
            ],
            [
              78.418264,
              17.479626
            ],
            [
              78.419761,
              17.478468
            ],
            [
              78.421279,
              17.477394
            ],
            [
              78.423679,
              17.475761
            ]
          ]
        ]
      }
    }
  ]
}