{
  "type": "FeatureCollection",
  "features": [
    {
      "type": "Feature",
      "properties": {},
      "geometry": {
        "type": "Polygon",
        "coordinates": [
          [
            [
              78.433048,
              17.436636
            ],
            [
              78.431641,
              17.436552
            ],
            [
              78.428505,
              17.437167
            ],
            [
              78.426658,
              17.438062
            ],
            [
              78.424167,
              17.439488
            ],
            [
              78.424196,
              17.441446
            ],
            [
              78.421646,
              17.443795
            ],
            [
              78.418715,
              17.444634
            ],
            [
              78.414757,
              17.445305
            ],
            [
              78.412383,
              17.444718
            ],
            [
              78.410654,
              17.442005
            ],
            [
              78.408543,
              17.440579
            ],
            [
              78.409247,
              17.43932
            ],
            [
              78.410214,
              17.438565
            ],
            [
              78.412588,
              17.437167
            ],
            [
              78.412237,
              17.435405
            ],
            [
              78.416282,
              17.434147
            ],
            [
              78.417337,
              17.432805
            ],
            [
              78.419271,
              17.431938
            ],
            [
              78.420122,
              17.43121
            ],
            [
              78.421265,
              17.431294
            ],
            [
              78.422613,
              17.431266
            ],
            [
              78.42446,
              17.430511
            ],
            [
              78.425427,
              17.429868
            ],
            [
              78.427098,
              17.429868
            ],
            [
              78.431759,
              17.429868
            ],
            [
              78.432374,
              17.432217
            ],
            [
              78.434016,
              17.434902
            ],
            [
              78.434543,
              17.435545
            ],
            [
              78.433048,
              17.436636
            ]
          ]
        ]
      }
    }
  ]
}