{
  "type": "FeatureCollection",
  "features": [
    {
      "type": "Feature",
      "properties": {},
      "geometry": {
        "type": "Polygon",
        "coordinates": [
          [
            [
              78.377796,
              17.497439
            ],
            [
              78.37397,
              17.49643
            ],
            [
              78.361987,
              17.496571
            ],
            [
              78.364722,
              17.489341
            ],
            [
              78.375,
              17.491556
            ],
            [
              78.379986,
              17.489138
            ],
            [
              78.380845,
              17.492049
            ],
            [
              78.383188,
              17.490618
            ],
            [
              78.384651,
              17.492173
            ],
            [
              78.386362,
              17.48996
            ],
            [
              78.385079,
              17.462793
            ],
            [
              78.383185,
              17.45435
            ],
            [
              78.377388,
              17.446235
            ],
            [
              78.377246,
              17.441139
            ],
            [
              78.38827,
              17.436266
            ],
            [
              78.392612,
              17.44054
            ],
            [
              78.396829,
              17.451546
            ],
            [
              78.397297,
              17.45895
            ],
            [
              78.385227,
              17.462609
            ],
            [
              78.386369,
              17.489953
            ],
            [
              78.390485,
              17.493834
            ],
            [
              78.392467,
              17.497454
            ],
            [
              78.391183,
              17.498093
            ],
            [
              78.382809,
              17.499504
            ],
            [
              78.380836,
              17.498879
            ],
            [
              78.377796,
              17.497439
            ]
          ]
        ]
      }
    }
  ]
}