{
  "type": "FeatureCollection",
  "features": [
    {
      "type": "Feature",
      "properties": {},
      "geometry": {
        "type": "Polygon",
        "coordinates": [
          [
            [
              78.380300125,
              17.504688155
            ],
            [
              78.372839709,
              17.496614511
            ],
            [
              78.370039226,
              17.490969077
            ],
            [
              78.368288495,
              17.487216257
            ],
            [
              78.372755209,
              17.48372923
            ],
            [
              78.376670301,
              17.478553366
            ],
            [
              78.382008139,
              17.474698829
            ],
            [
              78.386236315,
              17.471673605
            ],
            [
              78.387182468,
              17.471442131
            ],
            [
              78.388495781,
              17.474823035
            ],
            [
              78.390525514,
              17.477814172
            ],
            [
              78.389490375,
              17.48090188
            ],
            [
              78.389325556,
              17.482555843
            ],
            [
              78.395006233,
              17.496314255
            ],
            [
              78.39179165,
              17.497962177
            ],
            [
              78.390088772,
              17.498680712
            ],
            [
              78.387457325,
              17.498992417
            ],
            [
              78.38356898,
              17.499495019
            ],
            [
              78.380300125,
              17.504688155
            ]
          ]
        ]
      }
    }
  ]
}