{
  "type": "FeatureCollection",
  "features": [
    {
      "type": "Feature",
      "properties": {},
      "geometry": {
        "type": "Polygon",
        "coordinates": [
          [
            [
              78.401040133,
              17.494269412
            ],
            [
              78.406855581,
              17.496904856
            ],
            [
              78.409354415,
              17.497970449
            ],
            [
              78.412436253,
              17.498805009
            ],
            [
              78.41540724,
              17.500084196
            ],
            [
              78.41738931,
              17.501146925
            ],
            [
              78.420389955,
              17.502780946
            ],
            [
              78.420126208,
              17.503451409
            ],
            [
              78.418552159,
              17.505589425
            ],
            [
              78.416214934,
              17.507636438
            ],
            [
              78.414259297,
              17.508955612
            ],
            [
              78.413162232,
              17.5124582
            ],
            [
              78.411778977,
              17.514050263
            ],
            [
              78.406102859,
              17.514732571
            ],
            [
              78.402495005,
              17.514562245
            ],
            [
              78.40226835,
              17.511890104
            ],
            [
              78.402644612,
              17.508118093
            ],
            [
              78.40316432,
              17.507424083
            ],
            [
              78.407549873,
              17.506917512
            ],
            [
              78.407995235,
              17.503526532
            ],
            [
              78.408956803,
              17.500374984
            ],
            [
              78.408381571,
              17.499298425
            ],
            [
              78.401983448,
              17.499279234
            ],
            [
              78.401965024,
              17.498594342
            ],
            [
              78.400641385,
              17.496359349
            ],
            [
              78.399685109,
              17.494771268
            ],
            [
              78.401040133,
              17.494269412
            ]
          ]
        ]
      }
    }
  ]
}