{
  "type": "FeatureCollection",
  "features": [
    {
      "type": "Feature",
      "properties": {},
      "geometry": {
        "type": "Polygon",
        "coordinates": [
          [
            [
              78.412787744,
              17.479988409
            ],
            [
              78.415235365,
              17.48016734
            ],
            [
              78.417139071,
              17.480951555
            ],
            [
              78.419193864,
              17.47905533
            ],
            [
              78.420342131,
              17.478337794
            ],
            [
              78.421973879,
              17.477101449
            ],
            [
              78.426234553,
              17.474860404
            ],
            [
              78.426823795,
              17.480628457
            ],
            [
              78.422729317,
              17.481669672
            ],
            [
              78.420613005,
              17.48958122
            ],
            [
              78.419842674,
              17.502462764
            ],
            [
              78.416910354,
              17.500812658
            ],
            [
              78.415401545,
              17.500044815
            ],
            [
              78.413737375,
              17.499326361
            ],
            [
              78.412457404,
              17.498786883
            ],
            [
              78.410247042,
              17.498192919
            ],
            [
              78.409349616,
              17.497937724
            ],
            [
              78.40671244,
              17.496838089
            ],
            [
              78.404130963,
              17.495612851
            ],
            [
              78.401085865,
              17.494259737
            ],
            [
              78.403736308,
              17.49295832
            ],
            [
              78.405591282,
              17.492048252
            ],
            [
              78.407463067,
              17.490848764
            ],
            [
              78.404900964,
              17.486992059
            ],
            [
              78.404009546,
              17.483735249
            ],
            [
              78.407854729,
              17.480204573
            ],
            [
              78.411681026,
              17.480168527
            ],
            [
              78.412787744,
              17.479988409
            ]
          ]
        ]
      }
    }
  ]
}