{
  "type": "FeatureCollection",
  "features": [
    {
      "type": "Feature",
      "properties": {},
      "geometry": {
        "type": "Polygon",
        "coordinates": [
          [
            [
              78.378742982,
              17.50723343
            ],
            [
              78.383572392,
              17.499527264
            ],
            [
              78.390086318,
              17.498749002
            ],
            [
              78.387892354,
              17.515656196
            ],
            [
              78.387402122,
              17.518148642
            ],
            [
              78.382835897,
              17.529504703
            ],
            [
              78.381614622,
              17.540068559
            ],
            [
              78.377865411,
              17.543335053
            ],
            [
              78.371174455,
              17.542800093
            ],
            [
              78.364076449,
              17.540391815
            ],
            [
              78.365870123,
              17.533703981
            ],
            [
              78.374612341,
              17.528495584
            ],
            [
              78.374532215,
              17.523540234
            ],
            [
              78.377099756,
              17.519720718
            ],
            [
              78.379410507,
              17.513158782
            ],
            [
              78.378742982,
              17.50723343
            ]
          ]
        ]
      }
    }
  ]
}