{
  "type": "FeatureCollection",
  "features": [
    {
      "type": "Feature",
      "properties": {},
      "geometry": {
        "type": "Polygon",
        "coordinates": [
          [
            [
              78.395052292,
              17.496316489
            ],
            [
              78.393885696,
              17.493320937
            ],
            [
              78.391590297,
              17.487878684
            ],
            [
              78.390407756,
              17.484976455
            ],
            [
              78.38943624,
              17.482448765
            ],
            [
              78.389601421,
              17.480934173
            ],
            [
              78.390560917,
              17.477808644
            ],
            [
              78.388538662,
              17.47478421
            ],
            [
              78.387219696,
              17.471454849
            ],
            [
              78.392074339,
              17.469431691
            ],
            [
              78.394501266,
              17.473481822
            ],
            [
              78.395790234,
              17.476375459
            ],
            [
              78.395562828,
              17.478180867
            ],
            [
              78.394501527,
              17.482516935
            ],
            [
              78.398824473,
              17.484034108
            ],
            [
              78.400500359,
              17.484612914
            ],
            [
              78.403264564,
              17.493145727
            ],
            [
              78.399071628,
              17.494999933
            ],
            [
              78.397232603,
              17.495810788
            ],
            [
              78.395052292,
              17.496316489
            ]
          ]
        ]
      }
    }
  ]
}