{
  "type": "FeatureCollection",
  "features": [
    {
      "type": "Feature",
      "properties": {},
      "geometry": {
        "type": "Polygon",
        "coordinates": [
          [
            [
              78.394293,
              17.482358
            ],
            [
              78.400414,
              17.483867
            ],
            [
              78.404055,
              17.49265
            ],
            [
              78.409089,
              17.50041
            ],
            [
              78.408014,
              17.503198
            ],
            [
              78.407696,
              17.50624
            ],
            [
              78.40819,
              17.507226
            ],
            [
              78.410483,
              17.50838
            ],
            [
              78.411921,
              17.510995
            ],
            [
              78.413449,
              17.51391
            ],
            [
              78.408109,
              17.515367
            ],
            [
              78.4031,
              17.513736
            ],
            [
              78.401953,
              17.510223
            ],
            [
              78.407661,
              17.506322
            ],
            [
              78.407984,
              17.503198
            ],
            [
              78.409052,
              17.50041
            ],
            [
              78.404101,
              17.492775
            ],
            [
              78.403148,
              17.493462
            ],
            [
              78.397569,
              17.495411
            ],
            [
              78.393826,
              17.49662
            ],
            [
              78.39132,
              17.498214
            ],
            [
              78.388227,
              17.498656
            ],
            [
              78.382535,
              17.499276
            ],
            [
              78.381797,
              17.494276
            ],
            [
              78.378111,
              17.49016
            ],
            [
              78.394293,
              17.482358
            ]
          ]
        ]
      }
    }
  ]
}