{
  "type": "FeatureCollection",
  "features": [
    {
      "type": "Feature",
      "properties": {},
      "geometry": {
        "type": "Polygon",
        "coordinates": [
          [
            [
              78.448633637,
              17.480043331
            ],
            [
              78.450479452,
              17.488556328
            ],
            [
              78.450519324,
              17.488260238
            ],
            [
              78.454776842,
              17.487799571
            ],
            [
              78.45544286,
              17.491608518
            ],
            [
              78.454307684,
              17.492609784
            ],
            [
              78.454272101,
              17.493874769
            ],
            [
              78.454768946,
              17.494196968
            ],
            [
              78.454918188,
              17.494991189
            ],
            [
              78.455532066,
              17.494807682
            ],
            [
              78.456387465,
              17.495336897
            ],
            [
              78.457235345,
              17.49616443
            ],
            [
              78.457019982,
              17.496641412
            ],
            [
              78.457132114,
              17.496849847
            ],
            [
              78.457498372,
              17.496986979
            ],
            [
              78.457396114,
              17.497547786
            ],
            [
              78.457025072,
              17.49787773
            ],
            [
              78.45722795,
              17.498568818
            ],
            [
              78.457802583,
              17.49867873
            ],
            [
              78.458274795,
              17.498908612
            ],
            [
              78.458547509,
              17.499307831
            ],
            [
              78.459252667,
              17.498901268
            ],
            [
              78.459964101,
              17.499154003
            ],
            [
              78.460583511,
              17.499883624
            ],
            [
              78.460534666,
              17.500417536
            ],
            [
              78.461194338,
              17.500710469
            ],
            [
              78.45978195,
              17.501453101
            ],
            [
              78.458375864,
              17.502141627
            ],
            [
              78.457658639,
              17.502505428
            ],
            [
              78.456865771,
              17.502869229
            ],
            [
              78.455633033,
              17.503254165
            ],
            [
              78.451919574,
              17.499040118
            ],
            [
              78.433100539,
              17.502735309
            ],
            [
              78.432628682,
              17.500075237
            ],
            [
              78.427061571,
              17.489118574
            ],
            [
              78.448633637,
              17.480043331
            ]
          ]
        ]
      }
    }
  ]
}