{
  "type": "FeatureCollection",
  "features": [
    {
      "type": "Feature",
      "properties": {},
      "geometry": {
        "type": "Polygon",
        "coordinates": [
          [
            [
              78.3401,
              17.4932
            ],
            [
              78.3478,
              17.4895
            ],
            [
              78.3564,
              17.4891
            ],
            [
              78.3652,
              17.4928
            ],
            [
              78.3721,
              17.4994
            ],
            [
              78.3745,
              17.5078
            ],
            [
              78.3728,
              17.5162
            ],
            [
              78.3669,
              17.5234
            ],
            [
              78.3582,
              17.5281
            ],
            [
              78.3487,
              17.5289
            ],
            [
              78.3409,
              17.5243
            ],
            [
              78.3358,
              17.5167
            ],
            [
              78.3344,
              17.5075
            ],
            [
              78.3362,
              17.4991
            ],
            [
              78.3401,
              17.4932
            ]
          ]
        ]
      }
    }
  ]
}