{
  "type": "FeatureCollection",
  "features": [
    {
      "type": "Feature",
      "properties": {},
      "geometry": {
        "type": "Polygon",
        "coordinates": [
          [
            [
              78.36166744,
              17.497236295
            ],
            [
              78.361727819,
              17.496593067
            ],
            [
              78.374355537,
              17.496571742
            ],
            [
              78.377238802,
              17.497310937
            ],
            [
              78.378876309,
              17.498140374
            ],
            [
              78.380513816,
              17.498929513
            ],
            [
              78.382430707,
              17.499546909
            ],
            [
              78.390910156,
              17.498432367
            ],
            [
              78.393591124,
              17.496930605
            ],
            [
              78.397310401,
              17.495787386
            ],
            [
              78.400924193,
              17.494241749
            ],
            [
              78.406745758,
              17.496826028
            ],
            [
              78.407579462,
              17.498294484
            ],
            [
              78.408386027,
              17.499303493
            ],
            [
              78.40584694,
              17.502464756
            ],
            [
              78.403648041,
              17.502745684
            ],
            [
              78.402239227,
              17.502565512
            ],
            [
              78.401087189,
              17.503117643
            ],
            [
              78.400561666,
              17.506746937
            ],
            [
              78.398733243,
              17.508250204
            ],
            [
              78.399661487,
              17.509534699
            ],
            [
              78.401382288,
              17.512509573
            ],
            [
              78.406395545,
              17.520144635
            ],
            [
              78.403296548,
              17.529503894
            ],
            [
              78.39785319,
              17.541501412
            ],
            [
              78.388467919,
              17.540984964
            ],
            [
              78.385372463,
              17.529097446
            ],
            [
              78.387240969,
              17.524672823
            ],
            [
              78.385152595,
              17.517736275
            ],
            [
              78.380957804,
              17.517187037
            ],
            [
              78.37535636,
              17.52138893
            ],
            [
              78.361163211,
              17.512683585
            ],
            [
              78.361944539,
              17.509503264
            ],
            [
              78.362423306,
              17.506130581
            ],
            [
              78.362020961,
              17.503662211
            ],
            [
              78.362198526,
              17.501410258
            ],
            [
              78.36166744,
              17.497236295
            ]
          ]
        ]
      }
    }
  ]
}