{
  "type": "FeatureCollection",
  "features": [
    {
      "type": "Feature",
      "properties": {},
      "geometry": {
        "type": "Polygon",
        "coordinates": [
          [
            [
              78.427741,
              17.490673
            ],
            [
              78.434432,
              17.485559
            ],
            [
              78.449044,
              17.481899
            ],
            [
              78.449979,
              17.485934
            ],
            [
              78.451602,
              17.492175
            ],
            [
              78.45175,
              17.496445
            ],
            [
              78.436499,
              17.500433
            ],
            [
              78.43101,
              17.493852
            ],
            [
              78.429313,
              17.49192
            ],
            [
              78.427741,
              17.490673
            ]
          ]
        ]
      }
    }
  ]
}