{
  "type": "FeatureCollection",
  "features": [
    {
      "type": "Feature",
      "properties": {},
      "geometry": {
        "type": "Polygon",
        "coordinates": [
          [
            [
              78.435415,
              17.53409
            ],
            [
              78.439857,
              17.533718
            ],
            [
              78.444585,
              17.534894
            ],
            [
              78.443792,
              17.539965
            ],
            [
              78.455673,
              17.55248
            ],
            [
              78.449451,
              17.55769
            ],
            [
              78.437707,
              17.586549
            ],
            [
              78.411501,
              17.583326
            ],
            [
              78.404467,
              17.575797
            ],
            [
              78.412038,
              17.562965
            ],
            [
              78.425577,
              17.558404
            ],
            [
              78.428736,
              17.555577
            ],
            [
              78.43181,
              17.557686
            ],
            [
              78.434743,
              17.546037
            ],
            [
              78.433948,
              17.542583
            ],
            [
              78.434171,
              17.540027
            ],
            [
              78.434962,
              17.536572
            ],
            [
              78.435415,
              17.53409
            ]
          ]
        ]
      }
    }
  ]
}