{
  "type": "FeatureCollection",
  "features": [
    {
      "type": "Feature",
      "properties": {},
      "geometry": {
        "type": "Polygon",
        "coordinates": [
          [
            [
              78.42906,
              17.457571
            ],
            [
              78.429209,
              17.455726
            ],
            [
              78.430659,
              17.455301
            ],
            [
              78.430287,
              17.454112
            ],
            [
              78.43003,
              17.453412
            ],
            [
              78.430105,
              17.45321
            ],
            [
              78.430647,
              17.453397
            ],
            [
              78.431663,
              17.453498
            ],
            [
              78.432056,
              17.453657
            ],
            [
              78.434496,
              17.454726
            ],
            [
              78.437744,
              17.448624
            ],
            [
              78.440351,
              17.449016
            ],
            [
              78.442065,
              17.448647
            ],
            [
              78.442243,
              17.447629
            ],
            [
              78.445713,
              17.446978
            ],
            [
              78.447117,
              17.446887
            ],
            [
              78.448198,
              17.447357
            ],
            [
              78.449165,
              17.447195
            ],
            [
              78.450336,
              17.450219
            ],
            [
              78.450307,
              17.452861
            ],
            [
              78.449736,
              17.454414
            ],
            [
              78.450021,
              17.455231
            ],
            [
              78.436543,
              17.457301
            ],
            [
              78.434144,
              17.456248
            ],
            [
              78.432631,
              17.45919
            ],
            [
              78.42906,
              17.457571
            ]
          ]
        ]
      }
    }
  ]
}