{
  "type": "FeatureCollection",
  "features": [
    {
      "type": "Feature",
      "properties": {},
      "geometry": {
        "type": "Polygon",
        "coordinates": [
          [
            [
              78.403443,
              17.491151
            ],
            [
              78.400907,
              17.485355
            ],
            [
              78.407838,
              17.478732
            ],
            [
              78.42314,
              17.476195
            ],
            [
              78.448274,
              17.48226
            ],
            [
              78.450313,
              17.487618
            ],
            [
              78.45953,
              17.487279
            ],
            [
              78.472558,
              17.491848
            ],
            [
              78.476609,
              17.499104
            ],
            [
              78.47291,
              17.500852
            ],
            [
              78.470688,
              17.502226
            ],
            [
              78.468742,
              17.503454
            ],
            [
              78.468058,
              17.503873
            ],
            [
              78.467838,
              17.50416
            ],
            [
              78.467365,
              17.505474
            ],
            [
              78.466491,
              17.506431
            ],
            [
              78.464763,
              17.507606
            ],
            [
              78.461642,
              17.507674
            ],
            [
              78.460959,
              17.507733
            ],
            [
              78.460296,
              17.507698
            ],
            [
              78.45978,
              17.50764
            ],
            [
              78.458937,
              17.507403
            ],
            [
              78.457632,
              17.507153
            ],
            [
              78.456289,
              17.507118
            ],
            [
              78.452784,
              17.507633
            ],
            [
              78.447783,
              17.510029
            ],
            [
              78.442336,
              17.510981
            ],
            [
              78.435605,
              17.512222
            ],
            [
              78.437138,
              17.52123
            ],
            [
              78.434504,
              17.524079
            ],
            [
              78.430022,
              17.526839
            ],
            [
              78.426157,
              17.52814
            ],
            [
              78.422735,
              17.530123
            ],
            [
              78.419693,
              17.531248
            ],
            [
              78.410629,
              17.529868
            ],
            [
              78.409651,
              17.518382
            ],
            [
              78.412034,
              17.514739
            ],
            [
              78.407372,
              17.506988
            ],
            [
              78.408916,
              17.500602
            ],
            [
              78.403443,
              17.491151
            ]
          ]
        ]
      }
    }
  ]
}