{
  "type": "FeatureCollection",
  "features": [
    {
      "type": "Feature",
      "properties": {},
      "geometry": {
        "type": "Polygon",
        "coordinates": [
          [
            [
              78.482119,
              17.52037
            ],
            [
              78.480097,
              17.514412
            ],
            [
              78.479828,
              17.512203
            ],
            [
              78.479722,
              17.50998
            ],
            [
              78.479158,
              17.506063
            ],
            [
              78.478477,
              17.502218
            ],
            [
              78.476876,
              17.498826
            ],
            [
              78.47422,
              17.492957
            ],
            [
              78.473545,
              17.487701
            ],
            [
              78.473245,
              17.482052
            ],
            [
              78.473877,
              17.47598
            ],
            [
              78.474961,
              17.476436
            ],
            [
              78.475499,
              17.476686
            ],
            [
              78.476107,
              17.476778
            ],
            [
              78.477118,
              17.476864
            ],
            [
              78.477434,
              17.476838
            ],
            [
              78.477627,
              17.476647
            ],
            [
              78.478041,
              17.476569
            ],
            [
              78.47821,
              17.476609
            ],
            [
              78.478357,
              17.476665
            ],
            [
              78.478657,
              17.476772
            ],
            [
              78.478929,
              17.476764
            ],
            [
              78.479599,
              17.476722
            ],
            [
              78.480802,
              17.476408
            ],
            [
              78.481685,
              17.476398
            ],
            [
              78.482251,
              17.476253
            ],
            [
              78.482743,
              17.476199
            ],
            [
              78.484222,
              17.476027
            ],
            [
              78.485686,
              17.475721
            ],
            [
              78.485899,
              17.476174
            ],
            [
              78.487157,
              17.475819
            ],
            [
              78.488391,
              17.475544
            ],
            [
              78.488658,
              17.475437
            ],
            [
              78.4889,
              17.475353
            ],
            [
              78.489507,
              17.475228
            ],
            [
              78.490943,
              17.474577
            ],
            [
              78.492435,
              17.473859
            ],
            [
              78.493069,
              17.472953
            ],
            [
              78.493764,
              17.472669
            ],
            [
              78.495284,
              17.472631
            ],
            [
              78.500769,
              17.462092
            ],
            [
              78.515523,
              17.46694
            ],
            [
              78.525314,
              17.476872
            ],
            [
              78.512291,
              17.49016
            ],
            [
              78.516554,
              17.507524
            ],
            [
              78.526282,
              17.521505
            ],
            [
              78.524116,
              17.539117
            ],
            [
              78.50822,
              17.544928
            ],
            [
              78.506105,
              17.536796
            ],
            [
              78.491612,
              17.528662
            ],
            [
              78.482119,
              17.52037
            ]
          ]
        ]
      }
    }
  ]
}