{
  "type": "FeatureCollection",
  "features": [
    {
      "type": "Feature",
      "properties": {},
      "geometry": {
        "type": "Polygon",
        "coordinates": [
          [
            [
              78.460531,
              17.409306
            ],
            [
              78.458309,
              17.409281
            ],
            [
              78.456274,
              17.411899
            ],
            [
              78.455418,
              17.411736
            ],
            [
              78.453897,
              17.411797
            ],
            [
              78.45407,
              17.409836
            ],
            [
              78.451311,
              17.407417
            ],
            [
              78.451746,
              17.404508
            ],
            [
              78.454313,
              17.404685
            ],
            [
              78.454948,
              17.406225
            ],
            [
              78.458441,
              17.405922
            ],
            [
              78.460664,
              17.406225
            ],
            [
              78.460531,
              17.409306
            ]
          ]
        ]
      }
    }
  ]
}