{
  "type": "FeatureCollection",
  "features": [
    {
      "type": "Feature",
      "properties": {},
      "geometry": {
        "type": "Polygon",
        "coordinates": [
          [
            [
              78.411256,
              17.435376
            ],
            [
              78.411409,
              17.435334
            ],
            [
              78.412261,
              17.434959
            ],
            [
              78.420412,
              17.431206
            ],
            [
              78.416282,
              17.426431
            ],
            [
              78.421003,
              17.425117
            ],
            [
              78.42286,
              17.424658
            ],
            [
              78.423538,
              17.42641
            ],
            [
              78.424783,
              17.429538
            ],
            [
              78.426335,
              17.433166
            ],
            [
              78.427581,
              17.437336
            ],
            [
              78.425952,
              17.438293
            ],
            [
              78.424757,
              17.438578
            ],
            [
              78.423559,
              17.438774
            ],
            [
              78.422052,
              17.436793
            ],
            [
              78.418314,
              17.437794
            ],
            [
              78.414228,
              17.438941
            ],
            [
              78.413222,
              17.437544
            ],
            [
              78.411256,
              17.435376
            ]
          ]
        ]
      }
    }
  ]
}