{
  "type": "FeatureCollection",
  "features": [
    {
      "type": "Feature",
      "properties": {},
      "geometry": {
        "type": "Polygon",
        "coordinates": [
          [
            [
              78.373662,
              17.334545
            ],
            [
              78.373663,
              17.334545
            ],
            [
              78.373666,
              17.334546
            ],
            [
              78.374082,
              17.334691
            ],
            [
              78.374365,
              17.334691
            ],
            [
              78.374369,
              17.334691
            ],
            [
              78.37437,
              17.334691
            ],
            [
              78.374372,
              17.334692
            ],
            [
              78.374376,
              17.334693
            ],
            [
              78.374379,
              17.334694
            ],
            [
              78.374382,
              17.334695
            ],
            [
              78.374385,
              17.334697
            ],
            [
              78.374388,
              17.334699
            ],
            [
              78.374391,
              17.334702
            ],
            [
              78.374415,
              17.334727
            ],
            [
              78.377877,
              17.334727
            ],
            [
              78.381714,
              17.334785
            ],
            [
              78.385532,
              17.334317
            ],
            [
              78.385534,
              17.334317
            ],
            [
              78.385535,
              17.334317
            ],
            [
              78.389864,
              17.334156
            ],
            [
              78.389888,
              17.334129
            ],
            [
              78.389891,
              17.334127
            ],
            [
              78.389894,
              17.334125
            ],
            [
              78.389897,
              17.334123
            ],
            [
              78.3899,
              17.334121
            ],
            [
              78.389903,
              17.33412
            ],
            [
              78.389906,
              17.334119
            ],
            [
              78.389907,
              17.334119
            ],
            [
              78.389908,
              17.334119
            ],
            [
              78.38991,
              17.334118
            ],
            [
              78.389913,
              17.334118
            ],
            [
              78.390034,
              17.334114
            ],
            [
              78.390063,
              17.334112
            ],
            [
              78.390064,
              17.334112
            ],
            [
              78.390067,
              17.334112
            ],
            [
              78.390071,
              17.334113
            ],
            [
              78.390075,
              17.334114
            ],
            [
              78.390103,
              17.334122
            ],
            [
              78.390226,
              17.33415
            ],
            [
              78.390241,
              17.33416
            ],
            [
              78.390257,
              17.334165
            ],
            [
              78.390261,
              17.334166
            ],
            [
              78.390264,
              17.334168
            ],
            [
              78.390267,
              17.33417
            ],
            [
              78.39027,
              17.334172
            ],
            [
              78.390273,
              17.334174
            ],
            [
              78.390276,
              17.334177
            ],
            [
              78.390278,
              17.33418
            ],
            [
              78.39028,
              17.334183
            ],
            [
              78.390281,
              17.334187
            ],
            [
              78.390282,
              17.33419
            ],
            [
              78.392341,
              17.341745
            ],
            [
              78.39625,
              17.33924
            ],
            [
              78.39625,
              17.339239
            ],
            [
              78.396253,
              17.339238
            ],
            [
              78.396256,
              17.339236
            ],
            [
              78.396259,
              17.339235
            ],
            [
              78.396263,
              17.339234
            ],
            [
              78.396266,
              17.339234
            ],
            [
              78.39627,
              17.339234
            ],
            [
              78.396273,
              17.339234
            ],
            [
              78.396277,
              17.339235
            ],
            [
              78.396312,
              17.339243
            ],
            [
              78.397449,
              17.338533
            ],
            [
              78.397452,
              17.338531
            ],
            [
              78.397455,
              17.33853
            ],
            [
              78.397459,
              17.338529
            ],
            [
              78.397462,
              17.338528
            ],
            [
              78.397463,
              17.338528
            ],
            [
              78.397465,
              17.338527
            ],
            [
              78.397469,
              17.338527
            ],
            [
              78.397757,
              17.338528
            ],
            [
              78.397779,
              17.338504
            ],
            [
              78.397781,
              17.338502
            ],
            [
              78.397784,
              17.3385
            ],
            [
              78.397787,
              17.338498
            ],
            [
              78.397789,
              17.338497
            ],
            [
              78.397793,
              17.338495
            ],
            [
              78.397796,
              17.338494
            ],
            [
              78.397799,
              17.338494
            ],
            [
              78.397802,
              17.338493
            ],
            [
              78.397805,
              17.338493
            ],
            [
              78.413431,
              17.338785
            ],
            [
              78.406265,
              17.315608
            ],
            [
              78.376825,
              17.313232
            ],
            [
              78.375789,
              17.323473
            ],
            [
              78.370039,
              17.333321
            ],
            [
              78.373607,
              17.334563
            ],
            [
              78.373639,
              17.334548
            ],
            [
              78.373642,
              17.334546
            ],
            [
              78.373646,
              17.334545
            ],
            [
              78.373649,
              17.334544
            ],
            [
              78.373652,
              17.334544
            ],
            [
              78.373656,
              17.334544
            ],
            [
              78.37366,
              17.334544
            ],
            [
              78.373662,
              17.334545
            ]
          ]
        ]
      }
    }
  ]
}