{
  "type": "FeatureCollection",
  "features": [
    {
      "type": "Feature",
      "properties": {},
      "geometry": {
        "type": "Polygon",
        "coordinates": [
          [
            [
              78.367062,
              17.464193
            ],
            [
              78.369965,
              17.464789
            ],
            [
              78.378791,
              17.469404
            ],
            [
              78.379246,
              17.476789
            ],
            [
              78.371673,
              17.481513
            ],
            [
              78.368147,
              17.486354
            ],
            [
              78.361486,
              17.486802
            ],
            [
              78.358508,
              17.48598
            ],
            [
              78.353969,
              17.483088
            ],
            [
              78.35028,
              17.482093
            ],
            [
              78.34981,
              17.479477
            ],
            [
              78.349189,
              17.467233
            ],
            [
              78.359264,
              17.466472
            ],
            [
              78.367062,
              17.464193
            ]
          ]
        ]
      }
    }
  ]
}