{
  "type": "FeatureCollection",
  "features": [
    {
      "type": "Feature",
      "properties": {},
      "geometry": {
        "type": "Polygon",
        "coordinates": [
          [
            [
              78.300022,
              17.509372
            ],
            [
              78.302202,
              17.508238
            ],
            [
              78.311687,
              17.528035
            ],
            [
              78.318352,
              17.537719
            ],
            [
              78.323342,
              17.538097
            ],
            [
              78.331125,
              17.540454
            ],
            [
              78.332753,
              17.559725
            ],
            [
              78.328217,
              17.558752
            ],
            [
              78.318946,
              17.556559
            ],
            [
              78.305667,
              17.554227
            ],
            [
              78.296504,
              17.551409
            ],
            [
              78.287571,
              17.547388
            ],
            [
              78.283396,
              17.540727
            ],
            [
              78.287466,
              17.532785
            ],
            [
              78.289471,
              17.528843
            ],
            [
              78.28897,
              17.520243
            ],
            [
              78.288908,
              17.513853
            ],
            [
              78.300022,
              17.509372
            ]
          ]
        ]
      }
    }
  ]
}