{
  "type": "FeatureCollection",
  "features": [
    {
      "type": "Feature",
      "properties": {},
      "geometry": {
        "type": "Polygon",
        "coordinates": [
          [
            [
              78.434011,
              17.540395
            ],
            [
              78.435438,
              17.534842
            ],
            [
              78.437765,
              17.529857
            ],
            [
              78.44392,
              17.5227
            ],
            [
              78.446296,
              17.518599
            ],
            [
              78.44696,
              17.517413
            ],
            [
              78.44751,
              17.514117
            ],
            [
              78.447925,
              17.511548
            ],
            [
              78.454092,
              17.508645
            ],
            [
              78.467228,
              17.50643
            ],
            [
              78.465226,
              17.513536
            ],
            [
              78.466052,
              17.51897
            ],
            [
              78.466728,
              17.519699
            ],
            [
              78.467929,
              17.52167
            ],
            [
              78.462823,
              17.528125
            ],
            [
              78.458978,
              17.536068
            ],
            [
              78.452182,
              17.532471
            ],
            [
              78.44269,
              17.541136
            ],
            [
              78.434011,
              17.540395
            ]
          ]
        ]
      }
    }
  ]
}