{
  "type": "FeatureCollection",
  "features": [
    {
      "type": "Feature",
      "properties": {},
      "geometry": {
        "type": "Polygon",
        "coordinates": [
          [
            [
              78.434661,
              17.456142
            ],
            [
              78.441621,
              17.442197
            ],
            [
              78.44123,
              17.442122
            ],
            [
              78.432627,
              17.443838
            ],
            [
              78.427876,
              17.445259
            ],
            [
              78.424328,
              17.444694
            ],
            [
              78.42452,
              17.442086
            ],
            [
              78.424105,
              17.439628
            ],
            [
              78.42792,
              17.437778
            ],
            [
              78.43074,
              17.436736
            ],
            [
              78.432178,
              17.436694
            ],
            [
              78.433252,
              17.437346
            ],
            [
              78.439118,
              17.430556
            ],
            [
              78.444671,
              17.424064
            ],
            [
              78.449677,
              17.417795
            ],
            [
              78.456403,
              17.418094
            ],
            [
              78.452336,
              17.427496
            ],
            [
              78.455502,
              17.429685
            ],
            [
              78.455884,
              17.433118
            ],
            [
              78.455465,
              17.435705
            ],
            [
              78.457107,
              17.440779
            ],
            [
              78.454214,
              17.442495
            ],
            [
              78.451632,
              17.448987
            ],
            [
              78.449912,
              17.45503
            ],
            [
              78.444466,
              17.456111
            ],
            [
              78.434661,
              17.456142
            ]
          ]
        ]
      }
    }
  ]
}