{
  "type": "FeatureCollection",
  "features": [
    {
      "type": "Feature",
      "properties": {},
      "geometry": {
        "type": "Polygon",
        "coordinates": [
          [
            [
              78.456141,
              17.433613
            ],
            [
              78.456098,
              17.431663
            ],
            [
              78.455823,
              17.429703
            ],
            [
              78.452617,
              17.427224
            ],
            [
              78.454193,
              17.424295
            ],
            [
              78.457245,
              17.417267
            ],
            [
              78.449169,
              17.417267
            ],
            [
              78.441955,
              17.426921
            ],
            [
              78.43896,
              17.429821
            ],
            [
              78.436122,
              17.433746
            ],
            [
              78.43311,
              17.436614
            ],
            [
              78.431045,
              17.436127
            ],
            [
              78.428868,
              17.437129
            ],
            [
              78.424141,
              17.439478
            ],
            [
              78.42293,
              17.438769
            ],
            [
              78.419941,
              17.438392
            ],
            [
              78.417973,
              17.438869
            ],
            [
              78.415544,
              17.434365
            ],
            [
              78.420178,
              17.430842
            ],
            [
              78.425247,
              17.430496
            ],
            [
              78.42322,
              17.4249
            ],
            [
              78.42713,
              17.423104
            ],
            [
              78.427782,
              17.417645
            ],
            [
              78.42532,
              17.414329
            ],
            [
              78.436616,
              17.41115
            ],
            [
              78.439604,
              17.408865
            ],
            [
              78.461229,
              17.408203
            ],
            [
              78.464488,
              17.405093
            ],
            [
              78.471324,
              17.408658
            ],
            [
              78.47045,
              17.413816
            ],
            [
              78.465998,
              17.41685
            ],
            [
              78.463852,
              17.423753
            ],
            [
              78.463693,
              17.431337
            ],
            [
              78.456141,
              17.433613
            ]
          ]
        ]
      }
    }
  ]
}