{
  "type": "FeatureCollection",
  "features": [
    {
      "type": "Feature",
      "properties": {},
      "geometry": {
        "type": "Polygon",
        "coordinates": [
          [
            [
              78.467585,
              17.590045
            ],
            [
              78.46512,
              17.587748
            ],
            [
              78.468493,
              17.564395
            ],
            [
              78.474196,
              17.555742
            ],
            [
              78.486485,
              17.555512
            ],
            [
              78.492107,
              17.557197
            ],
            [
              78.491681,
              17.558881
            ],
            [
              78.482444,
              17.578254
            ],
            [
              78.478187,
              17.588744
            ],
            [
              78.467585,
              17.590045
            ]
          ]
        ]
      }
    }
  ]
}