{
  "type": "FeatureCollection",
  "features": [
    {
      "type": "Feature",
      "properties": {},
      "geometry": {
        "type": "Polygon",
        "coordinates": [
          [
            [
              78.450027,
              17.455333
            ],
            [
              78.451397,
              17.451479
            ],
            [
              78.453752,
              17.450417
            ],
            [
              78.456193,
              17.459649
            ],
            [
              78.460218,
              17.458178
            ],
            [
              78.462359,
              17.4621
            ],
            [
              78.464072,
              17.467984
            ],
            [
              78.462316,
              17.472068
            ],
            [
              78.459019,
              17.473171
            ],
            [
              78.452981,
              17.471578
            ],
            [
              78.453153,
              17.466677
            ],
            [
              78.448956,
              17.465451
            ],
            [
              78.446256,
              17.460775
            ],
            [
              78.44614,
              17.45599
            ],
            [
              78.450027,
              17.455333
            ]
          ]
        ]
      }
    }
  ]
}