{
  "type": "FeatureCollection",
  "features": [
    {
      "type": "Feature",
      "properties": {},
      "geometry": {
        "type": "Polygon",
        "coordinates": [
          [
            [
              78.43371,
              17.456317
            ],
            [
              78.43125,
              17.460808
            ],
            [
              78.426211,
              17.461538
            ],
            [
              78.422304,
              17.460188
            ],
            [
              78.415486,
              17.458685
            ],
            [
              78.408624,
              17.458328
            ],
            [
              78.397802,
              17.460607
            ],
            [
              78.397662,
              17.454909
            ],
            [
              78.396608,
              17.450954
            ],
            [
              78.396327,
              17.443111
            ],
            [
              78.400754,
              17.437614
            ],
            [
              78.408554,
              17.444653
            ],
            [
              78.412699,
              17.440765
            ],
            [
              78.417939,
              17.439137
            ],
            [
              78.421214,
              17.438721
            ],
            [
              78.423382,
              17.439235
            ],
            [
              78.423996,
              17.439785
            ],
            [
              78.424258,
              17.441438
            ],
            [
              78.423982,
              17.444902
            ],
            [
              78.427847,
              17.445706
            ],
            [
              78.434101,
              17.444701
            ],
            [
              78.440566,
              17.442958
            ],
            [
              78.43371,
              17.456317
            ]
          ]
        ]
      }
    }
  ]
}