{
  "type": "FeatureCollection",
  "features": [
    {
      "type": "Feature",
      "properties": {},
      "geometry": {
        "type": "Polygon",
        "coordinates": [
          [
            [
              78.434884,
              17.494012
            ],
            [
              78.433477,
              17.490804
            ],
            [
              78.43234,
              17.487313
            ],
            [
              78.449099,
              17.482604
            ],
            [
              78.450525,
              17.488358
            ],
            [
              78.451643,
              17.496604
            ],
            [
              78.435998,
              17.496585
            ],
            [
              78.434884,
              17.494012
            ]
          ]
        ]
      }
    }
  ]
}