{
  "type": "FeatureCollection",
  "features": [
    {
      "type": "Feature",
      "properties": {},
      "geometry": {
        "type": "Polygon",
        "coordinates": [
          [
            [
              78.394866,
              17.496047
            ],
            [
              78.389085,
              17.498848
            ],
            [
              78.389325,
              17.500026
            ],
            [
              78.388767,
              17.501986
            ],
            [
              78.388097,
              17.503541
            ],
            [
              78.387152,
              17.50473
            ],
            [
              78.386609,
              17.505684
            ],
            [
              78.386036,
              17.506102
            ],
            [
              78.383158,
              17.506299
            ],
            [
              78.380188,
              17.506537
            ],
            [
              78.376481,
              17.506862
            ],
            [
              78.376312,
              17.500643
            ],
            [
              78.377428,
              17.497926
            ],
            [
              78.37262,
              17.495455
            ],
            [
              78.368553,
              17.486975
            ],
            [
              78.371241,
              17.481717
            ],
            [
              78.380546,
              17.475866
            ],
            [
              78.387782,
              17.470738
            ],
            [
              78.391849,
              17.469752
            ],
            [
              78.395157,
              17.477181
            ],
            [
              78.394192,
              17.482177
            ],
            [
              78.40005,
              17.485003
            ],
            [
              78.402876,
              17.493023
            ],
            [
              78.394866,
              17.496047
            ]
          ]
        ]
      }
    }
  ]
}