{
  "type": "FeatureCollection",
  "features": [
    {
      "type": "Feature",
      "properties": {},
      "geometry": {
        "type": "Polygon",
        "coordinates": [
          [
            [
              78.429014,
              17.500906
            ],
            [
              78.429119,
              17.503687
            ],
            [
              78.429695,
              17.503942
            ],
            [
              78.430476,
              17.504746
            ],
            [
              78.429136,
              17.506144
            ],
            [
              78.424132,
              17.51144
            ],
            [
              78.417753,
              17.513748
            ],
            [
              78.414563,
              17.51679
            ],
            [
              78.403785,
              17.514115
            ],
            [
              78.400437,
              17.506757
            ],
            [
              78.396343,
              17.508399
            ],
            [
              78.396066,
              17.505369
            ],
            [
              78.395287,
              17.502844
            ],
            [
              78.394888,
              17.501385
            ],
            [
              78.394554,
              17.499886
            ],
            [
              78.394172,
              17.498439
            ],
            [
              78.393626,
              17.496982
            ],
            [
              78.401112,
              17.494469
            ],
            [
              78.406919,
              17.497071
            ],
            [
              78.412034,
              17.498854
            ],
            [
              78.414323,
              17.499602
            ],
            [
              78.414725,
              17.499068
            ],
            [
              78.41548,
              17.498768
            ],
            [
              78.417242,
              17.497642
            ],
            [
              78.420255,
              17.497202
            ],
            [
              78.420995,
              17.49687
            ],
            [
              78.421452,
              17.49776
            ],
            [
              78.424152,
              17.499279
            ],
            [
              78.424683,
              17.500038
            ],
            [
              78.425509,
              17.501209
            ],
            [
              78.425809,
              17.50156
            ],
            [
              78.429014,
              17.500906
            ]
          ]
        ]
      }
    }
  ]
}