{
  "type": "FeatureCollection",
  "features": [
    {
      "type": "Feature",
      "properties": {},
      "geometry": {
        "type": "Polygon",
        "coordinates": [
          [
            [
              78.436648,
              17.523822
            ],
            [
              78.430901,
              17.524302
            ],
            [
              78.429691,
              17.522246
            ],
            [
              78.430813,
              17.521298
            ],
            [
              78.432143,
              17.520612
            ],
            [
              78.434848,
              17.519346
            ],
            [
              78.436754,
              17.517585
            ],
            [
              78.43758,
              17.51693
            ],
            [
              78.435291,
              17.513528
            ],
            [
              78.443785,
              17.512366
            ],
            [
              78.447577,
              17.51133
            ],
            [
              78.447367,
              17.513637
            ],
            [
              78.446561,
              17.517694
            ],
            [
              78.444895,
              17.520357
            ],
            [
              78.440267,
              17.526576
            ],
            [
              78.437953,
              17.525824
            ],
            [
              78.436648,
              17.523822
            ]
          ]
        ]
      }
    }
  ]
}