{
  "type": "FeatureCollection",
  "features": [
    {
      "type": "Feature",
      "properties": {},
      "geometry": {
        "type": "Polygon",
        "coordinates": [
          [
            [
              78.40132,
              17.494314
            ],
            [
              78.407079,
              17.491552
            ],
            [
              78.404817,
              17.486886
            ],
            [
              78.404633,
              17.483677
            ],
            [
              78.407997,
              17.480119
            ],
            [
              78.413073,
              17.480469
            ],
            [
              78.415336,
              17.482336
            ],
            [
              78.422177,
              17.477139
            ],
            [
              78.426562,
              17.477241
            ],
            [
              78.426776,
              17.482877
            ],
            [
              78.426589,
              17.485252
            ],
            [
              78.425196,
              17.486713
            ],
            [
              78.424081,
              17.488286
            ],
            [
              78.423801,
              17.489471
            ],
            [
              78.424586,
              17.490711
            ],
            [
              78.423883,
              17.494056
            ],
            [
              78.420275,
              17.497089
            ],
            [
              78.416667,
              17.497672
            ],
            [
              78.415305,
              17.498722
            ],
            [
              78.413978,
              17.499352
            ],
            [
              78.409887,
              17.497952
            ],
            [
              78.406072,
              17.496476
            ],
            [
              78.40132,
              17.494314
            ]
          ]
        ]
      }
    }
  ]
}