{
  "type": "FeatureCollection",
  "features": [
    {
      "type": "Feature",
      "properties": {},
      "geometry": {
        "type": "Polygon",
        "coordinates": [
          [
            [
              78.454215,
              17.507683
            ],
            [
              78.452374,
              17.499119
            ],
            [
              78.450911,
              17.48877
            ],
            [
              78.455078,
              17.487323
            ],
            [
              78.46535,
              17.486678
            ],
            [
              78.469743,
              17.495573
            ],
            [
              78.470914,
              17.500854
            ],
            [
              78.465711,
              17.505773
            ],
            [
              78.454215,
              17.507683
            ]
          ]
        ]
      }
    }
  ]
}