{
  "type": "FeatureCollection",
  "features": [
    {
      "type": "Feature",
      "properties": {},
      "geometry": {
        "type": "Polygon",
        "coordinates": [
          [
            [
              78.499273,
              17.417834
            ],
            [
              78.498088,
              17.415887
            ],
            [
              78.497369,
              17.413953
            ],
            [
              78.497523,
              17.411332
            ],
            [
              78.497343,
              17.408786
            ],
            [
              78.49665,
              17.406704
            ],
            [
              78.497857,
              17.406312
            ],
            [
              78.502399,
              17.404476
            ],
            [
              78.508956,
              17.401637
            ],
            [
              78.510111,
              17.402984
            ],
            [
              78.511856,
              17.404576
            ],
            [
              78.51414,
              17.405727
            ],
            [
              78.517938,
              17.409474
            ],
            [
              78.517784,
              17.410625
            ],
            [
              78.514294,
              17.411482
            ],
            [
              78.513165,
              17.412706
            ],
            [
              78.512292,
              17.414323
            ],
            [
              78.51124,
              17.415278
            ],
            [
              78.508237,
              17.416233
            ],
            [
              78.506543,
              17.415939
            ],
            [
              78.505286,
              17.416184
            ],
            [
              78.502353,
              17.417589
            ],
            [
              78.499941,
              17.417614
            ],
            [
              78.499273,
              17.417834
            ]
          ]
        ]
      }
    }
  ]
}