{
  "type": "FeatureCollection",
  "features": [
    {
      "type": "Feature",
      "properties": {},
      "geometry": {
        "type": "Polygon",
        "coordinates": [
          [
            [
              78.4842,
              17.381127
            ],
            [
              78.484831,
              17.380484
            ],
            [
              78.489755,
              17.380244
            ],
            [
              78.49573,
              17.381448
            ],
            [
              78.501747,
              17.386026
            ],
            [
              78.507007,
              17.385825
            ],
            [
              78.511847,
              17.385062
            ],
            [
              78.51799,
              17.379481
            ],
            [
              78.518495,
              17.381127
            ],
            [
              78.516896,
              17.386026
            ],
            [
              78.516391,
              17.391969
            ],
            [
              78.514455,
              17.391728
            ],
            [
              78.505661,
              17.390203
            ],
            [
              78.505535,
              17.390765
            ],
            [
              78.504356,
              17.392331
            ],
            [
              78.502715,
              17.3947
            ],
            [
              78.500569,
              17.39458
            ],
            [
              78.497918,
              17.394901
            ],
            [
              78.495099,
              17.397069
            ],
            [
              78.493163,
              17.398394
            ],
            [
              78.490218,
              17.395583
            ],
            [
              78.486052,
              17.387311
            ],
            [
              78.480918,
              17.381689
            ],
            [
              78.4842,
              17.381127
            ]
          ]
        ]
      }
    }
  ]
}