{
  "type": "FeatureCollection",
  "features": [
    {
      "type": "Feature",
      "properties": {},
      "geometry": {
        "type": "Polygon",
        "coordinates": [
          [
            [
              78.376841,
              17.446253
            ],
            [
              78.38302,
              17.452871
            ],
            [
              78.392986,
              17.452073
            ],
            [
              78.396194,
              17.451873
            ],
            [
              78.397169,
              17.454132
            ],
            [
              78.397518,
              17.459048
            ],
            [
              78.385046,
              17.463026
            ],
            [
              78.384523,
              17.473246
            ],
            [
              78.385929,
              17.477515
            ],
            [
              78.386907,
              17.489746
            ],
            [
              78.389235,
              17.492786
            ],
            [
              78.3907,
              17.497988
            ],
            [
              78.389659,
              17.499391
            ],
            [
              78.386311,
              17.506062
            ],
            [
              78.380775,
              17.506528
            ],
            [
              78.375439,
              17.506958
            ],
            [
              78.372962,
              17.50723
            ],
            [
              78.367482,
              17.497184
            ],
            [
              78.363804,
              17.483436
            ],
            [
              78.362143,
              17.483588
            ],
            [
              78.360565,
              17.484068
            ],
            [
              78.359512,
              17.485191
            ],
            [
              78.356534,
              17.487286
            ],
            [
              78.353935,
              17.489575
            ],
            [
              78.35345,
              17.490814
            ],
            [
              78.352965,
              17.491942
            ],
            [
              78.351085,
              17.493826
            ],
            [
              78.348541,
              17.494194
            ],
            [
              78.345321,
              17.494767
            ],
            [
              78.344086,
              17.489444
            ],
            [
              78.343842,
              17.485324
            ],
            [
              78.346289,
              17.483579
            ],
            [
              78.349767,
              17.482969
            ],
            [
              78.360725,
              17.482678
            ],
            [
              78.360967,
              17.481364
            ],
            [
              78.361495,
              17.479207
            ],
            [
              78.363131,
              17.476636
            ],
            [
              78.36339,
              17.47563
            ],
            [
              78.363859,
              17.474489
            ],
            [
              78.364653,
              17.47256
            ],
            [
              78.365253,
              17.471082
            ],
            [
              78.36601,
              17.469522
            ],
            [
              78.367524,
              17.466749
            ],
            [
              78.36704,
              17.460992
            ],
            [
              78.366116,
              17.458559
            ],
            [
              78.364609,
              17.456226
            ],
            [
              78.376841,
              17.446253
            ]
          ]
        ]
      }
    }
  ]
}