{
  "type": "FeatureCollection",
  "features": [
    {
      "type": "Feature",
      "properties": {},
      "geometry": {
        "type": "Polygon",
        "coordinates": [
          [
            [
              78.28772,
              17.474335
            ],
            [
              78.290157,
              17.474984
            ],
            [
              78.296007,
              17.477453
            ],
            [
              78.304302,
              17.480984
            ],
            [
              78.310356,
              17.481717
            ],
            [
              78.31069,
              17.482474
            ],
            [
              78.313621,
              17.489395
            ],
            [
              78.3147,
              17.492858
            ],
            [
              78.315748,
              17.495993
            ],
            [
              78.317361,
              17.497227
            ],
            [
              78.317783,
              17.502028
            ],
            [
              78.318234,
              17.505923
            ],
            [
              78.318292,
              17.509941
            ],
            [
              78.318135,
              17.511958
            ],
            [
              78.319037,
              17.514689
            ],
            [
              78.325297,
              17.51588
            ],
            [
              78.331911,
              17.513285
            ],
            [
              78.328488,
              17.51919
            ],
            [
              78.337253,
              17.530382
            ],
            [
              78.338393,
              17.538862
            ],
            [
              78.327179,
              17.53896
            ],
            [
              78.30999,
              17.545337
            ],
            [
              78.29728,
              17.551985
            ],
            [
              78.281841,
              17.550266
            ],
            [
              78.280672,
              17.541733
            ],
            [
              78.277637,
              17.532668
            ],
            [
              78.2739,
              17.523595
            ],
            [
              78.281674,
              17.510403
            ],
            [
              78.281067,
              17.47721
            ],
            [
              78.28772,
              17.474335
            ]
          ]
        ]
      }
    }
  ]
}