{
  "type": "FeatureCollection",
  "features": [
    {
      "type": "Feature",
      "properties": {},
      "geometry": {
        "type": "Polygon",
        "coordinates": [
          [
            [
              78.323006,
              17.486127
            ],
            [
              78.326177,
              17.487117
            ],
            [
              78.334846,
              17.488012
            ],
            [
              78.343988,
              17.489401
            ],
            [
              78.345181,
              17.495006
            ],
            [
              78.351335,
              17.494103
            ],
            [
              78.353156,
              17.492099
            ],
            [
              78.354423,
              17.489572
            ],
            [
              78.359676,
              17.485232
            ],
            [
              78.360548,
              17.484163
            ],
            [
              78.363374,
              17.483572
            ],
            [
              78.364059,
              17.48667
            ],
            [
              78.367388,
              17.497218
            ],
            [
              78.367335,
              17.499917
            ],
            [
              78.365971,
              17.502085
            ],
            [
              78.372062,
              17.50581
            ],
            [
              78.372931,
              17.507436
            ],
            [
              78.386226,
              17.50634
            ],
            [
              78.392345,
              17.505667
            ],
            [
              78.389302,
              17.51182
            ],
            [
              78.389298,
              17.516958
            ],
            [
              78.381916,
              17.51878
            ],
            [
              78.375453,
              17.521407
            ],
            [
              78.360798,
              17.515263
            ],
            [
              78.36178,
              17.510776
            ],
            [
              78.362317,
              17.508484
            ],
            [
              78.362516,
              17.50601
            ],
            [
              78.361831,
              17.505549
            ],
            [
              78.360933,
              17.505299
            ],
            [
              78.359988,
              17.504862
            ],
            [
              78.359479,
              17.504693
            ],
            [
              78.358928,
              17.504659
            ],
            [
              78.357049,
              17.505163
            ],
            [
              78.356425,
              17.505346
            ],
            [
              78.355897,
              17.505623
            ],
            [
              78.35257,
              17.508556
            ],
            [
              78.330882,
              17.511081
            ],
            [
              78.325079,
              17.515634
            ],
            [
              78.322593,
              17.514951
            ],
            [
              78.318877,
              17.511603
            ],
            [
              78.318124,
              17.503053
            ],
            [
              78.317551,
              17.496985
            ],
            [
              78.316102,
              17.495451
            ],
            [
              78.31452,
              17.491624
            ],
            [
              78.313564,
              17.487277
            ],
            [
              78.311564,
              17.482794
            ],
            [
              78.317505,
              17.483768
            ],
            [
              78.323006,
              17.486127
            ]
          ]
        ]
      }
    }
  ]
}