{
  "type": "FeatureCollection",
  "features": [
    {
      "type": "Feature",
      "properties": {},
      "geometry": {
        "type": "Polygon",
        "coordinates": [
          [
            [
              78.339564,
              17.49517
            ],
            [
              78.339593,
              17.488636
            ],
            [
              78.342436,
              17.486839
            ],
            [
              78.345966,
              17.483529
            ],
            [
              78.348436,
              17.48276
            ],
            [
              78.354851,
              17.482815
            ],
            [
              78.354522,
              17.486125
            ],
            [
              78.360284,
              17.48408
            ],
            [
              78.359455,
              17.484949
            ],
            [
              78.357198,
              17.48643
            ],
            [
              78.353947,
              17.489827
            ],
            [
              78.356328,
              17.49204
            ],
            [
              78.354195,
              17.494351
            ],
            [
              78.350004,
              17.493858
            ],
            [
              78.345996,
              17.494942
            ],
            [
              78.342795,
              17.495199
            ],
            [
              78.339564,
              17.49517
            ]
          ]
        ]
      }
    }
  ]
}