{
  "type": "FeatureCollection",
  "features": [
    {
      "type": "Feature",
      "properties": {},
      "geometry": {
        "type": "Polygon",
        "coordinates": [
          [
            [
              78.402337,
              17.34144
            ],
            [
              78.402335,
              17.341441
            ],
            [
              78.402324,
              17.34145
            ],
            [
              78.402219,
              17.341549
            ],
            [
              78.402181,
              17.341596
            ],
            [
              78.40218,
              17.341598
            ],
            [
              78.400352,
              17.344165
            ],
            [
              78.399825,
              17.344909
            ],
            [
              78.400567,
              17.347454
            ],
            [
              78.401072,
              17.349161
            ],
            [
              78.401934,
              17.350325
            ],
            [
              78.401936,
              17.350327
            ],
            [
              78.401991,
              17.350356
            ],
            [
              78.40214,
              17.35044
            ],
            [
              78.406326,
              17.354074
            ],
            [
              78.406334,
              17.354094
            ],
            [
              78.406338,
              17.354097
            ],
            [
              78.406341,
              17.354099
            ],
            [
              78.406342,
              17.354101
            ],
            [
              78.406343,
              17.354102
            ],
            [
              78.406344,
              17.354103
            ],
            [
              78.406345,
              17.354105
            ],
            [
              78.406346,
              17.354106
            ],
            [
              78.406346,
              17.354108
            ],
            [
              78.406347,
              17.354109
            ],
            [
              78.406352,
              17.354136
            ],
            [
              78.40637,
              17.354176
            ],
            [
              78.406394,
              17.354265
            ],
            [
              78.406451,
              17.354363
            ],
            [
              78.406536,
              17.354439
            ],
            [
              78.407579,
              17.355373
            ],
            [
              78.408807,
              17.356961
            ],
            [
              78.408808,
              17.356962
            ],
            [
              78.409816,
              17.358165
            ],
            [
              78.409819,
              17.358168
            ],
            [
              78.40984,
              17.358183
            ],
            [
              78.409996,
              17.358307
            ],
            [
              78.410298,
              17.358735
            ],
            [
              78.410442,
              17.35893
            ],
            [
              78.410442,
              17.358932
            ],
            [
              78.410443,
              17.358933
            ],
            [
              78.410444,
              17.358935
            ],
            [
              78.410444,
              17.358937
            ],
            [
              78.410445,
              17.358939
            ],
            [
              78.410445,
              17.35894
            ],
            [
              78.410445,
              17.358942
            ],
            [
              78.410452,
              17.358952
            ],
            [
              78.410452,
              17.359145
            ],
            [
              78.410454,
              17.359199
            ],
            [
              78.410454,
              17.359201
            ],
            [
              78.410454,
              17.359203
            ],
            [
              78.410453,
              17.359205
            ],
            [
              78.410453,
              17.359206
            ],
            [
              78.410452,
              17.359208
            ],
            [
              78.410452,
              17.359233
            ],
            [
              78.409675,
              17.361246
            ],
            [
              78.408869,
              17.362716
            ],
            [
              78.408781,
              17.362877
            ],
            [
              78.408781,
              17.362882
            ],
            [
              78.408779,
              17.3629
            ],
            [
              78.408741,
              17.363467
            ],
            [
              78.40874,
              17.363479
            ],
            [
              78.40874,
              17.363481
            ],
            [
              78.408739,
              17.363483
            ],
            [
              78.408739,
              17.363484
            ],
            [
              78.408738,
              17.363486
            ],
            [
              78.408737,
              17.363487
            ],
            [
              78.408736,
              17.363489
            ],
            [
              78.408735,
              17.36349
            ],
            [
              78.408734,
              17.363492
            ],
            [
              78.408729,
              17.363496
            ],
            [
              78.408728,
              17.3635
            ],
            [
              78.407771,
              17.364339
            ],
            [
              78.407767,
              17.364343
            ],
            [
              78.407766,
              17.364344
            ],
            [
              78.406379,
              17.365625
            ],
            [
              78.406377,
              17.365627
            ],
            [
              78.405392,
              17.366668
            ],
            [
              78.4054,
              17.366695
            ],
            [
              78.406271,
              17.36832
            ],
            [
              78.407,
              17.369662
            ],
            [
              78.407203,
              17.37004
            ],
            [
              78.407628,
              17.371752
            ],
            [
              78.407634,
              17.37186
            ],
            [
              78.407643,
              17.372161
            ],
            [
              78.407662,
              17.372523
            ],
            [
              78.407685,
              17.372738
            ],
            [
              78.407693,
              17.372752
            ],
            [
              78.40772,
              17.372785
            ],
            [
              78.407758,
              17.372805
            ],
            [
              78.40786,
              17.37279
            ],
            [
              78.407885,
              17.372785
            ],
            [
              78.407888,
              17.372784
            ],
            [
              78.411137,
              17.371088
            ],
            [
              78.411407,
              17.371075
            ],
            [
              78.411412,
              17.371075
            ],
            [
              78.411415,
              17.371074
            ],
            [
              78.411644,
              17.371025
            ],
            [
              78.411742,
              17.370983
            ],
            [
              78.411793,
              17.370969
            ],
            [
              78.411794,
              17.370969
            ],
            [
              78.411795,
              17.370968
            ],
            [
              78.41182,
              17.370962
            ],
            [
              78.428426,
              17.372542
            ],
            [
              78.428446,
              17.372553
            ],
            [
              78.428454,
              17.372554
            ],
            [
              78.428458,
              17.372554
            ],
            [
              78.428459,
              17.372554
            ],
            [
              78.428461,
              17.372555
            ],
            [
              78.428463,
              17.372555
            ],
            [
              78.428464,
              17.372556
            ],
            [
              78.428466,
              17.372557
            ],
            [
              78.428501,
              17.37258
            ],
            [
              78.428563,
              17.372617
            ],
            [
              78.428647,
              17.372664
            ],
            [
              78.42866,
              17.372672
            ],
            [
              78.428663,
              17.372673
            ],
            [
              78.431573,
              17.373438
            ],
            [
              78.431636,
              17.373507
            ],
            [
              78.431668,
              17.373621
            ],
            [
              78.431664,
              17.373639
            ],
            [
              78.431664,
              17.373641
            ],
            [
              78.431665,
              17.373643
            ],
            [
              78.431665,
              17.373645
            ],
            [
              78.431665,
              17.373646
            ],
            [
              78.431665,
              17.373648
            ],
            [
              78.431645,
              17.37375
            ],
            [
              78.431644,
              17.373752
            ],
            [
              78.431644,
              17.373754
            ],
            [
              78.431643,
              17.373756
            ],
            [
              78.431642,
              17.373757
            ],
            [
              78.431641,
              17.373759
            ],
            [
              78.431638,
              17.373762
            ],
            [
              78.431634,
              17.373778
            ],
            [
              78.429698,
              17.376027
            ],
            [
              78.429269,
              17.376526
            ],
            [
              78.428933,
              17.37928
            ],
            [
              78.428952,
              17.379403
            ],
            [
              78.428954,
              17.379406
            ],
            [
              78.42901,
              17.379535
            ],
            [
              78.429036,
              17.379581
            ],
            [
              78.429037,
              17.379583
            ],
            [
              78.429037,
              17.379585
            ],
            [
              78.429038,
              17.379586
            ],
            [
              78.429038,
              17.379588
            ],
            [
              78.429038,
              17.37959
            ],
            [
              78.429038,
              17.379593
            ],
            [
              78.429038,
              17.379598
            ],
            [
              78.429048,
              17.379619
            ],
            [
              78.429058,
              17.380021
            ],
            [
              78.429012,
              17.380226
            ],
            [
              78.428994,
              17.3803
            ],
            [
              78.428994,
              17.380304
            ],
            [
              78.428975,
              17.381256
            ],
            [
              78.428975,
              17.381258
            ],
            [
              78.429094,
              17.385697
            ],
            [
              78.429115,
              17.386489
            ],
            [
              78.429115,
              17.386492
            ],
            [
              78.429166,
              17.386651
            ],
            [
              78.429349,
              17.386688
            ],
            [
              78.429353,
              17.386688
            ],
            [
              78.42947,
              17.386673
            ],
            [
              78.429654,
              17.386598
            ],
            [
              78.429659,
              17.386596
            ],
            [
              78.429667,
              17.386591
            ],
            [
              78.429822,
              17.38651
            ],
            [
              78.429895,
              17.386467
            ],
            [
              78.429896,
              17.386466
            ],
            [
              78.43031,
              17.386254
            ],
            [
              78.432457,
              17.385128
            ],
            [
              78.433301,
              17.384683
            ],
            [
              78.433507,
              17.384577
            ],
            [
              78.435752,
              17.3834
            ],
            [
              78.438387,
              17.383192
            ],
            [
              78.438453,
              17.383202
            ],
            [
              78.438456,
              17.383203
            ],
            [
              78.438476,
              17.383204
            ],
            [
              78.438478,
              17.383204
            ],
            [
              78.43848,
              17.383205
            ],
            [
              78.438481,
              17.383205
            ],
            [
              78.438483,
              17.383206
            ],
            [
              78.438485,
              17.383207
            ],
            [
              78.438486,
              17.383208
            ],
            [
              78.438487,
              17.383209
            ],
            [
              78.438489,
              17.383211
            ],
            [
              78.438782,
              17.383248
            ],
            [
              78.438786,
              17.383248
            ],
            [
              78.438787,
              17.383248
            ],
            [
              78.438789,
              17.383249
            ],
            [
              78.438791,
              17.383249
            ],
            [
              78.438792,
              17.38325
            ],
            [
              78.438794,
              17.383251
            ],
            [
              78.438795,
              17.383252
            ],
            [
              78.438796,
              17.383253
            ],
            [
              78.438797,
              17.383254
            ],
            [
              78.438799,
              17.383255
            ],
            [
              78.438799,
              17.383257
            ],
            [
              78.438804,
              17.383265
            ],
            [
              78.438821,
              17.383292
            ],
            [
              78.438832,
              17.383302
            ],
            [
              78.440018,
              17.385242
            ],
            [
              78.44002,
              17.385389
            ],
            [
              78.44001,
              17.385773
            ],
            [
              78.440041,
              17.387186
            ],
            [
              78.440041,
              17.387189
            ],
            [
              78.440066,
              17.387264
            ],
            [
              78.440111,
              17.387402
            ],
            [
              78.440183,
              17.388293
            ],
            [
              78.44017,
              17.388339
            ],
            [
              78.440172,
              17.388354
            ],
            [
              78.440172,
              17.388356
            ],
            [
              78.440172,
              17.388358
            ],
            [
              78.440172,
              17.388359
            ],
            [
              78.440171,
              17.388361
            ],
            [
              78.440171,
              17.388363
            ],
            [
              78.440148,
              17.388415
            ],
            [
              78.440127,
              17.388491
            ],
            [
              78.440126,
              17.388492
            ],
            [
              78.440145,
              17.388645
            ],
            [
              78.440148,
              17.388652
            ],
            [
              78.440152,
              17.388661
            ],
            [
              78.440236,
              17.388852
            ],
            [
              78.44028,
              17.389117
            ],
            [
              78.440296,
              17.389216
            ],
            [
              78.440526,
              17.389555
            ],
            [
              78.440537,
              17.389563
            ],
            [
              78.440838,
              17.389794
            ],
            [
              78.441179,
              17.390252
            ],
            [
              78.441537,
              17.390732
            ],
            [
              78.441589,
              17.390842
            ],
            [
              78.441617,
              17.391013
            ],
            [
              78.441624,
              17.39106
            ],
            [
              78.441657,
              17.391103
            ],
            [
              78.442238,
              17.391849
            ],
            [
              78.442269,
              17.391944
            ],
            [
              78.442407,
              17.393154
            ],
            [
              78.442397,
              17.393305
            ],
            [
              78.442396,
              17.393313
            ],
            [
              78.442548,
              17.3935
            ],
            [
              78.442578,
              17.393527
            ],
            [
              78.442634,
              17.393571
            ],
            [
              78.44271,
              17.393527
            ],
            [
              78.442727,
              17.393507
            ],
            [
              78.442754,
              17.393489
            ],
            [
              78.442765,
              17.393476
            ],
            [
              78.442766,
              17.393474
            ],
            [
              78.442768,
              17.393473
            ],
            [
              78.442769,
              17.393472
            ],
            [
              78.442771,
              17.393471
            ],
            [
              78.442813,
              17.393449
            ],
            [
              78.442884,
              17.393401
            ],
            [
              78.442885,
              17.3934
            ],
            [
              78.442887,
              17.393398
            ],
            [
              78.442977,
              17.393315
            ],
            [
              78.443007,
              17.393284
            ],
            [
              78.443026,
              17.393264
            ],
            [
              78.443027,
              17.393263
            ],
            [
              78.443028,
              17.393261
            ],
            [
              78.44303,
              17.393261
            ],
            [
              78.443031,
              17.39326
            ],
            [
              78.443033,
              17.393259
            ],
            [
              78.443041,
              17.393256
            ],
            [
              78.443058,
              17.39324
            ],
            [
              78.446228,
              17.392051
            ],
            [
              78.446407,
              17.392026
            ],
            [
              78.446541,
              17.392003
            ],
            [
              78.450055,
              17.390567
            ],
            [
              78.452679,
              17.389619
            ],
            [
              78.452682,
              17.389618
            ],
            [
              78.452821,
              17.389463
            ],
            [
              78.452822,
              17.389461
            ],
            [
              78.452822,
              17.389459
            ],
            [
              78.452823,
              17.389458
            ],
            [
              78.452824,
              17.389457
            ],
            [
              78.452825,
              17.389455
            ],
            [
              78.45285,
              17.38943
            ],
            [
              78.452989,
              17.389275
            ],
            [
              78.452991,
              17.389272
            ],
            [
              78.45306,
              17.38915
            ],
            [
              78.453058,
              17.389146
            ],
            [
              78.453011,
              17.389035
            ],
            [
              78.452904,
              17.388455
            ],
            [
              78.452908,
              17.388313
            ],
            [
              78.452944,
              17.388202
            ],
            [
              78.452952,
              17.388177
            ],
            [
              78.452803,
              17.387292
            ],
            [
              78.452809,
              17.387106
            ],
            [
              78.452809,
              17.387098
            ],
            [
              78.452706,
              17.386777
            ],
            [
              78.452705,
              17.386776
            ],
            [
              78.452569,
              17.386593
            ],
            [
              78.452531,
              17.386326
            ],
            [
              78.452559,
              17.386248
            ],
            [
              78.452596,
              17.386177
            ],
            [
              78.452618,
              17.38608
            ],
            [
              78.452608,
              17.385777
            ],
            [
              78.452604,
              17.385766
            ],
            [
              78.452536,
              17.385537
            ],
            [
              78.452535,
              17.385531
            ],
            [
              78.452535,
              17.385379
            ],
            [
              78.452397,
              17.384338
            ],
            [
              78.452274,
              17.384062
            ],
            [
              78.452241,
              17.384024
            ],
            [
              78.452203,
              17.383946
            ],
            [
              78.451758,
              17.380679
            ],
            [
              78.451558,
              17.378554
            ],
            [
              78.451662,
              17.378251
            ],
            [
              78.451663,
              17.378248
            ],
            [
              78.451651,
              17.378103
            ],
            [
              78.451611,
              17.377628
            ],
            [
              78.451624,
              17.37747
            ],
            [
              78.45163,
              17.377393
            ],
            [
              78.45157,
              17.376998
            ],
            [
              78.45157,
              17.376995
            ],
            [
              78.451509,
              17.376866
            ],
            [
              78.451501,
              17.376862
            ],
            [
              78.451391,
              17.376797
            ],
            [
              78.451235,
              17.376623
            ],
            [
              78.449908,
              17.373734
            ],
            [
              78.449836,
              17.37367
            ],
            [
              78.449831,
              17.373672
            ],
            [
              78.449818,
              17.373676
            ],
            [
              78.449817,
              17.373677
            ],
            [
              78.449816,
              17.373678
            ],
            [
              78.449814,
              17.373678
            ],
            [
              78.449813,
              17.373679
            ],
            [
              78.449664,
              17.373727
            ],
            [
              78.448557,
              17.374093
            ],
            [
              78.448554,
              17.374094
            ],
            [
              78.448425,
              17.374164
            ],
            [
              78.448422,
              17.374168
            ],
            [
              78.448304,
              17.374323
            ],
            [
              78.448076,
              17.374448
            ],
            [
              78.447795,
              17.374479
            ],
            [
              78.447786,
              17.37448
            ],
            [
              78.44766,
              17.374536
            ],
            [
              78.447348,
              17.374676
            ],
            [
              78.446957,
              17.374775
            ],
            [
              78.44685,
              17.374802
            ],
            [
              78.446844,
              17.374808
            ],
            [
              78.44674,
              17.374911
            ],
            [
              78.44658,
              17.374985
            ],
            [
              78.445831,
              17.375193
            ],
            [
              78.445596,
              17.375191
            ],
            [
              78.445587,
              17.375191
            ],
            [
              78.445097,
              17.375259
            ],
            [
              78.445095,
              17.375259
            ],
            [
              78.445002,
              17.375278
            ],
            [
              78.44394,
              17.375495
            ],
            [
              78.439715,
              17.375701
            ],
            [
              78.437992,
              17.375785
            ],
            [
              78.437989,
              17.375785
            ],
            [
              78.437865,
              17.375813
            ],
            [
              78.437864,
              17.375814
            ],
            [
              78.437805,
              17.375846
            ],
            [
              78.437739,
              17.375896
            ],
            [
              78.437737,
              17.375897
            ],
            [
              78.437736,
              17.375898
            ],
            [
              78.437734,
              17.375899
            ],
            [
              78.437732,
              17.375899
            ],
            [
              78.437731,
              17.3759
            ],
            [
              78.437729,
              17.3759
            ],
            [
              78.437696,
              17.375902
            ],
            [
              78.437693,
              17.375902
            ],
            [
              78.437691,
              17.375902
            ],
            [
              78.43769,
              17.375902
            ],
            [
              78.437688,
              17.375902
            ],
            [
              78.437686,
              17.375901
            ],
            [
              78.437685,
              17.3759
            ],
            [
              78.437683,
              17.3759
            ],
            [
              78.437642,
              17.375877
            ],
            [
              78.437577,
              17.375844
            ],
            [
              78.437505,
              17.375813
            ],
            [
              78.437503,
              17.375812
            ],
            [
              78.43746,
              17.375813
            ],
            [
              78.437239,
              17.375815
            ],
            [
              78.437167,
              17.375791
            ],
            [
              78.434584,
              17.374185
            ],
            [
              78.434551,
              17.374151
            ],
            [
              78.434186,
              17.373756
            ],
            [
              78.433357,
              17.37288
            ],
            [
              78.433098,
              17.372618
            ],
            [
              78.433078,
              17.372598
            ],
            [
              78.433073,
              17.372579
            ],
            [
              78.433071,
              17.372578
            ],
            [
              78.43307,
              17.372576
            ],
            [
              78.433069,
              17.372575
            ],
            [
              78.433068,
              17.372574
            ],
            [
              78.433067,
              17.372572
            ],
            [
              78.433067,
              17.37257
            ],
            [
              78.433021,
              17.372424
            ],
            [
              78.43302,
              17.372423
            ],
            [
              78.43302,
              17.372421
            ],
            [
              78.43302,
              17.372419
            ],
            [
              78.43302,
              17.372417
            ],
            [
              78.43302,
              17.372415
            ],
            [
              78.433021,
              17.372414
            ],
            [
              78.433021,
              17.372413
            ],
            [
              78.433018,
              17.372402
            ],
            [
              78.434923,
              17.366182
            ],
            [
              78.434923,
              17.366181
            ],
            [
              78.435093,
              17.365575
            ],
            [
              78.435114,
              17.365268
            ],
            [
              78.434913,
              17.365217
            ],
            [
              78.434122,
              17.365016
            ],
            [
              78.433285,
              17.364715
            ],
            [
              78.432399,
              17.364342
            ],
            [
              78.431959,
              17.364156
            ],
            [
              78.430691,
              17.363454
            ],
            [
              78.429505,
              17.362619
            ],
            [
              78.428406,
              17.361651
            ],
            [
              78.427507,
              17.360656
            ],
            [
              78.427321,
              17.360514
            ],
            [
              78.425697,
              17.359277
            ],
            [
              78.423655,
              17.357228
            ],
            [
              78.42247,
              17.356039
            ],
            [
              78.422469,
              17.356038
            ],
            [
              78.420237,
              17.354043
            ],
            [
              78.419312,
              17.353132
            ],
            [
              78.418476,
              17.352134
            ],
            [
              78.417741,
              17.35106
            ],
            [
              78.417107,
              17.349908
            ],
            [
              78.416594,
              17.348715
            ],
            [
              78.416371,
              17.34812
            ],
            [
              78.415709,
              17.346351
            ],
            [
              78.415325,
              17.344758
            ],
            [
              78.415267,
              17.344516
            ],
            [
              78.411569,
              17.344608
            ],
            [
              78.410185,
              17.344571
            ],
            [
              78.40881,
              17.344392
            ],
            [
              78.40746,
              17.344073
            ],
            [
              78.406147,
              17.343616
            ],
            [
              78.405353,
              17.343292
            ],
            [
              78.404233,
              17.342708
            ],
            [
              78.403171,
              17.34202
            ],
            [
              78.402547,
              17.341528
            ],
            [
              78.402385,
              17.3414
            ],
            [
              78.402341,
              17.341436
            ],
            [
              78.402341,
              17.341437
            ],
            [
              78.402339,
              17.341438
            ],
            [
              78.402338,
              17.341439
            ],
            [
              78.402337,
              17.34144
            ]
          ]
        ]
      }
    }
  ]
}