{
  "type": "FeatureCollection",
  "features": [
    {
      "type": "Feature",
      "properties": {},
      "geometry": {
        "type": "Polygon",
        "coordinates": [
          [
            [
              78.473691,
              17.385222
            ],
            [
              78.474605,
              17.38408
            ],
            [
              78.472594,
              17.381966
            ],
            [
              78.47259,
              17.381966
            ],
            [
              78.472104,
              17.382002
            ],
            [
              78.472008,
              17.381922
            ],
            [
              78.471993,
              17.381909
            ],
            [
              78.47199,
              17.381908
            ],
            [
              78.470826,
              17.381371
            ],
            [
              78.469818,
              17.380906
            ],
            [
              78.46861,
              17.380273
            ],
            [
              78.467459,
              17.379513
            ],
            [
              78.466411,
              17.378655
            ],
            [
              78.46591,
              17.378156
            ],
            [
              78.465794,
              17.378041
            ],
            [
              78.465752,
              17.378081
            ],
            [
              78.465746,
              17.378084
            ],
            [
              78.465744,
              17.378088
            ],
            [
              78.465717,
              17.378114
            ],
            [
              78.465714,
              17.378113
            ],
            [
              78.465715,
              17.378117
            ],
            [
              78.465702,
              17.378129
            ],
            [
              78.465698,
              17.378128
            ],
            [
              78.465699,
              17.378132
            ],
            [
              78.465685,
              17.378145
            ],
            [
              78.465683,
              17.378145
            ],
            [
              78.465683,
              17.378147
            ],
            [
              78.463242,
              17.380464
            ],
            [
              78.463239,
              17.380467
            ],
            [
              78.461857,
              17.382114
            ],
            [
              78.461855,
              17.382117
            ],
            [
              78.461852,
              17.382123
            ],
            [
              78.461774,
              17.382248
            ],
            [
              78.461684,
              17.382278
            ],
            [
              78.460554,
              17.382237
            ],
            [
              78.460509,
              17.382252
            ],
            [
              78.460213,
              17.382559
            ],
            [
              78.459135,
              17.383675
            ],
            [
              78.458859,
              17.383784
            ],
            [
              78.458853,
              17.383786
            ],
            [
              78.458752,
              17.383882
            ],
            [
              78.458544,
              17.384104
            ],
            [
              78.458541,
              17.384107
            ],
            [
              78.45846,
              17.384287
            ],
            [
              78.458318,
              17.384598
            ],
            [
              78.456588,
              17.386715
            ],
            [
              78.456586,
              17.386717
            ],
            [
              78.456229,
              17.387239
            ],
            [
              78.455407,
              17.388441
            ],
            [
              78.455237,
              17.388547
            ],
            [
              78.455233,
              17.388549
            ],
            [
              78.455079,
              17.388723
            ],
            [
              78.455033,
              17.388814
            ],
            [
              78.455012,
              17.388931
            ],
            [
              78.455165,
              17.389016
            ],
            [
              78.455166,
              17.389016
            ],
            [
              78.455282,
              17.389045
            ],
            [
              78.455387,
              17.389061
            ],
            [
              78.455388,
              17.389062
            ],
            [
              78.45539,
              17.389062
            ],
            [
              78.455392,
              17.389063
            ],
            [
              78.455433,
              17.389082
            ],
            [
              78.455477,
              17.389093
            ],
            [
              78.457728,
              17.390927
            ],
            [
              78.457731,
              17.390929
            ],
            [
              78.457815,
              17.39096
            ],
            [
              78.457977,
              17.391022
            ],
            [
              78.458439,
              17.391357
            ],
            [
              78.458448,
              17.391374
            ],
            [
              78.458449,
              17.391375
            ],
            [
              78.45845,
              17.391376
            ],
            [
              78.458451,
              17.391377
            ],
            [
              78.458452,
              17.391379
            ],
            [
              78.458453,
              17.39138
            ],
            [
              78.458464,
              17.391403
            ],
            [
              78.458616,
              17.391683
            ],
            [
              78.458639,
              17.391794
            ],
            [
              78.458565,
              17.391946
            ],
            [
              78.458411,
              17.392088
            ],
            [
              78.458403,
              17.392095
            ],
            [
              78.458396,
              17.392118
            ],
            [
              78.458265,
              17.392543
            ],
            [
              78.458245,
              17.392572
            ],
            [
              78.458185,
              17.392645
            ],
            [
              78.45809,
              17.392779
            ],
            [
              78.458019,
              17.392894
            ],
            [
              78.458018,
              17.392896
            ],
            [
              78.456095,
              17.396466
            ],
            [
              78.454515,
              17.400885
            ],
            [
              78.454514,
              17.400888
            ],
            [
              78.454499,
              17.401007
            ],
            [
              78.454499,
              17.401008
            ],
            [
              78.454508,
              17.401077
            ],
            [
              78.454532,
              17.401175
            ],
            [
              78.454534,
              17.401186
            ],
            [
              78.454535,
              17.401187
            ],
            [
              78.454535,
              17.401189
            ],
            [
              78.454535,
              17.401191
            ],
            [
              78.454535,
              17.401193
            ],
            [
              78.454534,
              17.401194
            ],
            [
              78.454534,
              17.401196
            ],
            [
              78.454533,
              17.401198
            ],
            [
              78.454525,
              17.401214
            ],
            [
              78.454527,
              17.401229
            ],
            [
              78.454467,
              17.401345
            ],
            [
              78.454454,
              17.401358
            ],
            [
              78.454343,
              17.401446
            ],
            [
              78.454278,
              17.401532
            ],
            [
              78.45426,
              17.401564
            ],
            [
              78.454153,
              17.401803
            ],
            [
              78.454127,
              17.401873
            ],
            [
              78.4541,
              17.401956
            ],
            [
              78.453995,
              17.402228
            ],
            [
              78.453835,
              17.402658
            ],
            [
              78.453769,
              17.402826
            ],
            [
              78.453758,
              17.402837
            ],
            [
              78.453757,
              17.402837
            ],
            [
              78.453721,
              17.402872
            ],
            [
              78.453697,
              17.402882
            ],
            [
              78.453581,
              17.40292
            ],
            [
              78.453536,
              17.40294
            ],
            [
              78.453443,
              17.402994
            ],
            [
              78.453444,
              17.402999
            ],
            [
              78.453474,
              17.403108
            ],
            [
              78.45348,
              17.403332
            ],
            [
              78.453484,
              17.403376
            ],
            [
              78.453484,
              17.403378
            ],
            [
              78.453484,
              17.40338
            ],
            [
              78.453483,
              17.403382
            ],
            [
              78.453483,
              17.403384
            ],
            [
              78.453482,
              17.403386
            ],
            [
              78.453482,
              17.403387
            ],
            [
              78.453482,
              17.403404
            ],
            [
              78.453315,
              17.403753
            ],
            [
              78.453135,
              17.403955
            ],
            [
              78.453121,
              17.403971
            ],
            [
              78.453084,
              17.404154
            ],
            [
              78.453076,
              17.404201
            ],
            [
              78.453075,
              17.404208
            ],
            [
              78.453074,
              17.40421
            ],
            [
              78.453074,
              17.404211
            ],
            [
              78.453073,
              17.404213
            ],
            [
              78.453072,
              17.404214
            ],
            [
              78.453069,
              17.404231
            ],
            [
              78.453268,
              17.404355
            ],
            [
              78.453271,
              17.404356
            ],
            [
              78.453389,
              17.404397
            ],
            [
              78.453692,
              17.404656
            ],
            [
              78.453765,
              17.404719
            ],
            [
              78.453825,
              17.404736
            ],
            [
              78.454059,
              17.404805
            ],
            [
              78.454248,
              17.404956
            ],
            [
              78.454253,
              17.40496
            ],
            [
              78.454408,
              17.405004
            ],
            [
              78.454412,
              17.405004
            ],
            [
              78.456601,
              17.404913
            ],
            [
              78.456965,
              17.404931
            ],
            [
              78.45701,
              17.404941
            ],
            [
              78.457131,
              17.404939
            ],
            [
              78.457134,
              17.404939
            ],
            [
              78.457309,
              17.404882
            ],
            [
              78.457336,
              17.40486
            ],
            [
              78.457423,
              17.404826
            ],
            [
              78.463793,
              17.404726
            ],
            [
              78.463796,
              17.404726
            ],
            [
              78.463827,
              17.404716
            ],
            [
              78.464042,
              17.404653
            ],
            [
              78.464119,
              17.404676
            ],
            [
              78.464138,
              17.404691
            ],
            [
              78.464226,
              17.404781
            ],
            [
              78.46437,
              17.40488
            ],
            [
              78.464566,
              17.405041
            ],
            [
              78.464798,
              17.404965
            ],
            [
              78.465223,
              17.404776
            ],
            [
              78.465318,
              17.404738
            ],
            [
              78.465333,
              17.404732
            ],
            [
              78.465334,
              17.404731
            ],
            [
              78.465336,
              17.404731
            ],
            [
              78.465338,
              17.40473
            ],
            [
              78.465368,
              17.404718
            ],
            [
              78.470163,
              17.404539
            ],
            [
              78.470168,
              17.404539
            ],
            [
              78.470306,
              17.404515
            ],
            [
              78.470487,
              17.40442
            ],
            [
              78.470458,
              17.404266
            ],
            [
              78.470352,
              17.403706
            ],
            [
              78.470283,
              17.402981
            ],
            [
              78.470236,
              17.402491
            ],
            [
              78.470137,
              17.400499
            ],
            [
              78.470808,
              17.396514
            ],
            [
              78.470924,
              17.395825
            ],
            [
              78.470924,
              17.395824
            ],
            [
              78.470886,
              17.395668
            ],
            [
              78.470749,
              17.39428
            ],
            [
              78.470755,
              17.39289
            ],
            [
              78.470904,
              17.391508
            ],
            [
              78.471196,
              17.390148
            ],
            [
              78.471625,
              17.388825
            ],
            [
              78.471903,
              17.388199
            ],
            [
              78.472183,
              17.387567
            ],
            [
              78.472881,
              17.386348
            ],
            [
              78.473691,
              17.385222
            ]
          ]
        ]
      }
    }
  ]
}