{
  "type": "FeatureCollection",
  "features": [
    {
      "type": "Feature",
      "properties": {},
      "geometry": {
        "type": "Polygon",
        "coordinates": [
          [
            [
              78.397398,
              17.331506
            ],
            [
              78.397395,
              17.331505
            ],
            [
              78.390867,
              17.330498
            ],
            [
              78.384136,
              17.329459
            ],
            [
              78.382623,
              17.329195
            ],
            [
              78.372965,
              17.327508
            ],
            [
              78.365387,
              17.340641
            ],
            [
              78.363413,
              17.343737
            ],
            [
              78.361197,
              17.347213
            ],
            [
              78.361197,
              17.349688
            ],
            [
              78.3612,
              17.34969
            ],
            [
              78.362318,
              17.350429
            ],
            [
              78.363315,
              17.351236
            ],
            [
              78.36423,
              17.352135
            ],
            [
              78.365064,
              17.353126
            ],
            [
              78.365791,
              17.354183
            ],
            [
              78.366415,
              17.355303
            ],
            [
              78.366674,
              17.355894
            ],
            [
              78.366926,
              17.356469
            ],
            [
              78.367216,
              17.357224
            ],
            [
              78.367407,
              17.357917
            ],
            [
              78.367454,
              17.358086
            ],
            [
              78.367632,
              17.358057
            ],
            [
              78.367634,
              17.358056
            ],
            [
              78.367745,
              17.357984
            ],
            [
              78.370585,
              17.357251
            ],
            [
              78.373243,
              17.357177
            ],
            [
              78.373492,
              17.357194
            ],
            [
              78.374712,
              17.357506
            ],
            [
              78.37817,
              17.358506
            ],
            [
              78.379782,
              17.358782
            ],
            [
              78.381266,
              17.359037
            ],
            [
              78.387936,
              17.360708
            ],
            [
              78.389644,
              17.361135
            ],
            [
              78.389647,
              17.361136
            ],
            [
              78.389681,
              17.361132
            ],
            [
              78.389791,
              17.361124
            ],
            [
              78.390043,
              17.361204
            ],
            [
              78.390086,
              17.361218
            ],
            [
              78.390089,
              17.361218
            ],
            [
              78.391356,
              17.361395
            ],
            [
              78.391527,
              17.361517
            ],
            [
              78.391529,
              17.361518
            ],
            [
              78.39168,
              17.361566
            ],
            [
              78.391683,
              17.361566
            ],
            [
              78.393486,
              17.361799
            ],
            [
              78.393606,
              17.361863
            ],
            [
              78.394073,
              17.362518
            ],
            [
              78.3941,
              17.362627
            ],
            [
              78.394127,
              17.36279
            ],
            [
              78.394169,
              17.362906
            ],
            [
              78.394595,
              17.363589
            ],
            [
              78.394596,
              17.363591
            ],
            [
              78.394647,
              17.36366
            ],
            [
              78.394648,
              17.363661
            ],
            [
              78.394882,
              17.363802
            ],
            [
              78.395058,
              17.364015
            ],
            [
              78.395097,
              17.364063
            ],
            [
              78.395687,
              17.364286
            ],
            [
              78.397175,
              17.364849
            ],
            [
              78.400332,
              17.366396
            ],
            [
              78.400356,
              17.366408
            ],
            [
              78.405361,
              17.366666
            ],
            [
              78.405682,
              17.366325
            ],
            [
              78.406361,
              17.365605
            ],
            [
              78.407014,
              17.365002
            ],
            [
              78.407747,
              17.364324
            ],
            [
              78.408017,
              17.36409
            ],
            [
              78.408722,
              17.363478
            ],
            [
              78.408723,
              17.363466
            ],
            [
              78.408764,
              17.362852
            ],
            [
              78.409184,
              17.362086
            ],
            [
              78.409647,
              17.361243
            ],
            [
              78.410436,
              17.3592
            ],
            [
              78.410427,
              17.358941
            ],
            [
              78.409966,
              17.358311
            ],
            [
              78.409964,
              17.358308
            ],
            [
              78.40993,
              17.358283
            ],
            [
              78.409791,
              17.358178
            ],
            [
              78.409132,
              17.357391
            ],
            [
              78.408788,
              17.35698
            ],
            [
              78.40827,
              17.35631
            ],
            [
              78.407551,
              17.355381
            ],
            [
              78.407349,
              17.3552
            ],
            [
              78.406432,
              17.354382
            ],
            [
              78.406363,
              17.354267
            ],
            [
              78.406352,
              17.354218
            ],
            [
              78.406329,
              17.354113
            ],
            [
              78.406327,
              17.354111
            ],
            [
              78.404344,
              17.352389
            ],
            [
              78.402112,
              17.35045
            ],
            [
              78.402084,
              17.350435
            ],
            [
              78.401918,
              17.350344
            ],
            [
              78.40105,
              17.349172
            ],
            [
              78.399805,
              17.344906
            ],
            [
              78.402161,
              17.341579
            ],
            [
              78.40232,
              17.34143
            ],
            [
              78.402327,
              17.341425
            ],
            [
              78.402328,
              17.341422
            ],
            [
              78.402359,
              17.341393
            ],
            [
              78.401266,
              17.340366
            ],
            [
              78.400412,
              17.339376
            ],
            [
              78.399695,
              17.338372
            ],
            [
              78.399236,
              17.337582
            ],
            [
              78.398616,
              17.33638
            ],
            [
              78.398117,
              17.335111
            ],
            [
              78.397748,
              17.333799
            ],
            [
              78.397514,
              17.332453
            ],
            [
              78.397508,
              17.332405
            ],
            [
              78.397398,
              17.331506
            ]
          ]
        ]
      }
    }
  ]
}