{
  "type": "FeatureCollection",
  "features": [
    {
      "type": "Feature",
      "properties": {},
      "geometry": {
        "type": "Polygon",
        "coordinates": [
          [
            [
              78.470496,
              17.404465
            ],
            [
              78.470478,
              17.404461
            ],
            [
              78.470379,
              17.404516
            ],
            [
              78.470347,
              17.404529
            ],
            [
              78.470062,
              17.404578
            ],
            [
              78.46534,
              17.404748
            ],
            [
              78.465043,
              17.404884
            ],
            [
              78.464806,
              17.404991
            ],
            [
              78.464579,
              17.405065
            ],
            [
              78.464577,
              17.405067
            ],
            [
              78.464487,
              17.405173
            ],
            [
              78.46413,
              17.405361
            ],
            [
              78.464062,
              17.405396
            ],
            [
              78.464058,
              17.4054
            ],
            [
              78.463211,
              17.406176
            ],
            [
              78.463013,
              17.406269
            ],
            [
              78.462973,
              17.406287
            ],
            [
              78.462971,
              17.406289
            ],
            [
              78.46168,
              17.407586
            ],
            [
              78.461674,
              17.407613
            ],
            [
              78.461641,
              17.407745
            ],
            [
              78.461575,
              17.40786
            ],
            [
              78.461572,
              17.407866
            ],
            [
              78.461571,
              17.407878
            ],
            [
              78.461286,
              17.410575
            ],
            [
              78.461222,
              17.411046
            ],
            [
              78.461161,
              17.411215
            ],
            [
              78.46115,
              17.411246
            ],
            [
              78.461176,
              17.411467
            ],
            [
              78.461177,
              17.411469
            ],
            [
              78.461255,
              17.411633
            ],
            [
              78.461163,
              17.412897
            ],
            [
              78.461163,
              17.4129
            ],
            [
              78.461163,
              17.412912
            ],
            [
              78.461163,
              17.413214
            ],
            [
              78.460983,
              17.413424
            ],
            [
              78.460972,
              17.413436
            ],
            [
              78.46097,
              17.413439
            ],
            [
              78.459619,
              17.416282
            ],
            [
              78.459619,
              17.416286
            ],
            [
              78.459586,
              17.416816
            ],
            [
              78.459586,
              17.416817
            ],
            [
              78.459586,
              17.41682
            ],
            [
              78.459517,
              17.421513
            ],
            [
              78.45925,
              17.422963
            ],
            [
              78.459156,
              17.423474
            ],
            [
              78.459177,
              17.423653
            ],
            [
              78.459178,
              17.423654
            ],
            [
              78.45925,
              17.423798
            ],
            [
              78.45925,
              17.423799
            ],
            [
              78.459492,
              17.42377
            ],
            [
              78.460383,
              17.423662
            ],
            [
              78.461705,
              17.423627
            ],
            [
              78.463024,
              17.423722
            ],
            [
              78.464787,
              17.424048
            ],
            [
              78.464792,
              17.424049
            ],
            [
              78.470587,
              17.421497
            ],
            [
              78.471813,
              17.408311
            ],
            [
              78.471767,
              17.408253
            ],
            [
              78.471086,
              17.4066
            ],
            [
              78.470597,
              17.404972
            ],
            [
              78.470521,
              17.40459
            ],
            [
              78.470496,
              17.404465
            ]
          ]
        ]
      }
    }
  ]
}