{
  "type": "FeatureCollection",
  "features": [
    {
      "type": "Feature",
      "properties": {},
      "geometry": {
        "type": "Polygon",
        "coordinates": [
          [
            [
              78.4147,
              17.401584
            ],
            [
              78.415099,
              17.403327
            ],
            [
              78.415117,
              17.403343
            ],
            [
              78.415164,
              17.40354
            ],
            [
              78.415309,
              17.40348
            ],
            [
              78.415849,
              17.403257
            ],
            [
              78.415865,
              17.403252
            ],
            [
              78.417049,
              17.402887
            ],
            [
              78.418291,
              17.402628
            ],
            [
              78.419567,
              17.402487
            ],
            [
              78.421096,
              17.40239
            ],
            [
              78.421096,
              17.402388
            ],
            [
              78.421118,
              17.402244
            ],
            [
              78.421198,
              17.402177
            ],
            [
              78.421285,
              17.402178
            ],
            [
              78.421291,
              17.402182
            ],
            [
              78.421383,
              17.402179
            ],
            [
              78.421912,
              17.401969
            ],
            [
              78.422651,
              17.401677
            ],
            [
              78.42302,
              17.401552
            ],
            [
              78.423941,
              17.40124
            ],
            [
              78.42528,
              17.400935
            ],
            [
              78.425626,
              17.400892
            ],
            [
              78.425699,
              17.400883
            ],
            [
              78.425699,
              17.40074
            ],
            [
              78.42559,
              17.400546
            ],
            [
              78.425588,
              17.400544
            ],
            [
              78.424148,
              17.399104
            ],
            [
              78.422963,
              17.398283
            ],
            [
              78.422938,
              17.398279
            ],
            [
              78.419643,
              17.39772
            ],
            [
              78.419642,
              17.39772
            ],
            [
              78.419535,
              17.397742
            ],
            [
              78.41782,
              17.398453
            ],
            [
              78.416508,
              17.398629
            ],
            [
              78.416504,
              17.398629
            ],
            [
              78.416501,
              17.39863
            ],
            [
              78.416025,
              17.398747
            ],
            [
              78.415996,
              17.398754
            ],
            [
              78.415885,
              17.398804
            ],
            [
              78.41582,
              17.398864
            ],
            [
              78.415582,
              17.399084
            ],
            [
              78.41553,
              17.399109
            ],
            [
              78.415514,
              17.399111
            ],
            [
              78.415495,
              17.399126
            ],
            [
              78.415456,
              17.399144
            ],
            [
              78.415449,
              17.399144
            ],
            [
              78.415446,
              17.399149
            ],
            [
              78.41542,
              17.399161
            ],
            [
              78.415416,
              17.399161
            ],
            [
              78.415414,
              17.399164
            ],
            [
              78.415382,
              17.399179
            ],
            [
              78.415092,
              17.399515
            ],
            [
              78.414643,
              17.401502
            ],
            [
              78.4147,
              17.401584
            ]
          ]
        ]
      }
    }
  ]
}