{
  "type": "FeatureCollection",
  "features": [
    {
      "type": "Feature",
      "properties": {},
      "geometry": {
        "type": "Polygon",
        "coordinates": [
          [
            [
              78.391633,
              17.41352
            ],
            [
              78.3922,
              17.413319
            ],
            [
              78.393584,
              17.412989
            ],
            [
              78.394852,
              17.412757
            ],
            [
              78.394995,
              17.412787
            ],
            [
              78.394996,
              17.412787
            ],
            [
              78.396647,
              17.411499
            ],
            [
              78.397613,
              17.410811
            ],
            [
              78.398648,
              17.410204
            ],
            [
              78.399723,
              17.409696
            ],
            [
              78.400836,
              17.409285
            ],
            [
              78.401568,
              17.409051
            ],
            [
              78.402756,
              17.408732
            ],
            [
              78.40309,
              17.408673
            ],
            [
              78.403178,
              17.408658
            ],
            [
              78.403177,
              17.408658
            ],
            [
              78.403167,
              17.408643
            ],
            [
              78.403163,
              17.408642
            ],
            [
              78.403161,
              17.408641
            ],
            [
              78.40316,
              17.40864
            ],
            [
              78.403158,
              17.408639
            ],
            [
              78.403157,
              17.408637
            ],
            [
              78.403156,
              17.408636
            ],
            [
              78.403155,
              17.408635
            ],
            [
              78.403154,
              17.408633
            ],
            [
              78.403153,
              17.408631
            ],
            [
              78.403153,
              17.40863
            ],
            [
              78.403152,
              17.408628
            ],
            [
              78.403152,
              17.408627
            ],
            [
              78.40315,
              17.40862
            ],
            [
              78.403135,
              17.408599
            ],
            [
              78.403094,
              17.408438
            ],
            [
              78.403081,
              17.407319
            ],
            [
              78.403076,
              17.406873
            ],
            [
              78.403072,
              17.406867
            ],
            [
              78.403012,
              17.406758
            ],
            [
              78.402987,
              17.406638
            ],
            [
              78.402983,
              17.406619
            ],
            [
              78.402793,
              17.406311
            ],
            [
              78.40279,
              17.406307
            ],
            [
              78.401495,
              17.404759
            ],
            [
              78.401021,
              17.404067
            ],
            [
              78.400875,
              17.403853
            ],
            [
              78.400812,
              17.403698
            ],
            [
              78.40081,
              17.403693
            ],
            [
              78.400802,
              17.403683
            ],
            [
              78.400769,
              17.403644
            ],
            [
              78.400762,
              17.40364
            ],
            [
              78.40076,
              17.403639
            ],
            [
              78.400759,
              17.403637
            ],
            [
              78.400758,
              17.403636
            ],
            [
              78.400713,
              17.403578
            ],
            [
              78.400619,
              17.403468
            ],
            [
              78.400552,
              17.403174
            ],
            [
              78.400555,
              17.403081
            ],
            [
              78.400602,
              17.402949
            ],
            [
              78.400614,
              17.402915
            ],
            [
              78.400614,
              17.402914
            ],
            [
              78.400608,
              17.402862
            ],
            [
              78.400595,
              17.402817
            ],
            [
              78.400594,
              17.402815
            ],
            [
              78.400594,
              17.402814
            ],
            [
              78.400563,
              17.402472
            ],
            [
              78.400521,
              17.402102
            ],
            [
              78.40042,
              17.398825
            ],
            [
              78.40042,
              17.398822
            ],
            [
              78.400417,
              17.398818
            ],
            [
              78.400379,
              17.398758
            ],
            [
              78.400307,
              17.398641
            ],
            [
              78.400258,
              17.398367
            ],
            [
              78.400262,
              17.398344
            ],
            [
              78.40026,
              17.398334
            ],
            [
              78.40026,
              17.398332
            ],
            [
              78.40026,
              17.39833
            ],
            [
              78.40026,
              17.398329
            ],
            [
              78.400261,
              17.398327
            ],
            [
              78.400261,
              17.398325
            ],
            [
              78.400262,
              17.398323
            ],
            [
              78.400268,
              17.398309
            ],
            [
              78.40027,
              17.398301
            ],
            [
              78.400281,
              17.398282
            ],
            [
              78.400298,
              17.398247
            ],
            [
              78.400298,
              17.398246
            ],
            [
              78.400299,
              17.398245
            ],
            [
              78.4003,
              17.398243
            ],
            [
              78.400312,
              17.398229
            ],
            [
              78.400385,
              17.398105
            ],
            [
              78.400415,
              17.398055
            ],
            [
              78.40041,
              17.398027
            ],
            [
              78.400384,
              17.397885
            ],
            [
              78.400392,
              17.397683
            ],
            [
              78.400396,
              17.397586
            ],
            [
              78.400396,
              17.397582
            ],
            [
              78.400356,
              17.396987
            ],
            [
              78.40165,
              17.393665
            ],
            [
              78.401746,
              17.393533
            ],
            [
              78.401749,
              17.39353
            ],
            [
              78.401679,
              17.393447
            ],
            [
              78.401676,
              17.393445
            ],
            [
              78.401083,
              17.393071
            ],
            [
              78.400788,
              17.392636
            ],
            [
              78.400444,
              17.392142
            ],
            [
              78.400424,
              17.392129
            ],
            [
              78.400348,
              17.392141
            ],
            [
              78.400074,
              17.392279
            ],
            [
              78.398032,
              17.393315
            ],
            [
              78.397076,
              17.394139
            ],
            [
              78.397073,
              17.394142
            ],
            [
              78.397007,
              17.394214
            ],
            [
              78.397007,
              17.394217
            ],
            [
              78.396986,
              17.394334
            ],
            [
              78.396982,
              17.39436
            ],
            [
              78.396982,
              17.394364
            ],
            [
              78.396982,
              17.394366
            ],
            [
              78.396981,
              17.394367
            ],
            [
              78.396981,
              17.394369
            ],
            [
              78.39698,
              17.39437
            ],
            [
              78.396979,
              17.394371
            ],
            [
              78.396977,
              17.394385
            ],
            [
              78.396872,
              17.394521
            ],
            [
              78.396071,
              17.395404
            ],
            [
              78.395538,
              17.395992
            ],
            [
              78.395538,
              17.395994
            ],
            [
              78.39551,
              17.396072
            ],
            [
              78.395502,
              17.396119
            ],
            [
              78.395501,
              17.396121
            ],
            [
              78.395501,
              17.396122
            ],
            [
              78.3955,
              17.396123
            ],
            [
              78.395466,
              17.396198
            ],
            [
              78.395443,
              17.396265
            ],
            [
              78.395433,
              17.396277
            ],
            [
              78.395303,
              17.396426
            ],
            [
              78.395161,
              17.396601
            ],
            [
              78.395149,
              17.39663
            ],
            [
              78.394966,
              17.396858
            ],
            [
              78.394947,
              17.396868
            ],
            [
              78.394941,
              17.396875
            ],
            [
              78.394939,
              17.396877
            ],
            [
              78.394938,
              17.396879
            ],
            [
              78.394937,
              17.39688
            ],
            [
              78.394935,
              17.396881
            ],
            [
              78.394934,
              17.396882
            ],
            [
              78.394932,
              17.396882
            ],
            [
              78.3949,
              17.396896
            ],
            [
              78.394671,
              17.397007
            ],
            [
              78.39467,
              17.397007
            ],
            [
              78.393081,
              17.398708
            ],
            [
              78.392963,
              17.398835
            ],
            [
              78.392484,
              17.399373
            ],
            [
              78.392484,
              17.399376
            ],
            [
              78.392492,
              17.399471
            ],
            [
              78.392437,
              17.399642
            ],
            [
              78.392433,
              17.399653
            ],
            [
              78.392433,
              17.399654
            ],
            [
              78.392445,
              17.399762
            ],
            [
              78.392445,
              17.399763
            ],
            [
              78.392456,
              17.399864
            ],
            [
              78.39238,
              17.400101
            ],
            [
              78.392373,
              17.400121
            ],
            [
              78.392372,
              17.400131
            ],
            [
              78.392344,
              17.400365
            ],
            [
              78.392055,
              17.401111
            ],
            [
              78.39184,
              17.401333
            ],
            [
              78.391834,
              17.401339
            ],
            [
              78.391806,
              17.401411
            ],
            [
              78.391806,
              17.401412
            ],
            [
              78.39014,
              17.406154
            ],
            [
              78.390139,
              17.406158
            ],
            [
              78.389908,
              17.407254
            ],
            [
              78.389917,
              17.407679
            ],
            [
              78.390028,
              17.407905
            ],
            [
              78.391496,
              17.41091
            ],
            [
              78.391415,
              17.413264
            ],
            [
              78.391415,
              17.413267
            ],
            [
              78.391521,
              17.41356
            ],
            [
              78.391633,
              17.41352
            ]
          ]
        ]
      }
    }
  ]
}