{
  "type": "FeatureCollection",
  "features": [
    {
      "type": "Feature",
      "properties": {},
      "geometry": {
        "type": "Polygon",
        "coordinates": [
          [
            [
              78.41453,
              17.398232
            ],
            [
              78.414671,
              17.398252
            ],
            [
              78.414694,
              17.39825
            ],
            [
              78.414898,
              17.398233
            ],
            [
              78.415034,
              17.398267
            ],
            [
              78.415086,
              17.398303
            ],
            [
              78.415153,
              17.398341
            ],
            [
              78.415154,
              17.398342
            ],
            [
              78.415156,
              17.398343
            ],
            [
              78.415219,
              17.398398
            ],
            [
              78.415299,
              17.398454
            ],
            [
              78.4153,
              17.398455
            ],
            [
              78.415316,
              17.398463
            ],
            [
              78.415513,
              17.398563
            ],
            [
              78.415573,
              17.398591
            ],
            [
              78.415574,
              17.398592
            ],
            [
              78.415576,
              17.398592
            ],
            [
              78.415577,
              17.398594
            ],
            [
              78.415578,
              17.398595
            ],
            [
              78.415581,
              17.398597
            ],
            [
              78.415617,
              17.398616
            ],
            [
              78.415759,
              17.398791
            ],
            [
              78.415774,
              17.398807
            ],
            [
              78.415775,
              17.398808
            ],
            [
              78.415776,
              17.39881
            ],
            [
              78.415777,
              17.398811
            ],
            [
              78.415778,
              17.398813
            ],
            [
              78.415778,
              17.398814
            ],
            [
              78.415781,
              17.398818
            ],
            [
              78.415787,
              17.398825
            ],
            [
              78.415856,
              17.398794
            ],
            [
              78.41607,
              17.3987
            ],
            [
              78.416373,
              17.398626
            ],
            [
              78.41752,
              17.398467
            ],
            [
              78.417784,
              17.398431
            ],
            [
              78.417848,
              17.398404
            ],
            [
              78.4179,
              17.398397
            ],
            [
              78.419515,
              17.397721
            ],
            [
              78.419667,
              17.397691
            ],
            [
              78.41973,
              17.397717
            ],
            [
              78.422941,
              17.398261
            ],
            [
              78.422966,
              17.398265
            ],
            [
              78.422967,
              17.398266
            ],
            [
              78.422969,
              17.398266
            ],
            [
              78.42297,
              17.398267
            ],
            [
              78.422972,
              17.398267
            ],
            [
              78.422973,
              17.398268
            ],
            [
              78.422991,
              17.398271
            ],
            [
              78.424176,
              17.399094
            ],
            [
              78.425607,
              17.400526
            ],
            [
              78.42572,
              17.400727
            ],
            [
              78.425734,
              17.400873
            ],
            [
              78.425734,
              17.400878
            ],
            [
              78.425897,
              17.400858
            ],
            [
              78.426657,
              17.400766
            ],
            [
              78.428016,
              17.400738
            ],
            [
              78.428941,
              17.400813
            ],
            [
              78.429139,
              17.400829
            ],
            [
              78.42911,
              17.400509
            ],
            [
              78.429109,
              17.400506
            ],
            [
              78.427914,
              17.396047
            ],
            [
              78.427913,
              17.396044
            ],
            [
              78.42732,
              17.394482
            ],
            [
              78.427319,
              17.394478
            ],
            [
              78.427255,
              17.394382
            ],
            [
              78.427196,
              17.394334
            ],
            [
              78.427173,
              17.394307
            ],
            [
              78.427088,
              17.394095
            ],
            [
              78.427043,
              17.393909
            ],
            [
              78.427053,
              17.393661
            ],
            [
              78.427055,
              17.393604
            ],
            [
              78.426984,
              17.393397
            ],
            [
              78.426965,
              17.393382
            ],
            [
              78.426775,
              17.393321
            ],
            [
              78.426673,
              17.393237
            ],
            [
              78.426632,
              17.393202
            ],
            [
              78.426628,
              17.393201
            ],
            [
              78.425477,
              17.392751
            ],
            [
              78.425357,
              17.39273
            ],
            [
              78.425355,
              17.392731
            ],
            [
              78.425268,
              17.392753
            ],
            [
              78.42522,
              17.392768
            ],
            [
              78.425217,
              17.392769
            ],
            [
              78.425216,
              17.392769
            ],
            [
              78.425214,
              17.39277
            ],
            [
              78.425212,
              17.39277
            ],
            [
              78.425199,
              17.392771
            ],
            [
              78.425156,
              17.392782
            ],
            [
              78.425053,
              17.392757
            ],
            [
              78.424596,
              17.392556
            ],
            [
              78.424493,
              17.392475
            ],
            [
              78.424424,
              17.392376
            ],
            [
              78.424412,
              17.392363
            ],
            [
              78.423393,
              17.392008
            ],
            [
              78.42339,
              17.392007
            ],
            [
              78.421661,
              17.391551
            ],
            [
              78.421657,
              17.39155
            ],
            [
              78.421113,
              17.39148
            ],
            [
              78.421102,
              17.391484
            ],
            [
              78.420962,
              17.391533
            ],
            [
              78.420802,
              17.391545
            ],
            [
              78.420578,
              17.391475
            ],
            [
              78.420563,
              17.39147
            ],
            [
              78.420395,
              17.391471
            ],
            [
              78.419942,
              17.391472
            ],
            [
              78.419838,
              17.391447
            ],
            [
              78.419784,
              17.391433
            ],
            [
              78.41978,
              17.391433
            ],
            [
              78.41857,
              17.391512
            ],
            [
              78.418568,
              17.391512
            ],
            [
              78.416755,
              17.391738
            ],
            [
              78.416753,
              17.391738
            ],
            [
              78.414274,
              17.392212
            ],
            [
              78.4141,
              17.392228
            ],
            [
              78.414046,
              17.392236
            ],
            [
              78.414044,
              17.392236
            ],
            [
              78.414043,
              17.392236
            ],
            [
              78.414018,
              17.392235
            ],
            [
              78.413922,
              17.392244
            ],
            [
              78.41392,
              17.392245
            ],
            [
              78.413853,
              17.392261
            ],
            [
              78.413844,
              17.392265
            ],
            [
              78.413842,
              17.392265
            ],
            [
              78.41384,
              17.392266
            ],
            [
              78.41381,
              17.392271
            ],
            [
              78.413633,
              17.392314
            ],
            [
              78.41363,
              17.392316
            ],
            [
              78.413315,
              17.392521
            ],
            [
              78.412384,
              17.393162
            ],
            [
              78.410614,
              17.394391
            ],
            [
              78.410611,
              17.394393
            ],
            [
              78.410291,
              17.394736
            ],
            [
              78.409962,
              17.395097
            ],
            [
              78.409915,
              17.395164
            ],
            [
              78.410162,
              17.395447
            ],
            [
              78.410164,
              17.395449
            ],
            [
              78.412322,
              17.397529
            ],
            [
              78.41453,
              17.398232
            ]
          ]
        ]
      }
    }
  ]
}