{
  "type": "FeatureCollection",
  "features": [
    {
      "type": "Feature",
      "properties": {},
      "geometry": {
        "type": "Polygon",
        "coordinates": [
          [
            [
              78.458859,
              17.367455
            ],
            [
              78.458819,
              17.367422
            ],
            [
              78.458785,
              17.367469
            ],
            [
              78.458083,
              17.368446
            ],
            [
              78.458032,
              17.36849
            ],
            [
              78.458032,
              17.368491
            ],
            [
              78.45803,
              17.368492
            ],
            [
              78.458029,
              17.368493
            ],
            [
              78.458028,
              17.368494
            ],
            [
              78.458026,
              17.368495
            ],
            [
              78.458025,
              17.368496
            ],
            [
              78.458014,
              17.368505
            ],
            [
              78.458012,
              17.368507
            ],
            [
              78.458017,
              17.368547
            ],
            [
              78.458043,
              17.368738
            ],
            [
              78.458017,
              17.368887
            ],
            [
              78.457931,
              17.369053
            ],
            [
              78.45779,
              17.369245
            ],
            [
              78.457653,
              17.36943
            ],
            [
              78.457652,
              17.369432
            ],
            [
              78.45757,
              17.369588
            ],
            [
              78.457554,
              17.369674
            ],
            [
              78.45754,
              17.36971
            ],
            [
              78.457535,
              17.369737
            ],
            [
              78.457534,
              17.369743
            ],
            [
              78.457533,
              17.369745
            ],
            [
              78.457533,
              17.369746
            ],
            [
              78.457532,
              17.369748
            ],
            [
              78.457494,
              17.369825
            ],
            [
              78.457454,
              17.369925
            ],
            [
              78.45739,
              17.369989
            ],
            [
              78.457312,
              17.370027
            ],
            [
              78.457209,
              17.370077
            ],
            [
              78.457207,
              17.370079
            ],
            [
              78.456889,
              17.37042
            ],
            [
              78.456888,
              17.370422
            ],
            [
              78.45686,
              17.370501
            ],
            [
              78.456829,
              17.370596
            ],
            [
              78.456828,
              17.370599
            ],
            [
              78.456828,
              17.3706
            ],
            [
              78.456827,
              17.370602
            ],
            [
              78.456826,
              17.370603
            ],
            [
              78.456825,
              17.370605
            ],
            [
              78.456824,
              17.370606
            ],
            [
              78.456823,
              17.370607
            ],
            [
              78.45682,
              17.37061
            ],
            [
              78.456815,
              17.370625
            ],
            [
              78.45657,
              17.370849
            ],
            [
              78.456394,
              17.370932
            ],
            [
              78.45627,
              17.370961
            ],
            [
              78.456245,
              17.370967
            ],
            [
              78.456121,
              17.371044
            ],
            [
              78.456117,
              17.371046
            ],
            [
              78.456061,
              17.371082
            ],
            [
              78.45579,
              17.371251
            ],
            [
              78.454874,
              17.371545
            ],
            [
              78.452955,
              17.372159
            ],
            [
              78.452952,
              17.37216
            ],
            [
              78.45295,
              17.372161
            ],
            [
              78.452285,
              17.372399
            ],
            [
              78.452079,
              17.372473
            ],
            [
              78.452077,
              17.372474
            ],
            [
              78.451941,
              17.372532
            ],
            [
              78.45194,
              17.372534
            ],
            [
              78.451876,
              17.372621
            ],
            [
              78.451554,
              17.372814
            ],
            [
              78.451413,
              17.372851
            ],
            [
              78.451273,
              17.372843
            ],
            [
              78.451015,
              17.372969
            ],
            [
              78.451013,
              17.372973
            ],
            [
              78.450519,
              17.37322
            ],
            [
              78.450294,
              17.373227
            ],
            [
              78.45029,
              17.373227
            ],
            [
              78.450146,
              17.37328
            ],
            [
              78.450081,
              17.373318
            ],
            [
              78.450015,
              17.373366
            ],
            [
              78.449868,
              17.37355
            ],
            [
              78.44984,
              17.373643
            ],
            [
              78.449841,
              17.373644
            ],
            [
              78.44989,
              17.373694
            ],
            [
              78.44992,
              17.373721
            ],
            [
              78.449921,
              17.373722
            ],
            [
              78.449922,
              17.373723
            ],
            [
              78.449923,
              17.373725
            ],
            [
              78.449924,
              17.373727
            ],
            [
              78.449927,
              17.373731
            ],
            [
              78.449944,
              17.373749
            ],
            [
              78.451265,
              17.376624
            ],
            [
              78.451382,
              17.376752
            ],
            [
              78.451385,
              17.376754
            ],
            [
              78.451525,
              17.376851
            ],
            [
              78.451596,
              17.376997
            ],
            [
              78.451655,
              17.377392
            ],
            [
              78.45164,
              17.377603
            ],
            [
              78.451638,
              17.37763
            ],
            [
              78.451646,
              17.377729
            ],
            [
              78.451688,
              17.37823
            ],
            [
              78.451681,
              17.378251
            ],
            [
              78.45168,
              17.378253
            ],
            [
              78.45168,
              17.378255
            ],
            [
              78.451679,
              17.378257
            ],
            [
              78.451584,
              17.378535
            ],
            [
              78.451784,
              17.380673
            ],
            [
              78.451784,
              17.380674
            ],
            [
              78.451921,
              17.381679
            ],
            [
              78.452231,
              17.383964
            ],
            [
              78.452236,
              17.383973
            ],
            [
              78.452262,
              17.384005
            ],
            [
              78.4523,
              17.384056
            ],
            [
              78.452423,
              17.384338
            ],
            [
              78.45256,
              17.385364
            ],
            [
              78.452557,
              17.385487
            ],
            [
              78.452557,
              17.385499
            ],
            [
              78.452569,
              17.385542
            ],
            [
              78.452634,
              17.385773
            ],
            [
              78.452643,
              17.38609
            ],
            [
              78.452621,
              17.38615
            ],
            [
              78.452614,
              17.386181
            ],
            [
              78.452613,
              17.386182
            ],
            [
              78.452613,
              17.386184
            ],
            [
              78.452612,
              17.386185
            ],
            [
              78.452595,
              17.386217
            ],
            [
              78.452556,
              17.386322
            ],
            [
              78.452555,
              17.386324
            ],
            [
              78.452597,
              17.386601
            ],
            [
              78.452676,
              17.386707
            ],
            [
              78.452734,
              17.386779
            ],
            [
              78.452832,
              17.387082
            ],
            [
              78.452829,
              17.387255
            ],
            [
              78.452828,
              17.387278
            ],
            [
              78.452829,
              17.387281
            ],
            [
              78.452975,
              17.38816
            ],
            [
              78.452927,
              17.388359
            ],
            [
              78.452926,
              17.388364
            ],
            [
              78.45293,
              17.388454
            ],
            [
              78.452931,
              17.388459
            ],
            [
              78.453012,
              17.388893
            ],
            [
              78.453039,
              17.389042
            ],
            [
              78.45304,
              17.389045
            ],
            [
              78.453094,
              17.389147
            ],
            [
              78.453627,
              17.389131
            ],
            [
              78.45363,
              17.38913
            ],
            [
              78.453722,
              17.389086
            ],
            [
              78.453824,
              17.389034
            ],
            [
              78.453826,
              17.389032
            ],
            [
              78.453828,
              17.389032
            ],
            [
              78.453829,
              17.389031
            ],
            [
              78.453831,
              17.389031
            ],
            [
              78.453832,
              17.38903
            ],
            [
              78.453834,
              17.38903
            ],
            [
              78.453836,
              17.38903
            ],
            [
              78.453839,
              17.38903
            ],
            [
              78.453854,
              17.389023
            ],
            [
              78.454128,
              17.389033
            ],
            [
              78.454276,
              17.389064
            ],
            [
              78.454321,
              17.389073
            ],
            [
              78.454323,
              17.389073
            ],
            [
              78.454447,
              17.389063
            ],
            [
              78.454554,
              17.389045
            ],
            [
              78.454555,
              17.389045
            ],
            [
              78.454557,
              17.389045
            ],
            [
              78.454679,
              17.389044
            ],
            [
              78.454804,
              17.389034
            ],
            [
              78.454806,
              17.389034
            ],
            [
              78.454988,
              17.388944
            ],
            [
              78.454988,
              17.388941
            ],
            [
              78.454995,
              17.388847
            ],
            [
              78.455062,
              17.388702
            ],
            [
              78.455211,
              17.388534
            ],
            [
              78.455374,
              17.388437
            ],
            [
              78.455381,
              17.388433
            ],
            [
              78.455635,
              17.388062
            ],
            [
              78.456569,
              17.386696
            ],
            [
              78.458297,
              17.384581
            ],
            [
              78.458326,
              17.384516
            ],
            [
              78.458515,
              17.384101
            ],
            [
              78.45873,
              17.383866
            ],
            [
              78.458854,
              17.383757
            ],
            [
              78.459069,
              17.383677
            ],
            [
              78.459111,
              17.383661
            ],
            [
              78.45914,
              17.383631
            ],
            [
              78.460505,
              17.382228
            ],
            [
              78.460579,
              17.382211
            ],
            [
              78.461683,
              17.382259
            ],
            [
              78.461762,
              17.382233
            ],
            [
              78.461763,
              17.382231
            ],
            [
              78.461843,
              17.38209
            ],
            [
              78.463225,
              17.380443
            ],
            [
              78.465777,
              17.37802
            ],
            [
              78.465713,
              17.377956
            ],
            [
              78.465437,
              17.377678
            ],
            [
              78.465192,
              17.377377
            ],
            [
              78.464943,
              17.377069
            ],
            [
              78.464183,
              17.376038
            ],
            [
              78.46353,
              17.374948
            ],
            [
              78.462986,
              17.373814
            ],
            [
              78.462548,
              17.372621
            ],
            [
              78.462223,
              17.371392
            ],
            [
              78.462015,
              17.370135
            ],
            [
              78.461962,
              17.369677
            ],
            [
              78.461909,
              17.369225
            ],
            [
              78.461908,
              17.369225
            ],
            [
              78.461216,
              17.368919
            ],
            [
              78.460091,
              17.368307
            ],
            [
              78.459019,
              17.367586
            ],
            [
              78.458859,
              17.367455
            ]
          ]
        ]
      }
    }
  ]
}