{
  "type": "FeatureCollection",
  "features": [
    {
      "type": "Feature",
      "properties": {},
      "geometry": {
        "type": "Polygon",
        "coordinates": [
          [
            [
              78.446982,
              17.416033
            ],
            [
              78.447338,
              17.417421
            ],
            [
              78.447691,
              17.419178
            ],
            [
              78.447693,
              17.41918
            ],
            [
              78.447873,
              17.419399
            ],
            [
              78.447871,
              17.419475
            ],
            [
              78.447727,
              17.419943
            ],
            [
              78.447727,
              17.419944
            ],
            [
              78.447886,
              17.420744
            ],
            [
              78.44795,
              17.421325
            ],
            [
              78.448013,
              17.421892
            ],
            [
              78.448032,
              17.423454
            ],
            [
              78.448031,
              17.423506
            ],
            [
              78.448015,
              17.423522
            ],
            [
              78.448047,
              17.424684
            ],
            [
              78.448817,
              17.425846
            ],
            [
              78.452311,
              17.426948
            ],
            [
              78.45232,
              17.426937
            ],
            [
              78.452851,
              17.426265
            ],
            [
              78.452969,
              17.426231
            ],
            [
              78.452981,
              17.426228
            ],
            [
              78.452983,
              17.426227
            ],
            [
              78.45613,
              17.424579
            ],
            [
              78.457779,
              17.424118
            ],
            [
              78.459222,
              17.423807
            ],
            [
              78.459224,
              17.423807
            ],
            [
              78.459219,
              17.423797
            ],
            [
              78.459153,
              17.42366
            ],
            [
              78.459131,
              17.423465
            ],
            [
              78.459341,
              17.422318
            ],
            [
              78.45949,
              17.42151
            ],
            [
              78.459518,
              17.419587
            ],
            [
              78.459559,
              17.416827
            ],
            [
              78.45956,
              17.416811
            ],
            [
              78.459573,
              17.416734
            ],
            [
              78.459588,
              17.416493
            ],
            [
              78.459591,
              17.416311
            ],
            [
              78.459592,
              17.416294
            ],
            [
              78.460939,
              17.413441
            ],
            [
              78.461137,
              17.413216
            ],
            [
              78.461143,
              17.41321
            ],
            [
              78.461139,
              17.413152
            ],
            [
              78.461117,
              17.412803
            ],
            [
              78.461189,
              17.411555
            ],
            [
              78.461185,
              17.411546
            ],
            [
              78.461135,
              17.411412
            ],
            [
              78.461125,
              17.411257
            ],
            [
              78.461195,
              17.411042
            ],
            [
              78.461197,
              17.411036
            ],
            [
              78.461259,
              17.410571
            ],
            [
              78.461261,
              17.410549
            ],
            [
              78.46155,
              17.407855
            ],
            [
              78.461559,
              17.407834
            ],
            [
              78.461611,
              17.407743
            ],
            [
              78.46164,
              17.407638
            ],
            [
              78.461662,
              17.407586
            ],
            [
              78.461663,
              17.407582
            ],
            [
              78.461663,
              17.40758
            ],
            [
              78.461664,
              17.407579
            ],
            [
              78.461664,
              17.407577
            ],
            [
              78.461665,
              17.407576
            ],
            [
              78.461666,
              17.407575
            ],
            [
              78.461666,
              17.407574
            ],
            [
              78.461675,
              17.407554
            ],
            [
              78.462937,
              17.406285
            ],
            [
              78.462963,
              17.406272
            ],
            [
              78.462964,
              17.406271
            ],
            [
              78.462966,
              17.406271
            ],
            [
              78.46297,
              17.406269
            ],
            [
              78.46318,
              17.406164
            ],
            [
              78.463184,
              17.406162
            ],
            [
              78.463373,
              17.406003
            ],
            [
              78.463774,
              17.405636
            ],
            [
              78.464024,
              17.405396
            ],
            [
              78.464041,
              17.40538
            ],
            [
              78.464451,
              17.405163
            ],
            [
              78.464477,
              17.405149
            ],
            [
              78.464543,
              17.405055
            ],
            [
              78.464533,
              17.405037
            ],
            [
              78.464456,
              17.404974
            ],
            [
              78.464277,
              17.40485
            ],
            [
              78.46419,
              17.404782
            ],
            [
              78.464107,
              17.404697
            ],
            [
              78.46405,
              17.404674
            ],
            [
              78.464042,
              17.404676
            ],
            [
              78.463777,
              17.404753
            ],
            [
              78.457402,
              17.404854
            ],
            [
              78.457384,
              17.404861
            ],
            [
              78.457341,
              17.404887
            ],
            [
              78.457271,
              17.404927
            ],
            [
              78.457135,
              17.404964
            ],
            [
              78.457105,
              17.404963
            ],
            [
              78.457048,
              17.404958
            ],
            [
              78.45701,
              17.404959
            ],
            [
              78.457008,
              17.404959
            ],
            [
              78.457006,
              17.404959
            ],
            [
              78.456978,
              17.404952
            ],
            [
              78.456908,
              17.404946
            ],
            [
              78.45687,
              17.404944
            ],
            [
              78.456373,
              17.404953
            ],
            [
              78.456331,
              17.404955
            ],
            [
              78.454415,
              17.40503
            ],
            [
              78.454242,
              17.404981
            ],
            [
              78.454075,
              17.404843
            ],
            [
              78.454065,
              17.404835
            ],
            [
              78.454048,
              17.40483
            ],
            [
              78.453754,
              17.404739
            ],
            [
              78.453426,
              17.404457
            ],
            [
              78.453407,
              17.404441
            ],
            [
              78.453405,
              17.40444
            ],
            [
              78.453306,
              17.404387
            ],
            [
              78.453265,
              17.404373
            ],
            [
              78.453263,
              17.404372
            ],
            [
              78.453262,
              17.404372
            ],
            [
              78.45326,
              17.404371
            ],
            [
              78.453258,
              17.40437
            ],
            [
              78.453154,
              17.404305
            ],
            [
              78.45305,
              17.404249
            ],
            [
              78.453048,
              17.404248
            ],
            [
              78.452898,
              17.404278
            ],
            [
              78.452828,
              17.404329
            ],
            [
              78.452708,
              17.404647
            ],
            [
              78.452358,
              17.405611
            ],
            [
              78.451672,
              17.407486
            ],
            [
              78.451612,
              17.407648
            ],
            [
              78.451373,
              17.408307
            ],
            [
              78.451372,
              17.408309
            ],
            [
              78.451371,
              17.40831
            ],
            [
              78.451371,
              17.408312
            ],
            [
              78.45137,
              17.408313
            ],
            [
              78.451368,
              17.408314
            ],
            [
              78.451364,
              17.408326
            ],
            [
              78.451201,
              17.40845
            ],
            [
              78.450997,
              17.408494
            ],
            [
              78.450942,
              17.408505
            ],
            [
              78.450656,
              17.408607
            ],
            [
              78.450651,
              17.40861
            ],
            [
              78.450488,
              17.408704
            ],
            [
              78.450462,
              17.4087
            ],
            [
              78.450429,
              17.408702
            ],
            [
              78.450427,
              17.408702
            ],
            [
              78.450426,
              17.408702
            ],
            [
              78.450424,
              17.408701
            ],
            [
              78.450422,
              17.408701
            ],
            [
              78.450378,
              17.408685
            ],
            [
              78.450314,
              17.408674
            ],
            [
              78.450313,
              17.408674
            ],
            [
              78.450184,
              17.4087
            ],
            [
              78.447997,
              17.41001
            ],
            [
              78.44544,
              17.412246
            ],
            [
              78.445421,
              17.412278
            ],
            [
              78.44536,
              17.412373
            ],
            [
              78.445261,
              17.41246
            ],
            [
              78.445241,
              17.412477
            ],
            [
              78.445338,
              17.412627
            ],
            [
              78.445834,
              17.413401
            ],
            [
              78.446479,
              17.414687
            ],
            [
              78.446982,
              17.416033
            ]
          ]
        ]
      }
    }
  ]
}