{
  "type": "FeatureCollection",
  "features": [
    {
      "type": "Feature",
      "properties": {},
      "geometry": {
        "type": "Polygon",
        "coordinates": [
          [
            [
              78.434549,
              17.402609
            ],
            [
              78.435609,
              17.403289
            ],
            [
              78.436593,
              17.404058
            ],
            [
              78.437464,
              17.404807
            ],
            [
              78.439034,
              17.406653
            ],
            [
              78.439073,
              17.406751
            ],
            [
              78.43906,
              17.406827
            ],
            [
              78.439053,
              17.40685
            ],
            [
              78.439055,
              17.406852
            ],
            [
              78.440274,
              17.408015
            ],
            [
              78.440752,
              17.408275
            ],
            [
              78.441756,
              17.40892
            ],
            [
              78.441783,
              17.408938
            ],
            [
              78.442766,
              17.409706
            ],
            [
              78.443665,
              17.410552
            ],
            [
              78.444481,
              17.411475
            ],
            [
              78.445049,
              17.41218
            ],
            [
              78.445196,
              17.412407
            ],
            [
              78.445226,
              17.412454
            ],
            [
              78.445345,
              17.412352
            ],
            [
              78.445347,
              17.412348
            ],
            [
              78.445437,
              17.412212
            ],
            [
              78.447981,
              17.409989
            ],
            [
              78.450163,
              17.408682
            ],
            [
              78.450313,
              17.408651
            ],
            [
              78.450353,
              17.408657
            ],
            [
              78.450428,
              17.408684
            ],
            [
              78.450486,
              17.40868
            ],
            [
              78.450494,
              17.408675
            ],
            [
              78.450724,
              17.408528
            ],
            [
              78.451108,
              17.408445
            ],
            [
              78.451198,
              17.408426
            ],
            [
              78.451356,
              17.408301
            ],
            [
              78.451596,
              17.407642
            ],
            [
              78.452801,
              17.404329
            ],
            [
              78.45287,
              17.404263
            ],
            [
              78.453021,
              17.404216
            ],
            [
              78.453057,
              17.404205
            ],
            [
              78.453058,
              17.404198
            ],
            [
              78.453101,
              17.403962
            ],
            [
              78.453285,
              17.403751
            ],
            [
              78.45329,
              17.403745
            ],
            [
              78.453466,
              17.403378
            ],
            [
              78.453438,
              17.403048
            ],
            [
              78.453419,
              17.403009
            ],
            [
              78.453394,
              17.403005
            ],
            [
              78.453393,
              17.403005
            ],
            [
              78.453391,
              17.403005
            ],
            [
              78.453389,
              17.403005
            ],
            [
              78.453383,
              17.403003
            ],
            [
              78.453376,
              17.403002
            ],
            [
              78.453219,
              17.402976
            ],
            [
              78.452906,
              17.402835
            ],
            [
              78.452876,
              17.402821
            ],
            [
              78.452871,
              17.40282
            ],
            [
              78.452736,
              17.402803
            ],
            [
              78.452636,
              17.402738
            ],
            [
              78.452635,
              17.402738
            ],
            [
              78.452634,
              17.402739
            ],
            [
              78.452632,
              17.402739
            ],
            [
              78.45263,
              17.402739
            ],
            [
              78.452629,
              17.402739
            ],
            [
              78.452627,
              17.402739
            ],
            [
              78.452625,
              17.402738
            ],
            [
              78.452624,
              17.402737
            ],
            [
              78.452622,
              17.402737
            ],
            [
              78.452621,
              17.402736
            ],
            [
              78.452619,
              17.402735
            ],
            [
              78.452618,
              17.402734
            ],
            [
              78.452617,
              17.402732
            ],
            [
              78.452616,
              17.402731
            ],
            [
              78.45261,
              17.402722
            ],
            [
              78.452581,
              17.402704
            ],
            [
              78.452581,
              17.402703
            ],
            [
              78.451607,
              17.402373
            ],
            [
              78.451538,
              17.402336
            ],
            [
              78.451507,
              17.402325
            ],
            [
              78.451506,
              17.402324
            ],
            [
              78.451504,
              17.402324
            ],
            [
              78.451503,
              17.402323
            ],
            [
              78.451501,
              17.402322
            ],
            [
              78.4515,
              17.40232
            ],
            [
              78.451488,
              17.402308
            ],
            [
              78.451438,
              17.40228
            ],
            [
              78.450649,
              17.401341
            ],
            [
              78.449108,
              17.399507
            ],
            [
              78.449092,
              17.399497
            ],
            [
              78.448973,
              17.399435
            ],
            [
              78.44897,
              17.399435
            ],
            [
              78.445618,
              17.399099
            ],
            [
              78.445615,
              17.399099
            ],
            [
              78.445143,
              17.399096
            ],
            [
              78.445129,
              17.3991
            ],
            [
              78.444916,
              17.399157
            ],
            [
              78.444712,
              17.399158
            ],
            [
              78.444665,
              17.399158
            ],
            [
              78.444641,
              17.399167
            ],
            [
              78.444451,
              17.399236
            ],
            [
              78.444373,
              17.399254
            ],
            [
              78.443503,
              17.399458
            ],
            [
              78.443502,
              17.399458
            ],
            [
              78.443493,
              17.399461
            ],
            [
              78.442426,
              17.399752
            ],
            [
              78.438875,
              17.399285
            ],
            [
              78.438836,
              17.399267
            ],
            [
              78.438746,
              17.399227
            ],
            [
              78.438744,
              17.399227
            ],
            [
              78.438743,
              17.399226
            ],
            [
              78.438741,
              17.399225
            ],
            [
              78.43874,
              17.399223
            ],
            [
              78.438739,
              17.399222
            ],
            [
              78.43871,
              17.399209
            ],
            [
              78.438707,
              17.399207
            ],
            [
              78.438626,
              17.399209
            ],
            [
              78.437323,
              17.39988
            ],
            [
              78.437321,
              17.399882
            ],
            [
              78.436162,
              17.400725
            ],
            [
              78.434283,
              17.402093
            ],
            [
              78.434091,
              17.402372
            ],
            [
              78.43419,
              17.402423
            ],
            [
              78.434549,
              17.402609
            ]
          ]
        ]
      }
    }
  ]
}