{
  "type": "FeatureCollection",
  "features": [
    {
      "type": "Feature",
      "properties": {},
      "geometry": {
        "type": "Polygon",
        "coordinates": [
          [
            [
              78.374982,
              17.375921
            ],
            [
              78.375043,
              17.375887
            ],
            [
              78.375112,
              17.375849
            ],
            [
              78.375135,
              17.375842
            ],
            [
              78.375196,
              17.37583
            ],
            [
              78.375354,
              17.375779
            ],
            [
              78.375426,
              17.375747
            ],
            [
              78.375451,
              17.375739
            ],
            [
              78.375548,
              17.375729
            ],
            [
              78.375735,
              17.375758
            ],
            [
              78.375796,
              17.375768
            ],
            [
              78.375892,
              17.375741
            ],
            [
              78.376623,
              17.375538
            ],
            [
              78.379954,
              17.375266
            ],
            [
              78.379979,
              17.375264
            ],
            [
              78.379981,
              17.375264
            ],
            [
              78.380064,
              17.375253
            ],
            [
              78.380067,
              17.375251
            ],
            [
              78.380208,
              17.375163
            ],
            [
              78.38024,
              17.37514
            ],
            [
              78.38025,
              17.375133
            ],
            [
              78.380252,
              17.375132
            ],
            [
              78.380254,
              17.375131
            ],
            [
              78.380255,
              17.37513
            ],
            [
              78.380257,
              17.375129
            ],
            [
              78.380259,
              17.375129
            ],
            [
              78.380263,
              17.375129
            ],
            [
              78.380284,
              17.375116
            ],
            [
              78.380683,
              17.375075
            ],
            [
              78.380822,
              17.375068
            ],
            [
              78.381395,
              17.375003
            ],
            [
              78.381417,
              17.375009
            ],
            [
              78.381428,
              17.375007
            ],
            [
              78.381431,
              17.375007
            ],
            [
              78.381433,
              17.375007
            ],
            [
              78.381435,
              17.375007
            ],
            [
              78.381436,
              17.375007
            ],
            [
              78.381438,
              17.375008
            ],
            [
              78.381439,
              17.375008
            ],
            [
              78.381441,
              17.375009
            ],
            [
              78.381463,
              17.37502
            ],
            [
              78.381501,
              17.375029
            ],
            [
              78.381571,
              17.375059
            ],
            [
              78.381686,
              17.375076
            ],
            [
              78.38169,
              17.375076
            ],
            [
              78.381979,
              17.375051
            ],
            [
              78.386613,
              17.374662
            ],
            [
              78.388828,
              17.374675
            ],
            [
              78.388845,
              17.374684
            ],
            [
              78.388848,
              17.374684
            ],
            [
              78.38885,
              17.374684
            ],
            [
              78.388852,
              17.374684
            ],
            [
              78.388853,
              17.374685
            ],
            [
              78.388855,
              17.374685
            ],
            [
              78.388856,
              17.374686
            ],
            [
              78.38903,
              17.374777
            ],
            [
              78.389371,
              17.374955
            ],
            [
              78.390528,
              17.37555
            ],
            [
              78.390646,
              17.375611
            ],
            [
              78.390651,
              17.375613
            ],
            [
              78.391802,
              17.376016
            ],
            [
              78.398378,
              17.378317
            ],
            [
              78.399684,
              17.378989
            ],
            [
              78.399692,
              17.379002
            ],
            [
              78.399703,
              17.379008
            ],
            [
              78.399705,
              17.379009
            ],
            [
              78.399706,
              17.37901
            ],
            [
              78.399708,
              17.379011
            ],
            [
              78.399709,
              17.379013
            ],
            [
              78.39971,
              17.379014
            ],
            [
              78.399711,
              17.379016
            ],
            [
              78.399774,
              17.379134
            ],
            [
              78.399775,
              17.379135
            ],
            [
              78.399775,
              17.379137
            ],
            [
              78.399776,
              17.379139
            ],
            [
              78.399776,
              17.37914
            ],
            [
              78.399776,
              17.379142
            ],
            [
              78.399776,
              17.379144
            ],
            [
              78.399775,
              17.379156
            ],
            [
              78.399775,
              17.379157
            ],
            [
              78.39977,
              17.379202
            ],
            [
              78.39977,
              17.379204
            ],
            [
              78.399769,
              17.379205
            ],
            [
              78.399768,
              17.379208
            ],
            [
              78.399073,
              17.381508
            ],
            [
              78.398375,
              17.383845
            ],
            [
              78.398343,
              17.383953
            ],
            [
              78.39813,
              17.385817
            ],
            [
              78.398434,
              17.38755
            ],
            [
              78.398434,
              17.387553
            ],
            [
              78.400411,
              17.391893
            ],
            [
              78.400424,
              17.391979
            ],
            [
              78.400444,
              17.392079
            ],
            [
              78.400444,
              17.39208
            ],
            [
              78.400444,
              17.392082
            ],
            [
              78.400444,
              17.392084
            ],
            [
              78.400444,
              17.392086
            ],
            [
              78.400443,
              17.392087
            ],
            [
              78.400443,
              17.392089
            ],
            [
              78.400441,
              17.392092
            ],
            [
              78.400443,
              17.392105
            ],
            [
              78.400444,
              17.39211
            ],
            [
              78.401093,
              17.393044
            ],
            [
              78.4011,
              17.393054
            ],
            [
              78.401679,
              17.393415
            ],
            [
              78.401758,
              17.393504
            ],
            [
              78.401759,
              17.393506
            ],
            [
              78.40176,
              17.393506
            ],
            [
              78.40177,
              17.393507
            ],
            [
              78.401771,
              17.393506
            ],
            [
              78.401773,
              17.393505
            ],
            [
              78.401774,
              17.393504
            ],
            [
              78.401776,
              17.393503
            ],
            [
              78.401778,
              17.393502
            ],
            [
              78.40178,
              17.393502
            ],
            [
              78.401782,
              17.393502
            ],
            [
              78.401783,
              17.393502
            ],
            [
              78.401785,
              17.393502
            ],
            [
              78.401878,
              17.393519
            ],
            [
              78.40188,
              17.39352
            ],
            [
              78.401902,
              17.393522
            ],
            [
              78.403653,
              17.394554
            ],
            [
              78.405128,
              17.395038
            ],
            [
              78.409818,
              17.395123
            ],
            [
              78.409894,
              17.395142
            ],
            [
              78.409896,
              17.395143
            ],
            [
              78.409897,
              17.395142
            ],
            [
              78.410607,
              17.394363
            ],
            [
              78.413604,
              17.392301
            ],
            [
              78.413732,
              17.392267
            ],
            [
              78.413837,
              17.392248
            ],
            [
              78.413896,
              17.392224
            ],
            [
              78.413917,
              17.392218
            ],
            [
              78.413942,
              17.392216
            ],
            [
              78.414043,
              17.392218
            ],
            [
              78.414263,
              17.392186
            ],
            [
              78.414264,
              17.392186
            ],
            [
              78.416754,
              17.39171
            ],
            [
              78.418565,
              17.391485
            ],
            [
              78.41976,
              17.391407
            ],
            [
              78.419933,
              17.391445
            ],
            [
              78.419936,
              17.391446
            ],
            [
              78.420019,
              17.391446
            ],
            [
              78.420563,
              17.391444
            ],
            [
              78.420791,
              17.391517
            ],
            [
              78.420803,
              17.391521
            ],
            [
              78.420962,
              17.391507
            ],
            [
              78.420964,
              17.391506
            ],
            [
              78.421126,
              17.391454
            ],
            [
              78.421657,
              17.391523
            ],
            [
              78.423397,
              17.391982
            ],
            [
              78.42441,
              17.392336
            ],
            [
              78.424477,
              17.392402
            ],
            [
              78.424507,
              17.392452
            ],
            [
              78.424613,
              17.392537
            ],
            [
              78.425068,
              17.392734
            ],
            [
              78.42507,
              17.392735
            ],
            [
              78.425129,
              17.392756
            ],
            [
              78.425211,
              17.392752
            ],
            [
              78.425214,
              17.392751
            ],
            [
              78.425365,
              17.392704
            ],
            [
              78.425484,
              17.392726
            ],
            [
              78.426623,
              17.39317
            ],
            [
              78.426783,
              17.393298
            ],
            [
              78.426786,
              17.3933
            ],
            [
              78.426813,
              17.393307
            ],
            [
              78.426942,
              17.393342
            ],
            [
              78.427004,
              17.393389
            ],
            [
              78.427081,
              17.393604
            ],
            [
              78.42707,
              17.393894
            ],
            [
              78.427069,
              17.393915
            ],
            [
              78.427111,
              17.394077
            ],
            [
              78.427112,
              17.39408
            ],
            [
              78.427196,
              17.394302
            ],
            [
              78.427199,
              17.394304
            ],
            [
              78.427282,
              17.39437
            ],
            [
              78.427349,
              17.39448
            ],
            [
              78.427941,
              17.396043
            ],
            [
              78.429135,
              17.4005
            ],
            [
              78.42917,
              17.400659
            ],
            [
              78.429164,
              17.400808
            ],
            [
              78.429163,
              17.400818
            ],
            [
              78.429847,
              17.400934
            ],
            [
              78.42985,
              17.400935
            ],
            [
              78.429867,
              17.400911
            ],
            [
              78.429887,
              17.400852
            ],
            [
              78.429968,
              17.400594
            ],
            [
              78.429968,
              17.400591
            ],
            [
              78.430303,
              17.397189
            ],
            [
              78.430763,
              17.395676
            ],
            [
              78.43077,
              17.395653
            ],
            [
              78.43087,
              17.395316
            ],
            [
              78.430136,
              17.391408
            ],
            [
              78.430135,
              17.391405
            ],
            [
              78.430002,
              17.390938
            ],
            [
              78.429036,
              17.387532
            ],
            [
              78.429025,
              17.386827
            ],
            [
              78.429049,
              17.386753
            ],
            [
              78.429133,
              17.386659
            ],
            [
              78.429138,
              17.386654
            ],
            [
              78.429136,
              17.386649
            ],
            [
              78.429087,
              17.386475
            ],
            [
              78.428962,
              17.381767
            ],
            [
              78.428948,
              17.381259
            ],
            [
              78.428967,
              17.380313
            ],
            [
              78.429029,
              17.380036
            ],
            [
              78.429032,
              17.380025
            ],
            [
              78.42902,
              17.379593
            ],
            [
              78.42902,
              17.37959
            ],
            [
              78.428982,
              17.379521
            ],
            [
              78.428928,
              17.379416
            ],
            [
              78.428907,
              17.379275
            ],
            [
              78.42925,
              17.376517
            ],
            [
              78.431556,
              17.373829
            ],
            [
              78.431627,
              17.373747
            ],
            [
              78.431647,
              17.373645
            ],
            [
              78.431646,
              17.373641
            ],
            [
              78.431613,
              17.37351
            ],
            [
              78.431562,
              17.373456
            ],
            [
              78.42867,
              17.372704
            ],
            [
              78.428491,
              17.372595
            ],
            [
              78.428456,
              17.372572
            ],
            [
              78.428453,
              17.372572
            ],
            [
              78.411799,
              17.370986
            ],
            [
              78.411785,
              17.370993
            ],
            [
              78.411696,
              17.371037
            ],
            [
              78.411432,
              17.3711
            ],
            [
              78.411173,
              17.371106
            ],
            [
              78.411161,
              17.371106
            ],
            [
              78.407914,
              17.3728
            ],
            [
              78.407755,
              17.372823
            ],
            [
              78.407696,
              17.372792
            ],
            [
              78.407655,
              17.372723
            ],
            [
              78.407604,
              17.371782
            ],
            [
              78.407604,
              17.371771
            ],
            [
              78.407176,
              17.370043
            ],
            [
              78.407164,
              17.370021
            ],
            [
              78.405376,
              17.36669
            ],
            [
              78.405376,
              17.366689
            ],
            [
              78.405256,
              17.366683
            ],
            [
              78.400334,
              17.366426
            ],
            [
              78.400241,
              17.36638
            ],
            [
              78.399135,
              17.36583
            ],
            [
              78.39788,
              17.365215
            ],
            [
              78.397163,
              17.364873
            ],
            [
              78.39716,
              17.364872
            ],
            [
              78.39701,
              17.364815
            ],
            [
              78.395092,
              17.364086
            ],
            [
              78.394872,
              17.363831
            ],
            [
              78.394865,
              17.363822
            ],
            [
              78.394805,
              17.363776
            ],
            [
              78.394716,
              17.363722
            ],
            [
              78.394659,
              17.363695
            ],
            [
              78.394639,
              17.363683
            ],
            [
              78.394577,
              17.363609
            ],
            [
              78.394146,
              17.362919
            ],
            [
              78.394129,
              17.362849
            ],
            [
              78.39411,
              17.362796
            ],
            [
              78.39411,
              17.362795
            ],
            [
              78.394109,
              17.362793
            ],
            [
              78.394094,
              17.362702
            ],
            [
              78.394056,
              17.362541
            ],
            [
              78.394056,
              17.362539
            ],
            [
              78.393579,
              17.36187
            ],
            [
              78.393486,
              17.361825
            ],
            [
              78.391688,
              17.361595
            ],
            [
              78.391516,
              17.361539
            ],
            [
              78.391375,
              17.361433
            ],
            [
              78.391363,
              17.361423
            ],
            [
              78.390095,
              17.361246
            ],
            [
              78.389813,
              17.361156
            ],
            [
              78.389789,
              17.361148
            ],
            [
              78.389785,
              17.361148
            ],
            [
              78.389619,
              17.361156
            ],
            [
              78.381257,
              17.359063
            ],
            [
              78.381255,
              17.359062
            ],
            [
              78.380678,
              17.358963
            ],
            [
              78.378158,
              17.35853
            ],
            [
              78.374704,
              17.357532
            ],
            [
              78.374703,
              17.357532
            ],
            [
              78.373691,
              17.357267
            ],
            [
              78.373492,
              17.357222
            ],
            [
              78.373489,
              17.357221
            ],
            [
              78.373249,
              17.357204
            ],
            [
              78.373246,
              17.357204
            ],
            [
              78.371892,
              17.357241
            ],
            [
              78.370593,
              17.357277
            ],
            [
              78.370589,
              17.357277
            ],
            [
              78.367731,
              17.358015
            ],
            [
              78.36773,
              17.358016
            ],
            [
              78.367723,
              17.35802
            ],
            [
              78.367711,
              17.358029
            ],
            [
              78.367635,
              17.358081
            ],
            [
              78.367474,
              17.358117
            ],
            [
              78.367463,
              17.358119
            ],
            [
              78.367482,
              17.358187
            ],
            [
              78.367562,
              17.358478
            ],
            [
              78.367785,
              17.359748
            ],
            [
              78.367885,
              17.361033
            ],
            [
              78.367874,
              17.361653
            ],
            [
              78.367863,
              17.36231
            ],
            [
              78.367717,
              17.3636
            ],
            [
              78.367595,
              17.364355
            ],
            [
              78.367389,
              17.365621
            ],
            [
              78.367256,
              17.365787
            ],
            [
              78.367255,
              17.365788
            ],
            [
              78.367256,
              17.365791
            ],
            [
              78.367634,
              17.367233
            ],
            [
              78.367846,
              17.368643
            ],
            [
              78.367907,
              17.370069
            ],
            [
              78.367818,
              17.371482
            ],
            [
              78.367727,
              17.372269
            ],
            [
              78.367456,
              17.373532
            ],
            [
              78.367066,
              17.374764
            ],
            [
              78.366737,
              17.375536
            ],
            [
              78.366656,
              17.375726
            ],
            [
              78.36685,
              17.375932
            ],
            [
              78.366955,
              17.376003
            ],
            [
              78.366958,
              17.376004
            ],
            [
              78.369347,
              17.37699
            ],
            [
              78.369351,
              17.376992
            ],
            [
              78.370399,
              17.377157
            ],
            [
              78.373249,
              17.376388
            ],
            [
              78.374839,
              17.375955
            ],
            [
              78.374841,
              17.375954
            ],
            [
              78.374887,
              17.375947
            ],
            [
              78.374979,
              17.375922
            ],
            [
              78.374982,
              17.375921
            ]
          ]
        ]
      }
    }
  ]
}