{
  "type": "FeatureCollection",
  "features": [
    {
      "type": "Feature",
      "properties": {},
      "geometry": {
        "type": "Polygon",
        "coordinates": [
          [
            [
              78.36596,
              17.409186
            ],
            [
              78.366408,
              17.410507
            ],
            [
              78.367002,
              17.412616
            ],
            [
              78.367589,
              17.414701
            ],
            [
              78.369668,
              17.417226
            ],
            [
              78.386726,
              17.416234
            ],
            [
              78.386756,
              17.416165
            ],
            [
              78.386864,
              17.415913
            ],
            [
              78.386918,
              17.41586
            ],
            [
              78.389551,
              17.414419
            ],
            [
              78.390021,
              17.414194
            ],
            [
              78.390835,
              17.413804
            ],
            [
              78.391355,
              17.413611
            ],
            [
              78.391494,
              17.413559
            ],
            [
              78.391487,
              17.413539
            ],
            [
              78.39148,
              17.41352
            ],
            [
              78.391481,
              17.413519
            ],
            [
              78.39148,
              17.413519
            ],
            [
              78.391462,
              17.413468
            ],
            [
              78.391462,
              17.41345
            ],
            [
              78.391448,
              17.413427
            ],
            [
              78.391389,
              17.413255
            ],
            [
              78.391476,
              17.410923
            ],
            [
              78.389898,
              17.407701
            ],
            [
              78.389874,
              17.407604
            ],
            [
              78.389879,
              17.407269
            ],
            [
              78.390116,
              17.406143
            ],
            [
              78.391781,
              17.401404
            ],
            [
              78.391827,
              17.401306
            ],
            [
              78.391971,
              17.401165
            ],
            [
              78.392025,
              17.401113
            ],
            [
              78.392325,
              17.400339
            ],
            [
              78.392328,
              17.400309
            ],
            [
              78.392346,
              17.400118
            ],
            [
              78.392422,
              17.399891
            ],
            [
              78.392434,
              17.399855
            ],
            [
              78.392432,
              17.399844
            ],
            [
              78.392408,
              17.399658
            ],
            [
              78.392469,
              17.399467
            ],
            [
              78.392471,
              17.399461
            ],
            [
              78.392464,
              17.399347
            ],
            [
              78.392214,
              17.39925
            ],
            [
              78.392211,
              17.399249
            ],
            [
              78.37401,
              17.400547
            ],
            [
              78.373864,
              17.400531
            ],
            [
              78.373758,
              17.400476
            ],
            [
              78.373692,
              17.400439
            ],
            [
              78.363991,
              17.401145
            ],
            [
              78.36396,
              17.401165
            ],
            [
              78.363813,
              17.401261
            ],
            [
              78.363685,
              17.401297
            ],
            [
              78.363679,
              17.401299
            ],
            [
              78.363095,
              17.401722
            ],
            [
              78.361872,
              17.403264
            ],
            [
              78.361755,
              17.403569
            ],
            [
              78.361757,
              17.40357
            ],
            [
              78.362909,
              17.404577
            ],
            [
              78.363846,
              17.405605
            ],
            [
              78.364674,
              17.406723
            ],
            [
              78.36538,
              17.407921
            ],
            [
              78.36596,
              17.409186
            ]
          ]
        ]
      }
    }
  ]
}