{
  "type": "FeatureCollection",
  "features": [
    {
      "type": "Feature",
      "properties": {},
      "geometry": {
        "type": "Polygon",
        "coordinates": [
          [
            [
              78.43801,
              17.365606
            ],
            [
              78.436688,
              17.365535
            ],
            [
              78.435818,
              17.365403
            ],
            [
              78.435404,
              17.365341
            ],
            [
              78.43519,
              17.365288
            ],
            [
              78.43514,
              17.365275
            ],
            [
              78.435141,
              17.36528
            ],
            [
              78.435151,
              17.36539
            ],
            [
              78.435147,
              17.365412
            ],
            [
              78.435121,
              17.365493
            ],
            [
              78.435119,
              17.365574
            ],
            [
              78.435117,
              17.365586
            ],
            [
              78.434949,
              17.36619
            ],
            [
              78.433038,
              17.372419
            ],
            [
              78.433084,
              17.372565
            ],
            [
              78.433089,
              17.37257
            ],
            [
              78.434583,
              17.37415
            ],
            [
              78.434591,
              17.374159
            ],
            [
              78.437192,
              17.375774
            ],
            [
              78.437214,
              17.375775
            ],
            [
              78.437506,
              17.375787
            ],
            [
              78.43765,
              17.375861
            ],
            [
              78.437692,
              17.375884
            ],
            [
              78.437695,
              17.375884
            ],
            [
              78.437728,
              17.375882
            ],
            [
              78.437832,
              17.375803
            ],
            [
              78.437856,
              17.375789
            ],
            [
              78.437997,
              17.375757
            ],
            [
              78.443947,
              17.375467
            ],
            [
              78.444258,
              17.375403
            ],
            [
              78.445095,
              17.375232
            ],
            [
              78.445584,
              17.375164
            ],
            [
              78.445659,
              17.375166
            ],
            [
              78.44582,
              17.375169
            ],
            [
              78.445823,
              17.375168
            ],
            [
              78.446572,
              17.37496
            ],
            [
              78.446725,
              17.37489
            ],
            [
              78.446727,
              17.374888
            ],
            [
              78.446843,
              17.37478
            ],
            [
              78.447314,
              17.374658
            ],
            [
              78.44734,
              17.374651
            ],
            [
              78.447429,
              17.374611
            ],
            [
              78.44777,
              17.374456
            ],
            [
              78.448044,
              17.37443
            ],
            [
              78.448055,
              17.374429
            ],
            [
              78.448295,
              17.3743
            ],
            [
              78.448298,
              17.374296
            ],
            [
              78.448383,
              17.374167
            ],
            [
              78.44854,
              17.374072
            ],
            [
              78.449614,
              17.373724
            ],
            [
              78.449807,
              17.373662
            ],
            [
              78.449809,
              17.373654
            ],
            [
              78.449846,
              17.373538
            ],
            [
              78.449968,
              17.373379
            ],
            [
              78.450134,
              17.373257
            ],
            [
              78.450339,
              17.373192
            ],
            [
              78.450486,
              17.3732
            ],
            [
              78.450498,
              17.373201
            ],
            [
              78.450649,
              17.373125
            ],
            [
              78.45125,
              17.372824
            ],
            [
              78.45142,
              17.372823
            ],
            [
              78.451423,
              17.372823
            ],
            [
              78.451549,
              17.372789
            ],
            [
              78.451795,
              17.372644
            ],
            [
              78.451801,
              17.372637
            ],
            [
              78.451921,
              17.372515
            ],
            [
              78.452066,
              17.372449
            ],
            [
              78.452946,
              17.372133
            ],
            [
              78.455798,
              17.37122
            ],
            [
              78.455874,
              17.371171
            ],
            [
              78.456225,
              17.370945
            ],
            [
              78.456261,
              17.370933
            ],
            [
              78.456385,
              17.370908
            ],
            [
              78.456549,
              17.370832
            ],
            [
              78.456811,
              17.370594
            ],
            [
              78.456812,
              17.370591
            ],
            [
              78.456874,
              17.370396
            ],
            [
              78.457174,
              17.370075
            ],
            [
              78.457247,
              17.37003
            ],
            [
              78.457384,
              17.369963
            ],
            [
              78.457428,
              17.369917
            ],
            [
              78.457516,
              17.36974
            ],
            [
              78.457517,
              17.369733
            ],
            [
              78.457559,
              17.369519
            ],
            [
              78.45788,
              17.369078
            ],
            [
              78.457909,
              17.369038
            ],
            [
              78.458009,
              17.368808
            ],
            [
              78.45801,
              17.368805
            ],
            [
              78.457985,
              17.368486
            ],
            [
              78.457717,
              17.368393
            ],
            [
              78.457712,
              17.368393
            ],
            [
              78.457606,
              17.368394
            ],
            [
              78.457484,
              17.36836
            ],
            [
              78.457473,
              17.368343
            ],
            [
              78.457323,
              17.368314
            ],
            [
              78.45211,
              17.36855
            ],
            [
              78.450463,
              17.368625
            ],
            [
              78.45025,
              17.368561
            ],
            [
              78.450247,
              17.36856
            ],
            [
              78.449591,
              17.368527
            ],
            [
              78.449491,
              17.36853
            ],
            [
              78.449378,
              17.368564
            ],
            [
              78.449354,
              17.368568
            ],
            [
              78.449184,
              17.36855
            ],
            [
              78.44916,
              17.368547
            ],
            [
              78.449157,
              17.368547
            ],
            [
              78.447628,
              17.368609
            ],
            [
              78.447625,
              17.368609
            ],
            [
              78.447587,
              17.368618
            ],
            [
              78.447451,
              17.368646
            ],
            [
              78.446835,
              17.368632
            ],
            [
              78.446626,
              17.368627
            ],
            [
              78.446489,
              17.368664
            ],
            [
              78.446483,
              17.368669
            ],
            [
              78.446399,
              17.368742
            ],
            [
              78.446295,
              17.368777
            ],
            [
              78.445865,
              17.368738
            ],
            [
              78.442561,
              17.368012
            ],
            [
              78.441248,
              17.365588
            ],
            [
              78.441216,
              17.365439
            ],
            [
              78.441218,
              17.36541
            ],
            [
              78.441231,
              17.365364
            ],
            [
              78.441225,
              17.365311
            ],
            [
              78.441232,
              17.365223
            ],
            [
              78.441112,
              17.365252
            ],
            [
              78.440634,
              17.365365
            ],
            [
              78.439987,
              17.365456
            ],
            [
              78.439391,
              17.36554
            ],
            [
              78.43801,
              17.365606
            ]
          ]
        ]
      }
    }
  ]
}