{
  "type": "FeatureCollection",
  "features": [
    {
      "type": "Feature",
      "properties": {},
      "geometry": {
        "type": "Polygon",
        "coordinates": [
          [
            [
              78.429876,
              17.40094
            ],
            [
              78.430032,
              17.400969
            ],
            [
              78.430747,
              17.401103
            ],
            [
              78.431277,
              17.401258
            ],
            [
              78.432053,
              17.401486
            ],
            [
              78.433324,
              17.401987
            ],
            [
              78.433905,
              17.402278
            ],
            [
              78.434065,
              17.402358
            ],
            [
              78.434065,
              17.402357
            ],
            [
              78.434287,
              17.402056
            ],
            [
              78.436114,
              17.400726
            ],
            [
              78.4373,
              17.399863
            ],
            [
              78.438565,
              17.399203
            ],
            [
              78.438718,
              17.399171
            ],
            [
              78.438722,
              17.39917
            ],
            [
              78.438723,
              17.399167
            ],
            [
              78.438751,
              17.399061
            ],
            [
              78.439503,
              17.397756
            ],
            [
              78.440656,
              17.396686
            ],
            [
              78.441442,
              17.39624
            ],
            [
              78.442171,
              17.396146
            ],
            [
              78.44238,
              17.396178
            ],
            [
              78.442395,
              17.39618
            ],
            [
              78.442642,
              17.396028
            ],
            [
              78.442659,
              17.395988
            ],
            [
              78.4427,
              17.395716
            ],
            [
              78.44269,
              17.395506
            ],
            [
              78.442654,
              17.39522
            ],
            [
              78.442517,
              17.394113
            ],
            [
              78.442524,
              17.394069
            ],
            [
              78.442546,
              17.394016
            ],
            [
              78.442554,
              17.393848
            ],
            [
              78.442559,
              17.39381
            ],
            [
              78.442627,
              17.39364
            ],
            [
              78.44264,
              17.393608
            ],
            [
              78.442638,
              17.393607
            ],
            [
              78.442516,
              17.393495
            ],
            [
              78.442507,
              17.39348
            ],
            [
              78.442455,
              17.393439
            ],
            [
              78.442422,
              17.39341
            ],
            [
              78.442373,
              17.393316
            ],
            [
              78.44238,
              17.393186
            ],
            [
              78.442382,
              17.393171
            ],
            [
              78.442382,
              17.393167
            ],
            [
              78.44224,
              17.391931
            ],
            [
              78.442213,
              17.391855
            ],
            [
              78.442209,
              17.391851
            ],
            [
              78.44161,
              17.391085
            ],
            [
              78.441586,
              17.390996
            ],
            [
              78.441574,
              17.390886
            ],
            [
              78.441524,
              17.390759
            ],
            [
              78.441213,
              17.390341
            ],
            [
              78.440808,
              17.389799
            ],
            [
              78.440806,
              17.389796
            ],
            [
              78.44074,
              17.389748
            ],
            [
              78.440505,
              17.38957
            ],
            [
              78.440272,
              17.389226
            ],
            [
              78.440211,
              17.388861
            ],
            [
              78.44021,
              17.388852
            ],
            [
              78.440208,
              17.388847
            ],
            [
              78.440106,
              17.388596
            ],
            [
              78.4401,
              17.38849
            ],
            [
              78.440108,
              17.388463
            ],
            [
              78.440154,
              17.388356
            ],
            [
              78.440151,
              17.388328
            ],
            [
              78.440151,
              17.388327
            ],
            [
              78.440158,
              17.388305
            ],
            [
              78.440157,
              17.388299
            ],
            [
              78.440085,
              17.387404
            ],
            [
              78.440085,
              17.3874
            ],
            [
              78.440064,
              17.387331
            ],
            [
              78.440024,
              17.387274
            ],
            [
              78.439979,
              17.38718
            ],
            [
              78.439994,
              17.38557
            ],
            [
              78.439997,
              17.385245
            ],
            [
              78.43998,
              17.385218
            ],
            [
              78.439001,
              17.38362
            ],
            [
              78.438886,
              17.383429
            ],
            [
              78.438943,
              17.383525
            ],
            [
              78.438789,
              17.383274
            ],
            [
              78.438784,
              17.383266
            ],
            [
              78.43878,
              17.383266
            ],
            [
              78.438481,
              17.383228
            ],
            [
              78.438475,
              17.383222
            ],
            [
              78.438406,
              17.383218
            ],
            [
              78.438403,
              17.383218
            ],
            [
              78.438115,
              17.38324
            ],
            [
              78.43772,
              17.383265
            ],
            [
              78.437597,
              17.38328
            ],
            [
              78.437433,
              17.383292
            ],
            [
              78.437315,
              17.383296
            ],
            [
              78.437202,
              17.38331
            ],
            [
              78.435822,
              17.383415
            ],
            [
              78.435773,
              17.383419
            ],
            [
              78.434174,
              17.384256
            ],
            [
              78.433309,
              17.384699
            ],
            [
              78.430759,
              17.386044
            ],
            [
              78.431218,
              17.385809
            ],
            [
              78.431186,
              17.385826
            ],
            [
              78.429904,
              17.386482
            ],
            [
              78.429673,
              17.38662
            ],
            [
              78.429667,
              17.386623
            ],
            [
              78.429437,
              17.386709
            ],
            [
              78.429294,
              17.386711
            ],
            [
              78.429265,
              17.386704
            ],
            [
              78.429268,
              17.386704
            ],
            [
              78.429155,
              17.386676
            ],
            [
              78.429094,
              17.386753
            ],
            [
              78.429069,
              17.386768
            ],
            [
              78.429052,
              17.38681
            ],
            [
              78.429063,
              17.387534
            ],
            [
              78.430159,
              17.391392
            ],
            [
              78.430894,
              17.3953
            ],
            [
              78.430338,
              17.397164
            ],
            [
              78.430329,
              17.397195
            ],
            [
              78.429996,
              17.400587
            ],
            [
              78.429876,
              17.40094
            ]
          ]
        ]
      }
    }
  ]
}