{
  "type": "FeatureCollection",
  "features": [
    {
      "type": "Feature",
      "properties": {},
      "geometry": {
        "type": "Polygon",
        "coordinates": [
          [
            [
              78.405962,
              17.4039
            ],
            [
              78.407047,
              17.404093
            ],
            [
              78.407217,
              17.404203
            ],
            [
              78.407218,
              17.404204
            ],
            [
              78.407297,
              17.4042
            ],
            [
              78.4073,
              17.404199
            ],
            [
              78.409064,
              17.403554
            ],
            [
              78.409067,
              17.403552
            ],
            [
              78.409204,
              17.403482
            ],
            [
              78.409214,
              17.403478
            ],
            [
              78.410501,
              17.402814
            ],
            [
              78.410502,
              17.402814
            ],
            [
              78.410863,
              17.402619
            ],
            [
              78.411022,
              17.402511
            ],
            [
              78.411424,
              17.402273
            ],
            [
              78.411426,
              17.402272
            ],
            [
              78.412625,
              17.401436
            ],
            [
              78.412646,
              17.401414
            ],
            [
              78.412716,
              17.401365
            ],
            [
              78.412857,
              17.401394
            ],
            [
              78.412858,
              17.401394
            ],
            [
              78.412859,
              17.401394
            ],
            [
              78.413048,
              17.401355
            ],
            [
              78.414545,
              17.401516
            ],
            [
              78.414567,
              17.401511
            ],
            [
              78.414619,
              17.401516
            ],
            [
              78.414648,
              17.401387
            ],
            [
              78.415068,
              17.399511
            ],
            [
              78.415308,
              17.399209
            ],
            [
              78.415355,
              17.399183
            ],
            [
              78.415368,
              17.399167
            ],
            [
              78.41537,
              17.399166
            ],
            [
              78.415371,
              17.399165
            ],
            [
              78.415372,
              17.399164
            ],
            [
              78.415374,
              17.399163
            ],
            [
              78.415375,
              17.399162
            ],
            [
              78.415376,
              17.399162
            ],
            [
              78.415402,
              17.39915
            ],
            [
              78.415403,
              17.399148
            ],
            [
              78.415405,
              17.399147
            ],
            [
              78.415406,
              17.399146
            ],
            [
              78.415408,
              17.399145
            ],
            [
              78.41541,
              17.399144
            ],
            [
              78.415411,
              17.399144
            ],
            [
              78.415413,
              17.399143
            ],
            [
              78.415415,
              17.399143
            ],
            [
              78.415416,
              17.399143
            ],
            [
              78.415433,
              17.399135
            ],
            [
              78.415434,
              17.399134
            ],
            [
              78.415435,
              17.399133
            ],
            [
              78.415436,
              17.399131
            ],
            [
              78.415438,
              17.39913
            ],
            [
              78.415439,
              17.399129
            ],
            [
              78.415441,
              17.399128
            ],
            [
              78.415442,
              17.399127
            ],
            [
              78.415444,
              17.399127
            ],
            [
              78.415445,
              17.399126
            ],
            [
              78.415447,
              17.399126
            ],
            [
              78.415449,
              17.399126
            ],
            [
              78.415452,
              17.399126
            ],
            [
              78.415474,
              17.399116
            ],
            [
              78.41549,
              17.399107
            ],
            [
              78.415503,
              17.399097
            ],
            [
              78.415505,
              17.399096
            ],
            [
              78.415506,
              17.399095
            ],
            [
              78.415508,
              17.399094
            ],
            [
              78.41551,
              17.399094
            ],
            [
              78.415512,
              17.399093
            ],
            [
              78.415515,
              17.399093
            ],
            [
              78.415549,
              17.399074
            ],
            [
              78.41555,
              17.399073
            ],
            [
              78.415761,
              17.398819
            ],
            [
              78.415565,
              17.398607
            ],
            [
              78.415504,
              17.398579
            ],
            [
              78.415289,
              17.398478
            ],
            [
              78.415268,
              17.398463
            ],
            [
              78.415144,
              17.398357
            ],
            [
              78.415031,
              17.398293
            ],
            [
              78.414895,
              17.398258
            ],
            [
              78.414852,
              17.398262
            ],
            [
              78.414677,
              17.398278
            ],
            [
              78.414466,
              17.398243
            ],
            [
              78.413813,
              17.398032
            ],
            [
              78.413611,
              17.397961
            ],
            [
              78.412949,
              17.397753
            ],
            [
              78.412302,
              17.397544
            ],
            [
              78.410147,
              17.39547
            ],
            [
              78.409946,
              17.395242
            ],
            [
              78.40987,
              17.395155
            ],
            [
              78.409572,
              17.395149
            ],
            [
              78.405116,
              17.395062
            ],
            [
              78.403642,
              17.394577
            ],
            [
              78.401878,
              17.393539
            ],
            [
              78.401875,
              17.393537
            ],
            [
              78.401782,
              17.39352
            ],
            [
              78.401683,
              17.393656
            ],
            [
              78.401682,
              17.393659
            ],
            [
              78.40038,
              17.396983
            ],
            [
              78.400422,
              17.397576
            ],
            [
              78.400412,
              17.397846
            ],
            [
              78.40041,
              17.397884
            ],
            [
              78.400411,
              17.397888
            ],
            [
              78.400443,
              17.398062
            ],
            [
              78.400352,
              17.398211
            ],
            [
              78.400314,
              17.398255
            ],
            [
              78.400278,
              17.398331
            ],
            [
              78.400329,
              17.398633
            ],
            [
              78.400331,
              17.398635
            ],
            [
              78.400446,
              17.398832
            ],
            [
              78.400548,
              17.402103
            ],
            [
              78.400548,
              17.402105
            ],
            [
              78.400612,
              17.402812
            ],
            [
              78.40064,
              17.402909
            ],
            [
              78.400695,
              17.402916
            ],
            [
              78.400917,
              17.402946
            ],
            [
              78.401045,
              17.403016
            ],
            [
              78.401046,
              17.403017
            ],
            [
              78.401579,
              17.403122
            ],
            [
              78.40158,
              17.403122
            ],
            [
              78.405734,
              17.40386
            ],
            [
              78.405843,
              17.403881
            ],
            [
              78.405962,
              17.4039
            ]
          ]
        ]
      }
    }
  ]
}