{
  "type": "FeatureCollection",
  "features": [
    {
      "type": "Feature",
      "properties": {},
      "geometry": {
        "type": "Polygon",
        "coordinates": [
          [
            [
              78.450077,
              17.390588
            ],
            [
              78.446902,
              17.391886
            ],
            [
              78.446591,
              17.392013
            ],
            [
              78.446304,
              17.392062
            ],
            [
              78.446252,
              17.39207
            ],
            [
              78.446249,
              17.392071
            ],
            [
              78.443039,
              17.393276
            ],
            [
              78.44302,
              17.393296
            ],
            [
              78.442904,
              17.393418
            ],
            [
              78.44288,
              17.393434
            ],
            [
              78.442779,
              17.393487
            ],
            [
              78.442749,
              17.393523
            ],
            [
              78.442657,
              17.393585
            ],
            [
              78.442656,
              17.393586
            ],
            [
              78.442656,
              17.393587
            ],
            [
              78.442656,
              17.393599
            ],
            [
              78.442656,
              17.393601
            ],
            [
              78.442657,
              17.393602
            ],
            [
              78.442658,
              17.393604
            ],
            [
              78.442658,
              17.393606
            ],
            [
              78.442658,
              17.393608
            ],
            [
              78.442658,
              17.39361
            ],
            [
              78.442658,
              17.393611
            ],
            [
              78.442657,
              17.393613
            ],
            [
              78.442657,
              17.393615
            ],
            [
              78.442655,
              17.393619
            ],
            [
              78.442653,
              17.393664
            ],
            [
              78.442596,
              17.393778
            ],
            [
              78.442592,
              17.393786
            ],
            [
              78.442589,
              17.393834
            ],
            [
              78.442575,
              17.394029
            ],
            [
              78.442543,
              17.394098
            ],
            [
              78.442542,
              17.394099
            ],
            [
              78.442572,
              17.394352
            ],
            [
              78.442574,
              17.394354
            ],
            [
              78.4426,
              17.394566
            ],
            [
              78.442603,
              17.394627
            ],
            [
              78.442707,
              17.39543
            ],
            [
              78.442717,
              17.39551
            ],
            [
              78.442726,
              17.395719
            ],
            [
              78.442701,
              17.395827
            ],
            [
              78.442677,
              17.395991
            ],
            [
              78.442676,
              17.395992
            ],
            [
              78.442676,
              17.395994
            ],
            [
              78.442676,
              17.395995
            ],
            [
              78.442659,
              17.396035
            ],
            [
              78.442658,
              17.396037
            ],
            [
              78.442657,
              17.396038
            ],
            [
              78.442656,
              17.39604
            ],
            [
              78.442654,
              17.396041
            ],
            [
              78.442653,
              17.396042
            ],
            [
              78.442651,
              17.396043
            ],
            [
              78.442404,
              17.396195
            ],
            [
              78.442403,
              17.396196
            ],
            [
              78.442401,
              17.396197
            ],
            [
              78.442399,
              17.396197
            ],
            [
              78.442398,
              17.396198
            ],
            [
              78.442396,
              17.396198
            ],
            [
              78.442394,
              17.396198
            ],
            [
              78.442391,
              17.396199
            ],
            [
              78.44218,
              17.396173
            ],
            [
              78.442175,
              17.396172
            ],
            [
              78.44145,
              17.396264
            ],
            [
              78.440671,
              17.396706
            ],
            [
              78.439528,
              17.397766
            ],
            [
              78.43877,
              17.399081
            ],
            [
              78.438768,
              17.399084
            ],
            [
              78.438753,
              17.399211
            ],
            [
              78.438856,
              17.399256
            ],
            [
              78.438859,
              17.399256
            ],
            [
              78.442441,
              17.399728
            ],
            [
              78.443492,
              17.399432
            ],
            [
              78.444447,
              17.399209
            ],
            [
              78.444451,
              17.399208
            ],
            [
              78.444547,
              17.399173
            ],
            [
              78.444653,
              17.399135
            ],
            [
              78.44491,
              17.399131
            ],
            [
              78.444917,
              17.399131
            ],
            [
              78.44493,
              17.399127
            ],
            [
              78.445149,
              17.39907
            ],
            [
              78.445625,
              17.399073
            ],
            [
              78.44898,
              17.399411
            ],
            [
              78.449145,
              17.399507
            ],
            [
              78.451354,
              17.402143
            ],
            [
              78.451513,
              17.402308
            ],
            [
              78.45256,
              17.402665
            ],
            [
              78.452617,
              17.402699
            ],
            [
              78.452631,
              17.402721
            ],
            [
              78.452643,
              17.402715
            ],
            [
              78.452753,
              17.402781
            ],
            [
              78.452757,
              17.402784
            ],
            [
              78.452761,
              17.402784
            ],
            [
              78.452887,
              17.402798
            ],
            [
              78.453132,
              17.402909
            ],
            [
              78.453223,
              17.402951
            ],
            [
              78.453393,
              17.402987
            ],
            [
              78.453395,
              17.402986
            ],
            [
              78.453637,
              17.402874
            ],
            [
              78.453714,
              17.402849
            ],
            [
              78.453745,
              17.402824
            ],
            [
              78.454083,
              17.40195
            ],
            [
              78.454122,
              17.40183
            ],
            [
              78.454121,
              17.401826
            ],
            [
              78.454174,
              17.401685
            ],
            [
              78.454176,
              17.401685
            ],
            [
              78.454175,
              17.401683
            ],
            [
              78.454184,
              17.40166
            ],
            [
              78.454201,
              17.40163
            ],
            [
              78.454218,
              17.40161
            ],
            [
              78.454224,
              17.401589
            ],
            [
              78.45431,
              17.401442
            ],
            [
              78.454448,
              17.40133
            ],
            [
              78.454452,
              17.401327
            ],
            [
              78.454517,
              17.40119
            ],
            [
              78.454514,
              17.401179
            ],
            [
              78.454473,
              17.401008
            ],
            [
              78.454493,
              17.400868
            ],
            [
              78.456071,
              17.396455
            ],
            [
              78.457994,
              17.392883
            ],
            [
              78.458243,
              17.392532
            ],
            [
              78.458244,
              17.392531
            ],
            [
              78.458308,
              17.392337
            ],
            [
              78.458314,
              17.392296
            ],
            [
              78.458375,
              17.392095
            ],
            [
              78.458537,
              17.391939
            ],
            [
              78.458541,
              17.391935
            ],
            [
              78.458616,
              17.391776
            ],
            [
              78.458437,
              17.391388
            ],
            [
              78.457957,
              17.39104
            ],
            [
              78.457952,
              17.391038
            ],
            [
              78.457703,
              17.390941
            ],
            [
              78.455468,
              17.389118
            ],
            [
              78.455465,
              17.389117
            ],
            [
              78.455384,
              17.389079
            ],
            [
              78.455185,
              17.389048
            ],
            [
              78.455157,
              17.389041
            ],
            [
              78.455023,
              17.388963
            ],
            [
              78.455014,
              17.388958
            ],
            [
              78.45501,
              17.38896
            ],
            [
              78.454794,
              17.389061
            ],
            [
              78.454786,
              17.389061
            ],
            [
              78.454557,
              17.389063
            ],
            [
              78.454352,
              17.389097
            ],
            [
              78.454324,
              17.389099
            ],
            [
              78.454302,
              17.389096
            ],
            [
              78.454124,
              17.38906
            ],
            [
              78.453835,
              17.389048
            ],
            [
              78.453832,
              17.38905
            ],
            [
              78.45362,
              17.389158
            ],
            [
              78.453179,
              17.389167
            ],
            [
              78.453078,
              17.389169
            ],
            [
              78.453074,
              17.389177
            ],
            [
              78.45301,
              17.38929
            ],
            [
              78.452997,
              17.389304
            ],
            [
              78.452838,
              17.389468
            ],
            [
              78.452829,
              17.389488
            ],
            [
              78.452676,
              17.389656
            ],
            [
              78.450078,
              17.390587
            ],
            [
              78.450077,
              17.390588
            ]
          ]
        ]
      }
    }
  ]
}