{
  "type": "FeatureCollection",
  "features": [
    {
      "type": "Feature",
      "properties": {},
      "geometry": {
        "type": "Polygon",
        "coordinates": [
          [
            [
              78.415089,
              17.403342
            ],
            [
              78.415087,
              17.403341
            ],
            [
              78.415086,
              17.403339
            ],
            [
              78.415085,
              17.403338
            ],
            [
              78.415084,
              17.403336
            ],
            [
              78.415083,
              17.403335
            ],
            [
              78.415082,
              17.403333
            ],
            [
              78.415081,
              17.403331
            ],
            [
              78.414935,
              17.402692
            ],
            [
              78.41467,
              17.401573
            ],
            [
              78.414669,
              17.401572
            ],
            [
              78.414664,
              17.401564
            ],
            [
              78.414642,
              17.401537
            ],
            [
              78.414641,
              17.401537
            ],
            [
              78.414565,
              17.40153
            ],
            [
              78.414549,
              17.401533
            ],
            [
              78.414548,
              17.401534
            ],
            [
              78.414546,
              17.401534
            ],
            [
              78.414545,
              17.401534
            ],
            [
              78.414543,
              17.401534
            ],
            [
              78.413924,
              17.401467
            ],
            [
              78.413053,
              17.401382
            ],
            [
              78.413033,
              17.40138
            ],
            [
              78.413021,
              17.401383
            ],
            [
              78.412879,
              17.401414
            ],
            [
              78.412863,
              17.401411
            ],
            [
              78.412861,
              17.401412
            ],
            [
              78.412859,
              17.401412
            ],
            [
              78.412858,
              17.401412
            ],
            [
              78.412856,
              17.401412
            ],
            [
              78.412854,
              17.401412
            ],
            [
              78.412853,
              17.401411
            ],
            [
              78.412852,
              17.401411
            ],
            [
              78.412733,
              17.401386
            ],
            [
              78.412717,
              17.401386
            ],
            [
              78.412658,
              17.401428
            ],
            [
              78.412638,
              17.401448
            ],
            [
              78.412637,
              17.40145
            ],
            [
              78.412635,
              17.401451
            ],
            [
              78.412064,
              17.401849
            ],
            [
              78.411443,
              17.402293
            ],
            [
              78.41088,
              17.40264
            ],
            [
              78.409368,
              17.403435
            ],
            [
              78.409281,
              17.403477
            ],
            [
              78.409338,
              17.403446
            ],
            [
              78.409131,
              17.40355
            ],
            [
              78.409066,
              17.403582
            ],
            [
              78.407294,
              17.404225
            ],
            [
              78.407236,
              17.404221
            ],
            [
              78.407219,
              17.404222
            ],
            [
              78.407217,
              17.404222
            ],
            [
              78.407215,
              17.404222
            ],
            [
              78.407213,
              17.404221
            ],
            [
              78.407212,
              17.404221
            ],
            [
              78.40721,
              17.40422
            ],
            [
              78.407208,
              17.404219
            ],
            [
              78.407197,
              17.404218
            ],
            [
              78.407091,
              17.404151
            ],
            [
              78.407043,
              17.404119
            ],
            [
              78.40704,
              17.404118
            ],
            [
              78.401573,
              17.403148
            ],
            [
              78.401046,
              17.403044
            ],
            [
              78.400949,
              17.402992
            ],
            [
              78.400912,
              17.402971
            ],
            [
              78.400909,
              17.402971
            ],
            [
              78.40063,
              17.402937
            ],
            [
              78.400575,
              17.403143
            ],
            [
              78.400635,
              17.40345
            ],
            [
              78.400772,
              17.403625
            ],
            [
              78.400808,
              17.403649
            ],
            [
              78.400831,
              17.403675
            ],
            [
              78.400882,
              17.403807
            ],
            [
              78.400888,
              17.403825
            ],
            [
              78.401521,
              17.404748
            ],
            [
              78.402811,
              17.406289
            ],
            [
              78.40301,
              17.406601
            ],
            [
              78.403038,
              17.406753
            ],
            [
              78.403039,
              17.406757
            ],
            [
              78.40304,
              17.406759
            ],
            [
              78.403103,
              17.406884
            ],
            [
              78.403118,
              17.408182
            ],
            [
              78.403121,
              17.408441
            ],
            [
              78.403152,
              17.408558
            ],
            [
              78.40317,
              17.408625
            ],
            [
              78.403226,
              17.408649
            ],
            [
              78.403387,
              17.408621
            ],
            [
              78.403989,
              17.408518
            ],
            [
              78.405221,
              17.40842
            ],
            [
              78.405366,
              17.408422
            ],
            [
              78.405363,
              17.408422
            ],
            [
              78.406449,
              17.408436
            ],
            [
              78.406649,
              17.408461
            ],
            [
              78.406689,
              17.408466
            ],
            [
              78.409762,
              17.407202
            ],
            [
              78.409765,
              17.407201
            ],
            [
              78.410591,
              17.406485
            ],
            [
              78.410595,
              17.40648
            ],
            [
              78.411635,
              17.405578
            ],
            [
              78.412933,
              17.404703
            ],
            [
              78.413547,
              17.40434
            ],
            [
              78.414665,
              17.403747
            ],
            [
              78.415044,
              17.40359
            ],
            [
              78.415139,
              17.403551
            ],
            [
              78.415136,
              17.40352
            ],
            [
              78.415121,
              17.403476
            ],
            [
              78.415089,
              17.403342
            ]
          ]
        ]
      }
    }
  ]
}