{
  "type": "FeatureCollection",
  "features": [
    {
      "type": "Feature",
      "properties": {},
      "geometry": {
        "type": "Polygon",
        "coordinates": [
          [
            [
              78.352853,
              17.397711
            ],
            [
              78.352855,
              17.397714
            ],
            [
              78.354398,
              17.400603
            ],
            [
              78.3544,
              17.400603
            ],
            [
              78.355521,
              17.400753
            ],
            [
              78.356677,
              17.401029
            ],
            [
              78.358267,
              17.401583
            ],
            [
              78.359547,
              17.402152
            ],
            [
              78.360741,
              17.402839
            ],
            [
              78.361548,
              17.40342
            ],
            [
              78.361727,
              17.403549
            ],
            [
              78.361731,
              17.403539
            ],
            [
              78.361863,
              17.403232
            ],
            [
              78.363072,
              17.401709
            ],
            [
              78.363655,
              17.401284
            ],
            [
              78.363789,
              17.401241
            ],
            [
              78.363793,
              17.40124
            ],
            [
              78.363796,
              17.401238
            ],
            [
              78.363947,
              17.401152
            ],
            [
              78.36395,
              17.40115
            ],
            [
              78.363981,
              17.40113
            ],
            [
              78.363983,
              17.401129
            ],
            [
              78.363984,
              17.401128
            ],
            [
              78.363986,
              17.401128
            ],
            [
              78.363988,
              17.401127
            ],
            [
              78.36399,
              17.401127
            ],
            [
              78.363992,
              17.401127
            ],
            [
              78.364007,
              17.401118
            ],
            [
              78.373651,
              17.400415
            ],
            [
              78.37367,
              17.400423
            ],
            [
              78.373691,
              17.400421
            ],
            [
              78.373692,
              17.400421
            ],
            [
              78.373694,
              17.400421
            ],
            [
              78.373696,
              17.400421
            ],
            [
              78.373698,
              17.400422
            ],
            [
              78.373699,
              17.400423
            ],
            [
              78.373701,
              17.400423
            ],
            [
              78.373766,
              17.40046
            ],
            [
              78.373799,
              17.400477
            ],
            [
              78.373868,
              17.400506
            ],
            [
              78.37387,
              17.400507
            ],
            [
              78.373998,
              17.400521
            ],
            [
              78.374001,
              17.400521
            ],
            [
              78.379452,
              17.400132
            ],
            [
              78.392179,
              17.399224
            ],
            [
              78.392201,
              17.399232
            ],
            [
              78.39221,
              17.399231
            ],
            [
              78.392212,
              17.399231
            ],
            [
              78.392214,
              17.399231
            ],
            [
              78.392216,
              17.399232
            ],
            [
              78.392217,
              17.399232
            ],
            [
              78.392221,
              17.399234
            ],
            [
              78.392316,
              17.39927
            ],
            [
              78.392479,
              17.399326
            ],
            [
              78.392483,
              17.399327
            ],
            [
              78.394637,
              17.397003
            ],
            [
              78.394893,
              17.39688
            ],
            [
              78.394925,
              17.396866
            ],
            [
              78.394927,
              17.396863
            ],
            [
              78.395128,
              17.396614
            ],
            [
              78.395423,
              17.396248
            ],
            [
              78.395425,
              17.396245
            ],
            [
              78.395484,
              17.396116
            ],
            [
              78.395497,
              17.396046
            ],
            [
              78.395526,
              17.395965
            ],
            [
              78.396608,
              17.394772
            ],
            [
              78.396848,
              17.394507
            ],
            [
              78.396849,
              17.394505
            ],
            [
              78.396964,
              17.394362
            ],
            [
              78.396964,
              17.394358
            ],
            [
              78.396986,
              17.394206
            ],
            [
              78.397058,
              17.394118
            ],
            [
              78.398018,
              17.393293
            ],
            [
              78.400371,
              17.392109
            ],
            [
              78.400417,
              17.392103
            ],
            [
              78.400426,
              17.392082
            ],
            [
              78.400395,
              17.391922
            ],
            [
              78.400393,
              17.391918
            ],
            [
              78.398411,
              17.387567
            ],
            [
              78.398104,
              17.385824
            ],
            [
              78.398317,
              17.383947
            ],
            [
              78.399751,
              17.379203
            ],
            [
              78.399752,
              17.3792
            ],
            [
              78.399758,
              17.379142
            ],
            [
              78.399695,
              17.379024
            ],
            [
              78.398377,
              17.378345
            ],
            [
              78.398373,
              17.378343
            ],
            [
              78.393376,
              17.376595
            ],
            [
              78.390645,
              17.375639
            ],
            [
              78.389021,
              17.374793
            ],
            [
              78.388848,
              17.374702
            ],
            [
              78.386621,
              17.374688
            ],
            [
              78.386618,
              17.374688
            ],
            [
              78.381701,
              17.375102
            ],
            [
              78.381566,
              17.375087
            ],
            [
              78.381475,
              17.375046
            ],
            [
              78.381433,
              17.375025
            ],
            [
              78.38143,
              17.375025
            ],
            [
              78.380261,
              17.375147
            ],
            [
              78.380251,
              17.375155
            ],
            [
              78.380089,
              17.375271
            ],
            [
              78.379983,
              17.37529
            ],
            [
              78.37884,
              17.375383
            ],
            [
              78.376619,
              17.375565
            ],
            [
              78.376483,
              17.375603
            ],
            [
              78.375817,
              17.375789
            ],
            [
              78.37574,
              17.375784
            ],
            [
              78.375541,
              17.375754
            ],
            [
              78.37545,
              17.375766
            ],
            [
              78.375448,
              17.375767
            ],
            [
              78.37513,
              17.37587
            ],
            [
              78.375129,
              17.37587
            ],
            [
              78.375122,
              17.375874
            ],
            [
              78.37498,
              17.375948
            ],
            [
              78.374972,
              17.375951
            ],
            [
              78.374844,
              17.375972
            ],
            [
              78.371251,
              17.376952
            ],
            [
              78.3704,
              17.377181
            ],
            [
              78.369327,
              17.377012
            ],
            [
              78.368624,
              17.376722
            ],
            [
              78.366955,
              17.376033
            ],
            [
              78.366825,
              17.375949
            ],
            [
              78.366668,
              17.375783
            ],
            [
              78.366643,
              17.375756
            ],
            [
              78.366642,
              17.375758
            ],
            [
              78.365935,
              17.377097
            ],
            [
              78.365218,
              17.378157
            ],
            [
              78.364395,
              17.379153
            ],
            [
              78.363471,
              17.380074
            ],
            [
              78.362765,
              17.380654
            ],
            [
              78.361723,
              17.381428
            ],
            [
              78.360449,
              17.382188
            ],
            [
              78.359176,
              17.382792
            ],
            [
              78.35786,
              17.383257
            ],
            [
              78.351993,
              17.384994
            ],
            [
              78.352853,
              17.397711
            ]
          ]
        ]
      }
    }
  ]
}