{
  "type": "FeatureCollection",
  "features": [
    {
      "type": "Feature",
      "properties": {},
      "geometry": {
        "type": "Polygon",
        "coordinates": [
          [
            [
              78.446631,
              17.368601
            ],
            [
              78.447449,
              17.368619
            ],
            [
              78.447453,
              17.368619
            ],
            [
              78.447508,
              17.368607
            ],
            [
              78.447636,
              17.368582
            ],
            [
              78.449148,
              17.36852
            ],
            [
              78.449331,
              17.368542
            ],
            [
              78.449348,
              17.368544
            ],
            [
              78.44935,
              17.368544
            ],
            [
              78.449437,
              17.368527
            ],
            [
              78.449486,
              17.368513
            ],
            [
              78.449487,
              17.368512
            ],
            [
              78.449489,
              17.368512
            ],
            [
              78.44949,
              17.368512
            ],
            [
              78.449526,
              17.368511
            ],
            [
              78.449584,
              17.3685
            ],
            [
              78.450243,
              17.368533
            ],
            [
              78.450379,
              17.368576
            ],
            [
              78.450445,
              17.368598
            ],
            [
              78.450448,
              17.368598
            ],
            [
              78.453707,
              17.368451
            ],
            [
              78.457297,
              17.368288
            ],
            [
              78.457531,
              17.368334
            ],
            [
              78.457648,
              17.368368
            ],
            [
              78.45771,
              17.368368
            ],
            [
              78.457737,
              17.368373
            ],
            [
              78.457954,
              17.368456
            ],
            [
              78.457965,
              17.36846
            ],
            [
              78.457991,
              17.368469
            ],
            [
              78.457992,
              17.36847
            ],
            [
              78.457994,
              17.36847
            ],
            [
              78.457995,
              17.368471
            ],
            [
              78.457996,
              17.368472
            ],
            [
              78.458017,
              17.36848
            ],
            [
              78.458798,
              17.367405
            ],
            [
              78.458634,
              17.36727
            ],
            [
              78.458012,
              17.366756
            ],
            [
              78.457787,
              17.366531
            ],
            [
              78.457108,
              17.365852
            ],
            [
              78.456286,
              17.364856
            ],
            [
              78.455557,
              17.363777
            ],
            [
              78.453994,
              17.361204
            ],
            [
              78.449373,
              17.359761
            ],
            [
              78.448221,
              17.361061
            ],
            [
              78.447339,
              17.361965
            ],
            [
              78.446364,
              17.362795
            ],
            [
              78.445325,
              17.36352
            ],
            [
              78.444222,
              17.364146
            ],
            [
              78.443066,
              17.364664
            ],
            [
              78.442615,
              17.364818
            ],
            [
              78.441879,
              17.365069
            ],
            [
              78.441379,
              17.365189
            ],
            [
              78.441259,
              17.365217
            ],
            [
              78.441256,
              17.365532
            ],
            [
              78.442404,
              17.367685
            ],
            [
              78.442573,
              17.367996
            ],
            [
              78.444166,
              17.368346
            ],
            [
              78.445863,
              17.36871
            ],
            [
              78.445867,
              17.36871
            ],
            [
              78.446279,
              17.368753
            ],
            [
              78.446384,
              17.36872
            ],
            [
              78.446387,
              17.368717
            ],
            [
              78.446485,
              17.368639
            ],
            [
              78.446631,
              17.368601
            ]
          ]
        ]
      }
    }
  ]
}