{
  "type": "FeatureCollection",
  "features": [
    {
      "type": "Feature",
      "properties": {},
      "geometry": {
        "type": "Polygon",
        "coordinates": [
          [
            [
              78.382376,
              17.499386
            ],
            [
              78.381809,
              17.494248
            ],
            [
              78.378006,
              17.490118
            ],
            [
              78.394274,
              17.48236
            ],
            [
              78.400365,
              17.483905
            ],
            [
              78.404063,
              17.492804
            ],
            [
              78.397689,
              17.49576
            ],
            [
              78.394098,
              17.496465
            ],
            [
              78.391285,
              17.498245
            ],
            [
              78.382376,
              17.499386
            ]
          ]
        ]
      }
    }
  ]
}