{
  "type": "FeatureCollection",
  "features": [
    {
      "type": "Feature",
      "properties": {},
      "geometry": {
        "type": "Polygon",
        "coordinates": [
          [
            [
              78.401939,
              17.510296
            ],
            [
              78.407666,
              17.506518
            ],
            [
              78.40787,
              17.507295
            ],
            [
              78.410496,
              17.508396
            ],
            [
              78.413439,
              17.513945
            ],
            [
              78.408074,
              17.515348
            ],
            [
              78.403139,
              17.513708
            ],
            [
              78.401939,
              17.510296
            ]
          ]
        ]
      }
    }
  ]
}