{
  "type": "FeatureCollection",
  "features": [
    {
      "type": "Feature",
      "properties": {},
      "geometry": {
        "type": "Polygon",
        "coordinates": [
          [
            [
              78.392518,
              17.505592
            ],
            [
              78.391732,
              17.499291
            ],
            [
              78.394521,
              17.4994
            ],
            [
              78.395836,
              17.505347
            ],
            [
              78.392518,
              17.505592
            ]
          ]
        ]
      }
    }
  ]
}