{
  "type": "FeatureCollection",
  "features": [
    {
      "type": "Feature",
      "properties": {},
      "geometry": {
        "type": "Polygon",
        "coordinates": [
          [
            [
              78.427472,
              17.469637
            ],
            [
              78.425599,
              17.466572
            ],
            [
              78.421219,
              17.465687
            ],
            [
              78.420806,
              17.464507
            ],
            [
              78.423864,
              17.462983
            ],
            [
              78.428623,
              17.462492
            ],
            [
              78.431011,
              17.462688
            ],
            [
              78.427472,
              17.469637
            ]
          ]
        ]
      }
    }
  ]
}