{
  "type": "FeatureCollection",
  "features": [
    {
      "type": "Feature",
      "properties": {},
      "geometry": {
        "type": "Polygon",
        "coordinates": [
          [
            [
              78.397511,
              17.495863
            ],
            [
              78.401161,
              17.494249
            ],
            [
              78.406624,
              17.496674
            ],
            [
              78.408231,
              17.499166
            ],
            [
              78.402139,
              17.499339
            ],
            [
              78.397511,
              17.495863
            ]
          ]
        ]
      }
    }
  ]
}