{
  "type": "FeatureCollection",
  "features": [
    {
      "type": "Feature",
      "properties": {},
      "geometry": {
        "type": "Polygon",
        "coordinates": [
          [
            [
              78.398982,
              17.537961
            ],
            [
              78.406711,
              17.523831
            ],
            [
              78.409589,
              17.516357
            ],
            [
              78.414333,
              17.515086
            ],
            [
              78.421477,
              17.517323
            ],
            [
              78.432885,
              17.524034
            ],
            [
              78.427821,
              17.528863
            ],
            [
              78.421157,
              17.530134
            ],
            [
              78.411669,
              17.542383
            ],
            [
              78.398982,
              17.537961
            ]
          ]
        ]
      }
    }
  ]
}