{
  "type": "FeatureCollection",
  "features": [
    {
      "type": "Feature",
      "properties": {},
      "geometry": {
        "type": "Polygon",
        "coordinates": [
          [
            [
              78.452266,
              17.463803
            ],
            [
              78.453546,
              17.45082
            ],
            [
              78.457923,
              17.438344
            ],
            [
              78.471534,
              17.434983
            ],
            [
              78.480193,
              17.433397
            ],
            [
              78.488848,
              17.432274
            ],
            [
              78.488734,
              17.434882
            ],
            [
              78.488544,
              17.437924
            ],
            [
              78.488206,
              17.443626
            ],
            [
              78.487547,
              17.448885
            ],
            [
              78.486408,
              17.45322
            ],
            [
              78.484662,
              17.458073
            ],
            [
              78.480288,
              17.455454
            ],
            [
              78.476444,
              17.461462
            ],
            [
              78.472868,
              17.464414
            ],
            [
              78.467958,
              17.461716
            ],
            [
              78.464809,
              17.462276
            ],
            [
              78.458831,
              17.464109
            ],
            [
              78.452266,
              17.463803
            ]
          ]
        ]
      }
    }
  ]
}