{
  "type": "FeatureCollection",
  "features": [
    {
      "type": "Feature",
      "properties": {},
      "geometry": {
        "type": "Polygon",
        "coordinates": [
          [
            [
              78.509116,
              17.420789
            ],
            [
              78.514639,
              17.420029
            ],
            [
              78.519984,
              17.419334
            ],
            [
              78.520723,
              17.420505
            ],
            [
              78.522309,
              17.41948
            ],
            [
              78.52396,
              17.419164
            ],
            [
              78.525569,
              17.421582
            ],
            [
              78.527973,
              17.423858
            ],
            [
              78.527881,
              17.424599
            ],
            [
              78.524515,
              17.426187
            ],
            [
              78.51886,
              17.429016
            ],
            [
              78.51774,
              17.426865
            ],
            [
              78.515332,
              17.425723
            ],
            [
              78.516559,
              17.423514
            ],
            [
              78.516034,
              17.423096
            ],
            [
              78.514104,
              17.423354
            ],
            [
              78.513847,
              17.423212
            ],
            [
              78.513232,
              17.422823
            ],
            [
              78.509075,
              17.422695
            ],
            [
              78.509116,
              17.420789
            ]
          ]
        ]
      }
    }
  ]
}