{
  "type": "FeatureCollection",
  "features": [
    {
      "type": "Feature",
      "properties": {},
      "geometry": {
        "type": "Polygon",
        "coordinates": [
          [
            [
              78.500544,
              17.420757
            ],
            [
              78.501551,
              17.420809
            ],
            [
              78.504352,
              17.421574
            ],
            [
              78.507928,
              17.420943
            ],
            [
              78.509048,
              17.420789
            ],
            [
              78.50901,
              17.422757
            ],
            [
              78.513147,
              17.422887
            ],
            [
              78.514046,
              17.423406
            ],
            [
              78.515978,
              17.423147
            ],
            [
              78.516495,
              17.42351
            ],
            [
              78.515243,
              17.425744
            ],
            [
              78.517693,
              17.426913
            ],
            [
              78.518809,
              17.429042
            ],
            [
              78.512574,
              17.436328
            ],
            [
              78.505717,
              17.434578
            ],
            [
              78.505096,
              17.431859
            ],
            [
              78.502161,
              17.431859
            ],
            [
              78.501681,
              17.429839
            ],
            [
              78.502105,
              17.428682
            ],
            [
              78.500544,
              17.420757
            ]
          ]
        ]
      }
    }
  ]
}