{
  "type": "FeatureCollection",
  "features": [
    {
      "type": "Feature",
      "properties": {},
      "geometry": {
        "type": "Polygon",
        "coordinates": [
          [
            [
              78.40846,
              17.499175
            ],
            [
              78.408127,
              17.499073
            ],
            [
              78.406852,
              17.497113
            ],
            [
              78.41274,
              17.499062
            ],
            [
              78.415806,
              17.500269
            ],
            [
              78.418531,
              17.501754
            ],
            [
              78.419941,
              17.502557
            ],
            [
              78.419845,
              17.502891
            ],
            [
              78.419859,
              17.503394
            ],
            [
              78.420119,
              17.504195
            ],
            [
              78.421495,
              17.506813
            ],
            [
              78.42148,
              17.507973
            ],
            [
              78.421311,
              17.509226
            ],
            [
              78.420859,
              17.509629
            ],
            [
              78.420657,
              17.512437
            ],
            [
              78.419972,
              17.512601
            ],
            [
              78.415758,
              17.51099
            ],
            [
              78.410384,
              17.508433
            ],
            [
              78.407821,
              17.507271
            ],
            [
              78.407985,
              17.504538
            ],
            [
              78.40846,
              17.499175
            ]
          ]
        ]
      }
    }
  ]
}