{
  "type": "FeatureCollection",
  "features": [
    {
      "type": "Feature",
      "properties": {},
      "geometry": {
        "type": "Polygon",
        "coordinates": [
          [
            [
              78.475148,
              17.408484
            ],
            [
              78.472991,
              17.408018
            ],
            [
              78.468963,
              17.407863
            ],
            [
              78.46821,
              17.407439
            ],
            [
              78.467457,
              17.406776
            ],
            [
              78.467473,
              17.405331
            ],
            [
              78.467742,
              17.403747
            ],
            [
              78.468469,
              17.402313
            ],
            [
              78.470469,
              17.400679
            ],
            [
              78.470998,
              17.398699
            ],
            [
              78.47112,
              17.396408
            ],
            [
              78.470184,
              17.39237
            ],
            [
              78.470265,
              17.390001
            ],
            [
              78.47348,
              17.385574
            ],
            [
              78.47527,
              17.383671
            ],
            [
              78.477834,
              17.383238
            ],
            [
              78.480438,
              17.382772
            ],
            [
              78.483937,
              17.381141
            ],
            [
              78.487315,
              17.380481
            ],
            [
              78.491262,
              17.380792
            ],
            [
              78.49468,
              17.382694
            ],
            [
              78.497203,
              17.383976
            ],
            [
              78.499522,
              17.385918
            ],
            [
              78.503185,
              17.388053
            ],
            [
              78.504202,
              17.389374
            ],
            [
              78.504405,
              17.391509
            ],
            [
              78.504487,
              17.393412
            ],
            [
              78.50389,
              17.394148
            ],
            [
              78.50276,
              17.394646
            ],
            [
              78.501598,
              17.394951
            ],
            [
              78.500327,
              17.394569
            ],
            [
              78.499122,
              17.394565
            ],
            [
              78.49874,
              17.394361
            ],
            [
              78.496805,
              17.395837
            ],
            [
              78.494694,
              17.397302
            ],
            [
              78.490367,
              17.400052
            ],
            [
              78.488797,
              17.400574
            ],
            [
              78.487315,
              17.400719
            ],
            [
              78.4841,
              17.401806
            ],
            [
              78.482323,
              17.403394
            ],
            [
              78.481439,
              17.404157
            ],
            [
              78.480504,
              17.404841
            ],
            [
              78.479751,
              17.405399
            ],
            [
              78.478932,
              17.405867
            ],
            [
              78.477207,
              17.406487
            ],
            [
              78.476402,
              17.407757
            ],
            [
              78.475423,
              17.408657
            ],
            [
              78.475148,
              17.408484
            ]
          ]
        ]
      }
    }
  ]
}