{
  "type": "FeatureCollection",
  "features": [
    {
      "type": "Feature",
      "properties": {},
      "geometry": {
        "type": "Polygon",
        "coordinates": [
          [
            [
              78.493533,
              17.398385
            ],
            [
              78.49813,
              17.395173
            ],
            [
              78.498786,
              17.39458
            ],
            [
              78.500442,
              17.3948
            ],
            [
              78.502122,
              17.395239
            ],
            [
              78.503916,
              17.394848
            ],
            [
              78.504711,
              17.393691
            ],
            [
              78.504753,
              17.390367
            ],
            [
              78.505271,
              17.38626
            ],
            [
              78.506627,
              17.385587
            ],
            [
              78.511831,
              17.385122
            ],
            [
              78.517252,
              17.38031
            ],
            [
              78.518251,
              17.381845
            ],
            [
              78.517203,
              17.384622
            ],
            [
              78.51664,
              17.386227
            ],
            [
              78.516349,
              17.388018
            ],
            [
              78.516189,
              17.392224
            ],
            [
              78.518819,
              17.392649
            ],
            [
              78.520715,
              17.392988
            ],
            [
              78.522578,
              17.393869
            ],
            [
              78.528189,
              17.396153
            ],
            [
              78.525726,
              17.403525
            ],
            [
              78.518083,
              17.40937
            ],
            [
              78.514774,
              17.405821
            ],
            [
              78.514566,
              17.405207
            ],
            [
              78.513532,
              17.405469
            ],
            [
              78.511637,
              17.404338
            ],
            [
              78.508859,
              17.401466
            ],
            [
              78.507488,
              17.402703
            ],
            [
              78.505619,
              17.403451
            ],
            [
              78.502747,
              17.404325
            ],
            [
              78.496663,
              17.406611
            ],
            [
              78.495801,
              17.404611
            ],
            [
              78.495449,
              17.403507
            ],
            [
              78.495265,
              17.402332
            ],
            [
              78.494994,
              17.40006
            ],
            [
              78.494507,
              17.399185
            ],
            [
              78.493533,
              17.398385
            ]
          ]
        ]
      }
    }
  ]
}