{
  "type": "FeatureCollection",
  "features": [
    {
      "type": "Feature",
      "properties": {},
      "geometry": {
        "type": "Polygon",
        "coordinates": [
          [
            [
              78.4958,
              17.435257
            ],
            [
              78.495702,
              17.435063
            ],
            [
              78.49708,
              17.434858
            ],
            [
              78.499305,
              17.434513
            ],
            [
              78.499648,
              17.435357
            ],
            [
              78.497069,
              17.435828
            ],
            [
              78.496064,
              17.435957
            ],
            [
              78.4958,
              17.435257
            ]
          ]
        ]
      }
    }
  ]
}