{
  "type": "FeatureCollection",
  "features": [
    {
      "type": "Feature",
      "properties": {},
      "geometry": {
        "type": "Polygon",
        "coordinates": [
          [
            [
              78.532349,
              17.464647
            ],
            [
              78.532397,
              17.459237
            ],
            [
              78.530849,
              17.451693
            ],
            [
              78.527807,
              17.444571
            ],
            [
              78.518825,
              17.436459
            ],
            [
              78.524834,
              17.431252
            ],
            [
              78.527499,
              17.428947
            ],
            [
              78.531223,
              17.426606
            ],
            [
              78.534099,
              17.430054
            ],
            [
              78.536786,
              17.433087
            ],
            [
              78.540155,
              17.433521
            ],
            [
              78.543183,
              17.435037
            ],
            [
              78.543712,
              17.43594
            ],
            [
              78.545524,
              17.439268
            ],
            [
              78.548325,
              17.444396
            ],
            [
              78.554249,
              17.453741
            ],
            [
              78.554892,
              17.45486
            ],
            [
              78.553367,
              17.455229
            ],
            [
              78.549856,
              17.456297
            ],
            [
              78.545369,
              17.457315
            ],
            [
              78.540789,
              17.458422
            ],
            [
              78.539377,
              17.458721
            ],
            [
              78.532349,
              17.464647
            ]
          ]
        ]
      }
    }
  ]
}