{
  "type": "FeatureCollection",
  "features": [
    {
      "type": "Feature",
      "properties": {},
      "geometry": {
        "type": "Polygon",
        "coordinates": [
          [
            [
              78.565409,
              17.451659
            ],
            [
              78.555131,
              17.454835
            ],
            [
              78.548355,
              17.444129
            ],
            [
              78.543304,
              17.434899
            ],
            [
              78.54009,
              17.433359
            ],
            [
              78.536875,
              17.432877
            ],
            [
              78.531355,
              17.426531
            ],
            [
              78.585449,
              17.404376
            ],
            [
              78.593828,
              17.407073
            ],
            [
              78.603819,
              17.410254
            ],
            [
              78.608867,
              17.412276
            ],
            [
              78.61371,
              17.412662
            ],
            [
              78.618541,
              17.414593
            ],
            [
              78.623602,
              17.416803
            ],
            [
              78.631091,
              17.417955
            ],
            [
              78.634439,
              17.419013
            ],
            [
              78.638571,
              17.422387
            ],
            [
              78.645755,
              17.425663
            ],
            [
              78.65181,
              17.429903
            ],
            [
              78.653528,
              17.432119
            ],
            [
              78.652777,
              17.450991
            ],
            [
              78.624557,
              17.449521
            ],
            [
              78.604057,
              17.44844
            ],
            [
              78.588186,
              17.448223
            ],
            [
              78.565409,
              17.451659
            ]
          ]
        ]
      }
    }
  ]
}