{
  "type": "FeatureCollection",
  "features": [
    {
      "type": "Feature",
      "properties": {},
      "geometry": {
        "type": "Polygon",
        "coordinates": [
          [
            [
              78.392698318,
              17.440897803
            ],
            [
              78.397626604,
              17.454612357
            ],
            [
              78.397183846,
              17.455119202
            ],
            [
              78.397081626,
              17.459102476
            ],
            [
              78.393185352,
              17.460327319
            ],
            [
              78.390395974,
              17.457962097
            ],
            [
              78.384728667,
              17.458806823
            ],
            [
              78.382603426,
              17.452682474
            ],
            [
              78.38149653,
              17.45124639
            ],
            [
              78.384418736,
              17.447107025
            ],
            [
              78.387163838,
              17.443854602
            ],
            [
              78.388359285,
              17.441531406
            ],
            [
              78.392698318,
              17.440897803
            ]
          ]
        ]
      }
    }
  ]
}