{
  "type": "FeatureCollection",
  "features": [
    {
      "type": "Feature",
      "properties": {},
      "geometry": {
        "type": "Polygon",
        "coordinates": [
          [
            [
              78.403372445,
              17.492990756
            ],
            [
              78.397297552,
              17.495817594
            ],
            [
              78.394964397,
              17.496384314
            ],
            [
              78.390129947,
              17.484484291
            ],
            [
              78.389374579,
              17.482358504
            ],
            [
              78.385643816,
              17.477575892
            ],
            [
              78.384400409,
              17.472832605
            ],
            [
              78.386886771,
              17.471028054
            ],
            [
              78.391967668,
              17.46932663
            ],
            [
              78.396183754,
              17.477163441
            ],
            [
              78.395048633,
              17.482422116
            ],
            [
              78.400507882,
              17.484381257
            ],
            [
              78.403372445,
              17.492990756
            ]
          ]
        ]
      }
    }
  ]
}