{
  "type": "FeatureCollection",
  "features": [
    {
      "type": "Feature",
      "properties": {},
      "geometry": {
        "type": "Polygon",
        "coordinates": [
          [
            [
              78.369292,
              17.366277
            ],
            [
              78.369399,
              17.366242
            ],
            [
              78.369404,
              17.366237
            ],
            [
              78.369494,
              17.366099
            ],
            [
              78.369509,
              17.366042
            ],
            [
              78.369511,
              17.366038
            ],
            [
              78.369512,
              17.366035
            ],
            [
              78.369514,
              17.366032
            ],
            [
              78.369516,
              17.366029
            ],
            [
              78.369518,
              17.366027
            ],
            [
              78.369521,
              17.366024
            ],
            [
              78.369523,
              17.366022
            ],
            [
              78.369526,
              17.36602
            ],
            [
              78.36953,
              17.366018
            ],
            [
              78.369533,
              17.366017
            ],
            [
              78.369536,
              17.366016
            ],
            [
              78.36954,
              17.366016
            ],
            [
              78.369543,
              17.366015
            ],
            [
              78.369547,
              17.366015
            ],
            [
              78.369548,
              17.366016
            ],
            [
              78.36955,
              17.366016
            ],
            [
              78.369554,
              17.366017
            ],
            [
              78.369557,
              17.366018
            ],
            [
              78.36956,
              17.366019
            ],
            [
              78.369564,
              17.366021
            ],
            [
              78.369566,
              17.366023
            ],
            [
              78.369569,
              17.366025
            ],
            [
              78.369571,
              17.366028
            ],
            [
              78.369574,
              17.366031
            ],
            [
              78.369576,
              17.366034
            ],
            [
              78.369577,
              17.366037
            ],
            [
              78.369578,
              17.36604
            ],
            [
              78.369579,
              17.366044
            ],
            [
              78.36958,
              17.366047
            ],
            [
              78.36958,
              17.366051
            ],
            [
              78.369582,
              17.366174
            ],
            [
              78.369749,
              17.366198
            ],
            [
              78.369752,
              17.366199
            ],
            [
              78.369754,
              17.3662
            ],
            [
              78.369756,
              17.3662
            ],
            [
              78.369759,
              17.366201
            ],
            [
              78.369762,
              17.366203
            ],
            [
              78.369765,
              17.366205
            ],
            [
              78.369768,
              17.366207
            ],
            [
              78.36977,
              17.36621
            ],
            [
              78.369772,
              17.366212
            ],
            [
              78.369794,
              17.36624
            ],
            [
              78.375275,
              17.366941
            ],
            [
              78.375279,
              17.366942
            ],
            [
              78.375282,
              17.366943
            ],
            [
              78.375286,
              17.366944
            ],
            [
              78.375289,
              17.366946
            ],
            [
              78.375291,
              17.366947
            ],
            [
              78.375304,
              17.366949
            ],
            [
              78.3754,
              17.367027
            ],
            [
              78.37544,
              17.367057
            ],
            [
              78.375443,
              17.367059
            ],
            [
              78.375446,
              17.367061
            ],
            [
              78.375448,
              17.367064
            ],
            [
              78.37545,
              17.367067
            ],
            [
              78.37545,
              17.367068
            ],
            [
              78.375451,
              17.367069
            ],
            [
              78.375452,
              17.36707
            ],
            [
              78.376,
              17.368243
            ],
            [
              78.378436,
              17.369287
            ],
            [
              78.383686,
              17.370237
            ],
            [
              78.386868,
              17.370006
            ],
            [
              78.390068,
              17.369428
            ],
            [
              78.392639,
              17.368964
            ],
            [
              78.392667,
              17.368829
            ],
            [
              78.392667,
              17.368822
            ],
            [
              78.392664,
              17.368821
            ],
            [
              78.39266,
              17.368821
            ],
            [
              78.392657,
              17.36882
            ],
            [
              78.392654,
              17.368819
            ],
            [
              78.392651,
              17.368817
            ],
            [
              78.392648,
              17.368815
            ],
            [
              78.392645,
              17.368813
            ],
            [
              78.392642,
              17.36881
            ],
            [
              78.39264,
              17.368808
            ],
            [
              78.392638,
              17.368805
            ],
            [
              78.392636,
              17.368802
            ],
            [
              78.392635,
              17.368799
            ],
            [
              78.392634,
              17.368795
            ],
            [
              78.392633,
              17.368792
            ],
            [
              78.392632,
              17.368788
            ],
            [
              78.392632,
              17.368786
            ],
            [
              78.392632,
              17.368785
            ],
            [
              78.392659,
              17.367916
            ],
            [
              78.392254,
              17.366374
            ],
            [
              78.391349,
              17.364972
            ],
            [
              78.391347,
              17.36497
            ],
            [
              78.391346,
              17.364968
            ],
            [
              78.391346,
              17.364967
            ],
            [
              78.391345,
              17.364965
            ],
            [
              78.391104,
              17.364256
            ],
            [
              78.391103,
              17.364253
            ],
            [
              78.391103,
              17.364249
            ],
            [
              78.391102,
              17.364246
            ],
            [
              78.391102,
              17.364242
            ],
            [
              78.391103,
              17.364239
            ],
            [
              78.391104,
              17.364235
            ],
            [
              78.391105,
              17.364232
            ],
            [
              78.391106,
              17.364228
            ],
            [
              78.391108,
              17.364225
            ],
            [
              78.39111,
              17.364222
            ],
            [
              78.391112,
              17.36422
            ],
            [
              78.391115,
              17.364218
            ],
            [
              78.390974,
              17.363763
            ],
            [
              78.390971,
              17.363754
            ],
            [
              78.389587,
              17.360673
            ],
            [
              78.385426,
              17.358254
            ],
            [
              78.380573,
              17.355535
            ],
            [
              78.380572,
              17.355535
            ],
            [
              78.378857,
              17.354493
            ],
            [
              78.373686,
              17.356397
            ],
            [
              78.373683,
              17.356398
            ],
            [
              78.373442,
              17.356605
            ],
            [
              78.369666,
              17.359899
            ],
            [
              78.369271,
              17.360586
            ],
            [
              78.368788,
              17.361119
            ],
            [
              78.368508,
              17.361347
            ],
            [
              78.367887,
              17.361714
            ],
            [
              78.367551,
              17.36185
            ],
            [
              78.366852,
              17.362016
            ],
            [
              78.366272,
              17.362046
            ],
            [
              78.367148,
              17.36415
            ],
            [
              78.369178,
              17.366253
            ],
            [
              78.369274,
              17.366274
            ],
            [
              78.369292,
              17.366277
            ]
          ]
        ]
      }
    }
  ]
}