{
  "type": "FeatureCollection",
  "features": [
    {
      "type": "Feature",
      "properties": {},
      "geometry": {
        "type": "Polygon",
        "coordinates": [
          [
            [
              78.451976,
              17.427976
            ],
            [
              78.455115,
              17.429513
            ],
            [
              78.455983,
              17.432826
            ],
            [
              78.457719,
              17.440362
            ],
            [
              78.455635,
              17.463466
            ],
            [
              78.472388,
              17.464567
            ],
            [
              78.486367,
              17.502724
            ],
            [
              78.489493,
              17.539904
            ],
            [
              78.46414,
              17.547162
            ],
            [
              78.449558,
              17.557342
            ],
            [
              78.429159,
              17.583492
            ],
            [
              78.407959,
              17.591764
            ],
            [
              78.397456,
              17.584235
            ],
            [
              78.38921,
              17.57687
            ],
            [
              78.386345,
              17.572484
            ],
            [
              78.381539,
              17.564503
            ],
            [
              78.370504,
              17.560733
            ],
            [
              78.346228,
              17.560908
            ],
            [
              78.335746,
              17.548985
            ],
            [
              78.344574,
              17.529543
            ],
            [
              78.338458,
              17.51949
            ],
            [
              78.334566,
              17.516718
            ],
            [
              78.334351,
              17.509081
            ],
            [
              78.3355,
              17.503917
            ],
            [
              78.334256,
              17.495644
            ],
            [
              78.349723,
              17.49394
            ],
            [
              78.358918,
              17.486748
            ],
            [
              78.36278,
              17.478328
            ],
            [
              78.367194,
              17.463242
            ],
            [
              78.3637,
              17.453066
            ],
            [
              78.365907,
              17.439031
            ],
            [
              78.376757,
              17.439908
            ],
            [
              78.381171,
              17.436925
            ],
            [
              78.392022,
              17.432714
            ],
            [
              78.404895,
              17.433767
            ],
            [
              78.41501,
              17.428152
            ],
            [
              78.427332,
              17.42359
            ],
            [
              78.451976,
              17.427976
            ]
          ]
        ]
      }
    }
  ]
}