{
  "type": "FeatureCollection",
  "features": [
    {
      "type": "Feature",
      "properties": {},
      "geometry": {
        "type": "Polygon",
        "coordinates": [
          [
            [
              78.421032033,
              17.477544784
            ],
            [
              78.427751617,
              17.473568607
            ],
            [
              78.427791554,
              17.475949291
            ],
            [
              78.428036986,
              17.478155744
            ],
            [
              78.428660088,
              17.479396738
            ],
            [
              78.428735207,
              17.480964405
            ],
            [
              78.427543634,
              17.481240713
            ],
            [
              78.427368971,
              17.482200165
            ],
            [
              78.427557448,
              17.482466883
            ],
            [
              78.427318702,
              17.48433299
            ],
            [
              78.426994511,
              17.484446907
            ],
            [
              78.426177574,
              17.48548568
            ],
            [
              78.426257448,
              17.485995751
            ],
            [
              78.426727997,
              17.486505822
            ],
            [
              78.426021814,
              17.489223097
            ],
            [
              78.424631762,
              17.491445806
            ],
            [
              78.424183333,
              17.492159862
            ],
            [
              78.424494733,
              17.493417439
            ],
            [
              78.431968024,
              17.494869243
            ],
            [
              78.433886932,
              17.498087453
            ],
            [
              78.432564923,
              17.500485662
            ],
            [
              78.429848927,
              17.504900856
            ],
            [
              78.421407641,
              17.503957115
            ],
            [
              78.417680495,
              17.503875871
            ],
            [
              78.417566668,
              17.503692039
            ],
            [
              78.416599826,
              17.504105241
            ],
            [
              78.415763188,
              17.504294186
            ],
            [
              78.414874257,
              17.504114082
            ],
            [
              78.414053626,
              17.504058023
            ],
            [
              78.413847279,
              17.502356625
            ],
            [
              78.413573497,
              17.50149607
            ],
            [
              78.413003751,
              17.500529917
            ],
            [
              78.413770768,
              17.499738223
            ],
            [
              78.414340601,
              17.499131723
            ],
            [
              78.415339605,
              17.498927823
            ],
            [
              78.41646929,
              17.498156563
            ],
            [
              78.417331622,
              17.497734225
            ],
            [
              78.417575312,
              17.498165108
            ],
            [
              78.418815817,
              17.498199378
            ],
            [
              78.420112607,
              17.498112868
            ],
            [
              78.420711121,
              17.487437429
            ],
            [
              78.420992513,
              17.481884512
            ],
            [
              78.421038674,
              17.480984141
            ],
            [
              78.421819618,
              17.480518575
            ],
            [
              78.42205232,
              17.48014529
            ],
            [
              78.421032033,
              17.477544784
            ]
          ]
        ]
      }
    }
  ]
}