{
  "type": "FeatureCollection",
  "features": [
    {
      "type": "Feature",
      "properties": {},
      "geometry": {
        "type": "Polygon",
        "coordinates": [
          [
            [
              78.396122225,
              17.54056558
            ],
            [
              78.388605933,
              17.541083284
            ],
            [
              78.385846031,
              17.529091304
            ],
            [
              78.386978834,
              17.525097523
            ],
            [
              78.387664488,
              17.524179055
            ],
            [
              78.389504154,
              17.518930582
            ],
            [
              78.392683266,
              17.518764059
            ],
            [
              78.393196029,
              17.516360618
            ],
            [
              78.392730026,
              17.514287255
            ],
            [
              78.392264023,
              17.512213893
            ],
            [
              78.391735419,
              17.507423503
            ],
            [
              78.391768735,
              17.506883147
            ],
            [
              78.392016559,
              17.505686454
            ],
            [
              78.392342118,
              17.505617423
            ],
            [
              78.391650361,
              17.499318286
            ],
            [
              78.391347189,
              17.498250535
            ],
            [
              78.392222599,
              17.497924844
            ],
            [
              78.393745057,
              17.496855363
            ],
            [
              78.396699736,
              17.495916035
            ],
            [
              78.399724192,
              17.494787362
            ],
            [
              78.401975488,
              17.498635152
            ],
            [
              78.402007393,
              17.499326082
            ],
            [
              78.408354768,
              17.499271257
            ],
            [
              78.411803803,
              17.500460416
            ],
            [
              78.412961548,
              17.500561629
            ],
            [
              78.413552528,
              17.501489232
            ],
            [
              78.413831704,
              17.502388609
            ],
            [
              78.414045252,
              17.504075328
            ],
            [
              78.414873399,
              17.504117505
            ],
            [
              78.415756334,
              17.504299018
            ],
            [
              78.416602729,
              17.504115283
            ],
            [
              78.41756774,
              17.503705302
            ],
            [
              78.419175019,
              17.50651551
            ],
            [
              78.416631502,
              17.509098713
            ],
            [
              78.412456594,
              17.514063131
            ],
            [
              78.403583591,
              17.514233508
            ],
            [
              78.404046049,
              17.515462057
            ],
            [
              78.404666995,
              17.527743229
            ],
            [
              78.396122225,
              17.54056558
            ]
          ]
        ]
      }
    }
  ]
}