{
  "type": "FeatureCollection",
  "features": [
    {
      "type": "Feature",
      "properties": {},
      "geometry": {
        "type": "Polygon",
        "coordinates": [
          [
            [
              78.403533359,
              17.492961891
            ],
            [
              78.399699659,
              17.494769775
            ],
            [
              78.397120928,
              17.495710394
            ],
            [
              78.395049662,
              17.496328353
            ],
            [
              78.393579433,
              17.496870219
            ],
            [
              78.392151265,
              17.497835024
            ],
            [
              78.39131232,
              17.498228214
            ],
            [
              78.388111989,
              17.498689487
            ],
            [
              78.38383746,
              17.499258987
            ],
            [
              78.384931457,
              17.492829387
            ],
            [
              78.383205649,
              17.490733679
            ],
            [
              78.382298217,
              17.488114971
            ],
            [
              78.390134292,
              17.48447252
            ],
            [
              78.389448868,
              17.481977891
            ],
            [
              78.390539879,
              17.477680654
            ],
            [
              78.38873764,
              17.475054218
            ],
            [
              78.387078556,
              17.471321817
            ],
            [
              78.392381833,
              17.469016016
            ],
            [
              78.395759525,
              17.474564326
            ],
            [
              78.395659563,
              17.481910203
            ],
            [
              78.401078679,
              17.485505601
            ],
            [
              78.403533359,
              17.492961891
            ]
          ]
        ]
      }
    }
  ]
}