{
  "type": "FeatureCollection",
  "features": [
    {
      "type": "Feature",
      "properties": {},
      "geometry": {
        "type": "Polygon",
        "coordinates": [
          [
            [
              78.478284,
              17.412614
            ],
            [
              78.475495,
              17.408878
            ],
            [
              78.476505,
              17.407869
            ],
            [
              78.477171,
              17.406716
            ],
            [
              78.47805,
              17.406386
            ],
            [
              78.479093,
              17.406006
            ],
            [
              78.480059,
              17.405338
            ],
            [
              78.481643,
              17.404231
            ],
            [
              78.482915,
              17.403001
            ],
            [
              78.484127,
              17.40222
            ],
            [
              78.48527,
              17.401684
            ],
            [
              78.487655,
              17.400815
            ],
            [
              78.488723,
              17.400725
            ],
            [
              78.490732,
              17.400216
            ],
            [
              78.492992,
              17.398658
            ],
            [
              78.493597,
              17.398763
            ],
            [
              78.494485,
              17.399585
            ],
            [
              78.494813,
              17.400557
            ],
            [
              78.495207,
              17.403646
            ],
            [
              78.495634,
              17.404899
            ],
            [
              78.496508,
              17.406654
            ],
            [
              78.49576,
              17.406894
            ],
            [
              78.492929,
              17.407884
            ],
            [
              78.484642,
              17.410789
            ],
            [
              78.481283,
              17.411867
            ],
            [
              78.478284,
              17.412614
            ]
          ]
        ]
      }
    }
  ]
}