{
  "type": "FeatureCollection",
  "features": [
    {
      "type": "Feature",
      "properties": {},
      "geometry": {
        "type": "Polygon",
        "coordinates": [
          [
            [
              78.499496,
              17.4177
            ],
            [
              78.498529,
              17.415792
            ],
            [
              78.497671,
              17.413846
            ],
            [
              78.497998,
              17.410801
            ],
            [
              78.49776,
              17.408976
            ],
            [
              78.497275,
              17.407803
            ],
            [
              78.49668,
              17.406725
            ],
            [
              78.497542,
              17.406503
            ],
            [
              78.49999,
              17.405586
            ],
            [
              78.504978,
              17.403812
            ],
            [
              78.507392,
              17.403012
            ],
            [
              78.508885,
              17.401624
            ],
            [
              78.510502,
              17.403233
            ],
            [
              78.511565,
              17.40445
            ],
            [
              78.513374,
              17.405471
            ],
            [
              78.514236,
              17.405583
            ],
            [
              78.514871,
              17.406238
            ],
            [
              78.517748,
              17.409673
            ],
            [
              78.517256,
              17.410016
            ],
            [
              78.517164,
              17.410287
            ],
            [
              78.517006,
              17.410497
            ],
            [
              78.516766,
              17.41063
            ],
            [
              78.51643,
              17.410741
            ],
            [
              78.515783,
              17.410889
            ],
            [
              78.514898,
              17.411102
            ],
            [
              78.513932,
              17.411292
            ],
            [
              78.514003,
              17.411642
            ],
            [
              78.513506,
              17.411935
            ],
            [
              78.512605,
              17.413877
            ],
            [
              78.511642,
              17.414969
            ],
            [
              78.510217,
              17.415533
            ],
            [
              78.50963,
              17.41576
            ],
            [
              78.508792,
              17.415952
            ],
            [
              78.50831,
              17.41614
            ],
            [
              78.507455,
              17.416098
            ],
            [
              78.506659,
              17.415964
            ],
            [
              78.506347,
              17.416
            ],
            [
              78.505631,
              17.416171
            ],
            [
              78.50421,
              17.416454
            ],
            [
              78.503354,
              17.416744
            ],
            [
              78.502631,
              17.417333
            ],
            [
              78.501645,
              17.417625
            ],
            [
              78.500418,
              17.417665
            ],
            [
              78.499496,
              17.4177
            ]
          ]
        ]
      }
    }
  ]
}