{
  "type": "FeatureCollection",
  "features": [
    {
      "type": "Feature",
      "properties": {},
      "geometry": {
        "type": "Polygon",
        "coordinates": [
          [
            [
              78.505961,
              17.433883
            ],
            [
              78.496695,
              17.431798
            ],
            [
              78.486129,
              17.430182
            ],
            [
              78.482196,
              17.42032
            ],
            [
              78.478463,
              17.412868
            ],
            [
              78.480014,
              17.41232
            ],
            [
              78.483315,
              17.411471
            ],
            [
              78.48699,
              17.410019
            ],
            [
              78.49124,
              17.408704
            ],
            [
              78.495862,
              17.407088
            ],
            [
              78.496492,
              17.406919
            ],
            [
              78.497255,
              17.4083
            ],
            [
              78.497671,
              17.409615
            ],
            [
              78.497812,
              17.411207
            ],
            [
              78.497503,
              17.413213
            ],
            [
              78.497612,
              17.414121
            ],
            [
              78.498008,
              17.415161
            ],
            [
              78.49891,
              17.41691
            ],
            [
              78.499508,
              17.418402
            ],
            [
              78.500256,
              17.420061
            ],
            [
              78.501173,
              17.421689
            ],
            [
              78.501535,
              17.422583
            ],
            [
              78.501815,
              17.423528
            ],
            [
              78.501834,
              17.426238
            ],
            [
              78.502052,
              17.42786
            ],
            [
              78.502277,
              17.428539
            ],
            [
              78.502684,
              17.428786
            ],
            [
              78.504553,
              17.430083
            ],
            [
              78.504892,
              17.430497
            ],
            [
              78.505111,
              17.430933
            ],
            [
              78.505751,
              17.432171
            ],
            [
              78.506009,
              17.43288
            ],
            [
              78.505961,
              17.433883
            ]
          ]
        ]
      }
    }
  ]
}