{
  "type": "FeatureCollection",
  "features": [
    {
      "type": "Feature",
      "properties": {},
      "geometry": {
        "type": "Polygon",
        "coordinates": [
          [
            [
              78.45086,
              17.408052
            ],
            [
              78.451224,
              17.406386
            ],
            [
              78.452937,
              17.403903
            ],
            [
              78.45141,
              17.401176
            ],
            [
              78.450664,
              17.395383
            ],
            [
              78.449391,
              17.391077
            ],
            [
              78.455424,
              17.388649
            ],
            [
              78.466098,
              17.383551
            ],
            [
              78.468006,
              17.390892
            ],
            [
              78.466673,
              17.398656
            ],
            [
              78.4675,
              17.407386
            ],
            [
              78.466673,
              17.414905
            ],
            [
              78.462035,
              17.415873
            ],
            [
              78.458606,
              17.415145
            ],
            [
              78.450484,
              17.41411
            ],
            [
              78.45086,
              17.408052
            ]
          ]
        ]
      }
    }
  ]
}