{
  "type": "FeatureCollection",
  "features": [
    {
      "type": "Feature",
      "properties": {},
      "geometry": {
        "type": "Polygon",
        "coordinates": [
          [
            [
              78.504185,
              17.415699
            ],
            [
              78.503958,
              17.414388
            ],
            [
              78.506253,
              17.412093
            ],
            [
              78.507098,
              17.411133
            ],
            [
              78.507828,
              17.413235
            ],
            [
              78.507964,
              17.413232
            ],
            [
              78.50699,
              17.41388
            ],
            [
              78.506076,
              17.414476
            ],
            [
              78.50514,
              17.415083
            ],
            [
              78.504185,
              17.415699
            ]
          ]
        ]
      }
    }
  ]
}