{
  "type": "FeatureCollection",
  "features": [
    {
      "type": "Feature",
      "properties": {},
      "geometry": {
        "type": "Polygon",
        "coordinates": [
          [
            [
              78.488646,
              17.415494
            ],
            [
              78.49756,
              17.414083
            ],
            [
              78.498299,
              17.41566
            ],
            [
              78.50143,
              17.414705
            ],
            [
              78.503952,
              17.414456
            ],
            [
              78.504169,
              17.415743
            ],
            [
              78.507996,
              17.413253
            ],
            [
              78.508691,
              17.414332
            ],
            [
              78.510257,
              17.413544
            ],
            [
              78.511257,
              17.415162
            ],
            [
              78.508083,
              17.415701
            ],
            [
              78.507561,
              17.416157
            ],
            [
              78.508474,
              17.420057
            ],
            [
              78.50717,
              17.420389
            ],
            [
              78.506213,
              17.41985
            ],
            [
              78.505474,
              17.419726
            ],
            [
              78.500691,
              17.42068
            ],
            [
              78.49969,
              17.418854
            ],
            [
              78.495038,
              17.418232
            ],
            [
              78.49469,
              17.418688
            ],
            [
              78.493168,
              17.418149
            ],
            [
              78.489124,
              17.418356
            ],
            [
              78.488646,
              17.415494
            ]
          ]
        ]
      }
    }
  ]
}