{
  "type": "FeatureCollection",
  "features": [
    {
      "type": "Feature",
      "properties": {},
      "geometry": {
        "type": "Polygon",
        "coordinates": [
          [
            [
              78.482439,
              17.385377
            ],
            [
              78.484562,
              17.385083
            ],
            [
              78.487061,
              17.388448
            ],
            [
              78.487746,
              17.388579
            ],
            [
              78.49028,
              17.387403
            ],
            [
              78.490896,
              17.39018
            ],
            [
              78.494936,
              17.389624
            ],
            [
              78.494114,
              17.386749
            ],
            [
              78.492063,
              17.385523
            ],
            [
              78.491832,
              17.384611
            ],
            [
              78.490891,
              17.383871
            ],
            [
              78.49178,
              17.3811
            ],
            [
              78.492618,
              17.380352
            ],
            [
              78.49486,
              17.380983
            ],
            [
              78.497292,
              17.382832
            ],
            [
              78.49914,
              17.384907
            ],
            [
              78.495714,
              17.38474
            ],
            [
              78.497187,
              17.386394
            ],
            [
              78.499,
              17.388553
            ],
            [
              78.499844,
              17.389475
            ],
            [
              78.502953,
              17.392813
            ],
            [
              78.502141,
              17.393409
            ],
            [
              78.501935,
              17.393971
            ],
            [
              78.500243,
              17.394852
            ],
            [
              78.499079,
              17.394656
            ],
            [
              78.497743,
              17.393022
            ],
            [
              78.498599,
              17.392467
            ],
            [
              78.497778,
              17.390931
            ],
            [
              78.496956,
              17.390408
            ],
            [
              78.490177,
              17.391519
            ],
            [
              78.488807,
              17.391715
            ],
            [
              78.485487,
              17.390343
            ],
            [
              78.483056,
              17.390441
            ],
            [
              78.482439,
              17.385377
            ]
          ]
        ]
      }
    }
  ]
}