{
  "type": "FeatureCollection",
  "features": [
    {
      "type": "Feature",
      "properties": {},
      "geometry": {
        "type": "Polygon",
        "coordinates": [
          [
            [
              78.487547,
              17.425479
            ],
            [
              78.486429,
              17.425632
            ],
            [
              78.48602,
              17.424792
            ],
            [
              78.485356,
              17.422407
            ],
            [
              78.488082,
              17.422565
            ],
            [
              78.488825,
              17.422203
            ],
            [
              78.489443,
              17.421889
            ],
            [
              78.489804,
              17.422816
            ],
            [
              78.489594,
              17.423134
            ],
            [
              78.489797,
              17.424099
            ],
            [
              78.49003,
              17.425133
            ],
            [
              78.487547,
              17.425479
            ]
          ]
        ]
      }
    }
  ]
}