{
  "type": "FeatureCollection",
  "features": [
    {
      "type": "Feature",
      "properties": {},
      "geometry": {
        "type": "Polygon",
        "coordinates": [
          [
            [
              78.477256,
              17.406739
            ],
            [
              78.480608,
              17.405054
            ],
            [
              78.482195,
              17.403769
            ],
            [
              78.483602,
              17.402284
            ],
            [
              78.484769,
              17.402255
            ],
            [
              78.48526,
              17.403541
            ],
            [
              78.485542,
              17.405343
            ],
            [
              78.485797,
              17.407164
            ],
            [
              78.486085,
              17.409019
            ],
            [
              78.486262,
              17.4102
            ],
            [
              78.487182,
              17.409942
            ],
            [
              78.488645,
              17.409528
            ],
            [
              78.492576,
              17.408088
            ],
            [
              78.493585,
              17.407724
            ],
            [
              78.494587,
              17.407388
            ],
            [
              78.496591,
              17.406699
            ],
            [
              78.496857,
              17.407274
            ],
            [
              78.490417,
              17.409637
            ],
            [
              78.491228,
              17.414991
            ],
            [
              78.489768,
              17.415233
            ],
            [
              78.488464,
              17.415437
            ],
            [
              78.485755,
              17.416014
            ],
            [
              78.485482,
              17.413376
            ],
            [
              78.486251,
              17.41038
            ],
            [
              78.485356,
              17.410705
            ],
            [
              78.481608,
              17.412145
            ],
            [
              78.48151,
              17.41182
            ],
            [
              78.480975,
              17.410659
            ],
            [
              78.476789,
              17.409265
            ],
            [
              78.477256,
              17.406739
            ]
          ]
        ]
      }
    }
  ]
}