{
  "type": "FeatureCollection",
  "features": [
    {
      "type": "Feature",
      "properties": {},
      "geometry": {
        "type": "Polygon",
        "coordinates": [
          [
            [
              78.523624,
              17.387479
            ],
            [
              78.529125,
              17.384206
            ],
            [
              78.530386,
              17.389177
            ],
            [
              78.535854,
              17.389949
            ],
            [
              78.536081,
              17.395105
            ],
            [
              78.535434,
              17.39739
            ],
            [
              78.534916,
              17.398687
            ],
            [
              78.527669,
              17.395785
            ],
            [
              78.527022,
              17.393191
            ],
            [
              78.527022,
              17.391925
            ],
            [
              78.526892,
              17.389393
            ],
            [
              78.523398,
              17.38964
            ],
            [
              78.523624,
              17.387479
            ]
          ]
        ]
      }
    }
  ]
}