{
  "type": "FeatureCollection",
  "features": [
    {
      "type": "Feature",
      "properties": {},
      "geometry": {
        "type": "Polygon",
        "coordinates": [
          [
            [
              78.50609,
              17.433108
            ],
            [
              78.50497,
              17.430245
            ],
            [
              78.506537,
              17.430573
            ],
            [
              78.5082,
              17.430911
            ],
            [
              78.511623,
              17.428578
            ],
            [
              78.511634,
              17.428086
            ],
            [
              78.511388,
              17.426876
            ],
            [
              78.511103,
              17.42565
            ],
            [
              78.510951,
              17.424081
            ],
            [
              78.514632,
              17.426703
            ],
            [
              78.516535,
              17.42801
            ],
            [
              78.518464,
              17.429321
            ],
            [
              78.518063,
              17.429417
            ],
            [
              78.516629,
              17.431024
            ],
            [
              78.514978,
              17.432515
            ],
            [
              78.510963,
              17.433795
            ],
            [
              78.50609,
              17.433108
            ]
          ]
        ]
      }
    }
  ]
}