{
  "type": "FeatureCollection",
  "features": [
    {
      "type": "Feature",
      "properties": {},
      "geometry": {
        "type": "Polygon",
        "coordinates": [
          [
            [
              78.507938,
              17.420838
            ],
            [
              78.50722,
              17.42041
            ],
            [
              78.508511,
              17.420079
            ],
            [
              78.508274,
              17.419113
            ],
            [
              78.508063,
              17.418185
            ],
            [
              78.507749,
              17.416875
            ],
            [
              78.507588,
              17.416181
            ],
            [
              78.508039,
              17.415779
            ],
            [
              78.5082,
              17.415708
            ],
            [
              78.508546,
              17.415649
            ],
            [
              78.510122,
              17.415383
            ],
            [
              78.511304,
              17.415184
            ],
            [
              78.510289,
              17.413547
            ],
            [
              78.511714,
              17.412416
            ],
            [
              78.512982,
              17.411427
            ],
            [
              78.514879,
              17.410964
            ],
            [
              78.516766,
              17.409731
            ],
            [
              78.517879,
              17.410243
            ],
            [
              78.518675,
              17.413897
            ],
            [
              78.517792,
              17.415037
            ],
            [
              78.516858,
              17.414028
            ],
            [
              78.515982,
              17.414196
            ],
            [
              78.515548,
              17.414326
            ],
            [
              78.515226,
              17.414446
            ],
            [
              78.514642,
              17.414634
            ],
            [
              78.513599,
              17.414977
            ],
            [
              78.512708,
              17.415294
            ],
            [
              78.511118,
              17.416575
            ],
            [
              78.510599,
              17.417309
            ],
            [
              78.510413,
              17.418009
            ],
            [
              78.509942,
              17.419838
            ],
            [
              78.509818,
              17.420323
            ],
            [
              78.509798,
              17.420977
            ],
            [
              78.509757,
              17.421357
            ],
            [
              78.509742,
              17.421728
            ],
            [
              78.508784,
              17.421271
            ],
            [
              78.507938,
              17.420838
            ]
          ]
        ]
      }
    }
  ]
}