{
  "type": "FeatureCollection",
  "features": [
    {
      "type": "Feature",
      "properties": {},
      "geometry": {
        "type": "Polygon",
        "coordinates": [
          [
            [
              78.509547,
              17.400212
            ],
            [
              78.509798,
              17.400044
            ],
            [
              78.509921,
              17.399954
            ],
            [
              78.510045,
              17.399873
            ],
            [
              78.510313,
              17.399795
            ],
            [
              78.510592,
              17.399723
            ],
            [
              78.511273,
              17.399545
            ],
            [
              78.512212,
              17.399281
            ],
            [
              78.512121,
              17.398936
            ],
            [
              78.51207,
              17.398766
            ],
            [
              78.512022,
              17.398592
            ],
            [
              78.511897,
              17.398182
            ],
            [
              78.511778,
              17.397766
            ],
            [
              78.511371,
              17.396345
            ],
            [
              78.510917,
              17.394426
            ],
            [
              78.510795,
              17.392281
            ],
            [
              78.511934,
              17.391514
            ],
            [
              78.516091,
              17.392166
            ],
            [
              78.516062,
              17.393008
            ],
            [
              78.517315,
              17.393036
            ],
            [
              78.523863,
              17.39491
            ],
            [
              78.526141,
              17.395698
            ],
            [
              78.529586,
              17.397057
            ],
            [
              78.521956,
              17.403795
            ],
            [
              78.518197,
              17.405017
            ],
            [
              78.516404,
              17.405561
            ],
            [
              78.514752,
              17.405452
            ],
            [
              78.514211,
              17.404773
            ],
            [
              78.513528,
              17.404256
            ],
            [
              78.51088,
              17.401377
            ],
            [
              78.509547,
              17.400212
            ]
          ]
        ]
      }
    }
  ]
}