{
  "type": "FeatureCollection",
  "features": [
    {
      "type": "Feature",
      "properties": {},
      "geometry": {
        "type": "Polygon",
        "coordinates": [
          [
            [
              78.518114,
              17.429448
            ],
            [
              78.518472,
              17.429338
            ],
            [
              78.519518,
              17.428039
            ],
            [
              78.520478,
              17.426849
            ],
            [
              78.522192,
              17.426554
            ],
            [
              78.522591,
              17.428419
            ],
            [
              78.520575,
              17.431061
            ],
            [
              78.518114,
              17.429448
            ]
          ]
        ]
      }
    }
  ]
}