{
  "type": "FeatureCollection",
  "features": [
    {
      "type": "Feature",
      "properties": {},
      "geometry": {
        "type": "Polygon",
        "coordinates": [
          [
            [
              78.500353,
              17.420862
            ],
            [
              78.4986,
              17.421489
            ],
            [
              78.497396,
              17.421939
            ],
            [
              78.49621,
              17.422408
            ],
            [
              78.49553,
              17.422732
            ],
            [
              78.4947,
              17.418697
            ],
            [
              78.495041,
              17.418244
            ],
            [
              78.496265,
              17.418404
            ],
            [
              78.496872,
              17.418485
            ],
            [
              78.497453,
              17.418566
            ],
            [
              78.499403,
              17.418839
            ],
            [
              78.499676,
              17.418875
            ],
            [
              78.49975,
              17.419018
            ],
            [
              78.50017,
              17.419892
            ],
            [
              78.50053,
              17.42063
            ],
            [
              78.500593,
              17.420751
            ],
            [
              78.500353,
              17.420862
            ]
          ]
        ]
      }
    }
  ]
}