{
  "type": "FeatureCollection",
  "features": [
    {
      "type": "Feature",
      "properties": {},
      "geometry": {
        "type": "Polygon",
        "coordinates": [
          [
            [
              78.506213,
              17.408831
            ],
            [
              78.508052,
              17.407454
            ],
            [
              78.508474,
              17.407094
            ],
            [
              78.510522,
              17.408617
            ],
            [
              78.513366,
              17.407498
            ],
            [
              78.516576,
              17.409833
            ],
            [
              78.514808,
              17.410942
            ],
            [
              78.512973,
              17.411386
            ],
            [
              78.510295,
              17.413502
            ],
            [
              78.508703,
              17.414307
            ],
            [
              78.508001,
              17.413226
            ],
            [
              78.507853,
              17.413189
            ],
            [
              78.507778,
              17.412991
            ],
            [
              78.507677,
              17.412724
            ],
            [
              78.507318,
              17.411633
            ],
            [
              78.506213,
              17.408831
            ]
          ]
        ]
      }
    }
  ]
}