{
  "type": "FeatureCollection",
  "features": [
    {
      "type": "Feature",
      "properties": {},
      "geometry": {
        "type": "Polygon",
        "coordinates": [
          [
            [
              78.531206,
              17.426889
            ],
            [
              78.532421,
              17.425883
            ],
            [
              78.536117,
              17.424657
            ],
            [
              78.541463,
              17.419202
            ],
            [
              78.548515,
              17.4257
            ],
            [
              78.545123,
              17.428317
            ],
            [
              78.541753,
              17.430201
            ],
            [
              78.537582,
              17.432859
            ],
            [
              78.528155,
              17.432855
            ],
            [
              78.527066,
              17.42936
            ],
            [
              78.531206,
              17.426889
            ]
          ]
        ]
      }
    }
  ]
}