{
  "type": "FeatureCollection",
  "features": [
    {
      "type": "Feature",
      "properties": {},
      "geometry": {
        "type": "Polygon",
        "coordinates": [
          [
            [
              78.433673,
              17.457076
            ],
            [
              78.434157,
              17.45544
            ],
            [
              78.436007,
              17.452264
            ],
            [
              78.441382,
              17.442017
            ],
            [
              78.432706,
              17.444435
            ],
            [
              78.432308,
              17.440735
            ],
            [
              78.432239,
              17.436584
            ],
            [
              78.427598,
              17.437742
            ],
            [
              78.42418,
              17.439479
            ],
            [
              78.424292,
              17.441088
            ],
            [
              78.424194,
              17.444352
            ],
            [
              78.418517,
              17.445646
            ],
            [
              78.412947,
              17.44497
            ],
            [
              78.407773,
              17.444078
            ],
            [
              78.404872,
              17.441047
            ],
            [
              78.402275,
              17.43965
            ],
            [
              78.399692,
              17.438455
            ],
            [
              78.400348,
              17.437426
            ],
            [
              78.401294,
              17.435943
            ],
            [
              78.402605,
              17.434969
            ],
            [
              78.4048,
              17.433936
            ],
            [
              78.407025,
              17.432613
            ],
            [
              78.407025,
              17.431624
            ],
            [
              78.408169,
              17.430867
            ],
            [
              78.410059,
              17.429776
            ],
            [
              78.41172,
              17.430155
            ],
            [
              78.413357,
              17.428642
            ],
            [
              78.415415,
              17.426649
            ],
            [
              78.418189,
              17.429427
            ],
            [
              78.421131,
              17.431274
            ],
            [
              78.422183,
              17.431376
            ],
            [
              78.423586,
              17.430896
            ],
            [
              78.425598,
              17.429886
            ],
            [
              78.433205,
              17.42961
            ],
            [
              78.434516,
              17.430192
            ],
            [
              78.43665,
              17.430221
            ],
            [
              78.439942,
              17.430192
            ],
            [
              78.446193,
              17.430017
            ],
            [
              78.448159,
              17.42977
            ],
            [
              78.450415,
              17.429712
            ],
            [
              78.45255,
              17.426948
            ],
            [
              78.453434,
              17.42849
            ],
            [
              78.455507,
              17.428868
            ],
            [
              78.461638,
              17.427087
            ],
            [
              78.462599,
              17.430122
            ],
            [
              78.464642,
              17.433399
            ],
            [
              78.46716,
              17.43694
            ],
            [
              78.470507,
              17.437951
            ],
            [
              78.47107,
              17.441207
            ],
            [
              78.473655,
              17.439405
            ],
            [
              78.476007,
              17.438489
            ],
            [
              78.476776,
              17.439441
            ],
            [
              78.477393,
              17.44897
            ],
            [
              78.457045,
              17.449558
            ],
            [
              78.451423,
              17.451738
            ],
            [
              78.45029,
              17.450968
            ],
            [
              78.44977,
              17.45544
            ],
            [
              78.433673,
              17.457076
            ]
          ]
        ]
      }
    }
  ]
}