{
  "type": "FeatureCollection",
  "features": [
    {
      "type": "Feature",
      "properties": {},
      "geometry": {
        "type": "Polygon",
        "coordinates": [
          [
            [
              78.40104,
              17.494269
            ],
            [
              78.406856,
              17.496905
            ],
            [
              78.409354,
              17.49797
            ],
            [
              78.412436,
              17.498805
            ],
            [
              78.415407,
              17.500084
            ],
            [
              78.417389,
              17.501147
            ],
            [
              78.42039,
              17.502781
            ],
            [
              78.420126,
              17.503451
            ],
            [
              78.418552,
              17.505589
            ],
            [
              78.416215,
              17.507636
            ],
            [
              78.414259,
              17.508956
            ],
            [
              78.413162,
              17.512458
            ],
            [
              78.411779,
              17.51405
            ],
            [
              78.406103,
              17.514733
            ],
            [
              78.402495,
              17.514562
            ],
            [
              78.402268,
              17.51189
            ],
            [
              78.402645,
              17.508118
            ],
            [
              78.403164,
              17.507424
            ],
            [
              78.40755,
              17.506918
            ],
            [
              78.407995,
              17.503527
            ],
            [
              78.408957,
              17.500375
            ],
            [
              78.408382,
              17.499298
            ],
            [
              78.401983,
              17.499279
            ],
            [
              78.401965,
              17.498594
            ],
            [
              78.400641,
              17.496359
            ],
            [
              78.399685,
              17.494771
            ],
            [
              78.40104,
              17.494269
            ]
          ]
        ]
      }
    }
  ]
}