{
  "type": "FeatureCollection",
  "features": [
    {
      "type": "Feature",
      "properties": {},
      "geometry": {
        "type": "Polygon",
        "coordinates": [
          [
            [
              78.550719,
              17.514422
            ],
            [
              78.550997,
              17.513275
            ],
            [
              78.558981,
              17.506055
            ],
            [
              78.570005,
              17.505557
            ],
            [
              78.575912,
              17.505247
            ],
            [
              78.5818,
              17.504871
            ],
            [
              78.584542,
              17.505956
            ],
            [
              78.58552,
              17.504812
            ],
            [
              78.586762,
              17.503875
            ],
            [
              78.588974,
              17.502025
            ],
            [
              78.600708,
              17.507262
            ],
            [
              78.592196,
              17.514562
            ],
            [
              78.578302,
              17.524117
            ],
            [
              78.555911,
              17.525699
            ],
            [
              78.550719,
              17.514422
            ]
          ]
        ]
      }
    }
  ]
}