{
  "type": "FeatureCollection",
  "features": [
    {
      "type": "Feature",
      "properties": {},
      "geometry": {
        "type": "Polygon",
        "coordinates": [
          [
            [
              78.535882,
              17.434667
            ],
            [
              78.536731,
              17.433941
            ],
            [
              78.538138,
              17.43348
            ],
            [
              78.54106,
              17.434947
            ],
            [
              78.542913,
              17.434982
            ],
            [
              78.543857,
              17.43624
            ],
            [
              78.544209,
              17.439049
            ],
            [
              78.543154,
              17.441564
            ],
            [
              78.541484,
              17.441187
            ],
            [
              78.53843,
              17.440558
            ],
            [
              78.53397,
              17.440264
            ],
            [
              78.532805,
              17.437791
            ],
            [
              78.535882,
              17.434667
            ]
          ]
        ]
      }
    }
  ]
}