{
  "type": "FeatureCollection",
  "features": [
    {
      "type": "Feature",
      "properties": {},
      "geometry": {
        "type": "Polygon",
        "coordinates": [
          [
            [
              78.530326,
              17.473256
            ],
            [
              78.532245,
              17.472576
            ],
            [
              78.552179,
              17.482814
            ],
            [
              78.55253,
              17.484978
            ],
            [
              78.55474,
              17.485859
            ],
            [
              78.553126,
              17.487185
            ],
            [
              78.552124,
              17.488058
            ],
            [
              78.549923,
              17.489741
            ],
            [
              78.546763,
              17.492796
            ],
            [
              78.542797,
              17.49687
            ],
            [
              78.538831,
              17.501006
            ],
            [
              78.532141,
              17.491903
            ],
            [
              78.528458,
              17.48785
            ],
            [
              78.527152,
              17.485086
            ],
            [
              78.527422,
              17.482172
            ],
            [
              78.528211,
              17.479233
            ],
            [
              78.530326,
              17.473256
            ]
          ]
        ]
      }
    }
  ]
}