{
  "type": "FeatureCollection",
  "features": [
    {
      "type": "Feature",
      "properties": {},
      "geometry": {
        "type": "Polygon",
        "coordinates": [
          [
            [
              78.558671,
              17.4624
            ],
            [
              78.570657,
              17.473025
            ],
            [
              78.568651,
              17.474402
            ],
            [
              78.566957,
              17.476642
            ],
            [
              78.56341,
              17.477159
            ],
            [
              78.557614,
              17.479529
            ],
            [
              78.554965,
              17.481132
            ],
            [
              78.552374,
              17.482423
            ],
            [
              78.551914,
              17.482524
            ],
            [
              78.550527,
              17.481832
            ],
            [
              78.548705,
              17.480887
            ],
            [
              78.545009,
              17.478998
            ],
            [
              78.537781,
              17.475242
            ],
            [
              78.558671,
              17.4624
            ]
          ]
        ]
      }
    }
  ]
}