{
  "type": "FeatureCollection",
  "features": [
    {
      "type": "Feature",
      "properties": {},
      "geometry": {
        "type": "Polygon",
        "coordinates": [
          [
            [
              78.403959,
              17.483959
            ],
            [
              78.408304,
              17.478811
            ],
            [
              78.414397,
              17.480045
            ],
            [
              78.415699,
              17.481747
            ],
            [
              78.415273,
              17.482024
            ],
            [
              78.412649,
              17.483724
            ],
            [
              78.4115,
              17.485337
            ],
            [
              78.409542,
              17.488075
            ],
            [
              78.407559,
              17.490619
            ],
            [
              78.406707,
              17.491417
            ],
            [
              78.405331,
              17.488281
            ],
            [
              78.403959,
              17.483959
            ]
          ]
        ]
      }
    }
  ]
}