{
  "type": "FeatureCollection",
  "features": [
    {
      "type": "Feature",
      "properties": {},
      "geometry": {
        "type": "Polygon",
        "coordinates": [
          [
            [
              78.403372,
              17.492991
            ],
            [
              78.397291,
              17.495763
            ],
            [
              78.39508,
              17.496392
            ],
            [
              78.389364,
              17.482225
            ],
            [
              78.385644,
              17.477576
            ],
            [
              78.3844,
              17.472833
            ],
            [
              78.386887,
              17.471028
            ],
            [
              78.391968,
              17.469327
            ],
            [
              78.396184,
              17.477163
            ],
            [
              78.395049,
              17.482422
            ],
            [
              78.400508,
              17.484381
            ],
            [
              78.403372,
              17.492991
            ]
          ]
        ]
      }
    }
  ]
}