{
  "type": "FeatureCollection",
  "features": [
    {
      "type": "Feature",
      "properties": {},
      "geometry": {
        "type": "Polygon",
        "coordinates": [
          [
            [
              78.414152,
              17.499565
            ],
            [
              78.414391,
              17.499126
            ],
            [
              78.415228,
              17.498965
            ],
            [
              78.416092,
              17.49859
            ],
            [
              78.416305,
              17.498513
            ],
            [
              78.416581,
              17.498334
            ],
            [
              78.417191,
              17.497903
            ],
            [
              78.417482,
              17.498169
            ],
            [
              78.418651,
              17.499248
            ],
            [
              78.419898,
              17.500363
            ],
            [
              78.42201,
              17.502305
            ],
            [
              78.42596,
              17.501665
            ],
            [
              78.42596,
              17.49885
            ],
            [
              78.425538,
              17.497857
            ],
            [
              78.427546,
              17.496941
            ],
            [
              78.428639,
              17.496493
            ],
            [
              78.428539,
              17.496274
            ],
            [
              78.431309,
              17.494998
            ],
            [
              78.431966,
              17.494985
            ],
            [
              78.433036,
              17.49205
            ],
            [
              78.435938,
              17.489283
            ],
            [
              78.442703,
              17.485028
            ],
            [
              78.444913,
              17.489085
            ],
            [
              78.444752,
              17.491681
            ],
            [
              78.43704,
              17.498519
            ],
            [
              78.432629,
              17.501609
            ],
            [
              78.43165,
              17.504736
            ],
            [
              78.431343,
              17.507453
            ],
            [
              78.427623,
              17.509581
            ],
            [
              78.424119,
              17.511247
            ],
            [
              78.427139,
              17.512705
            ],
            [
              78.425202,
              17.514728
            ],
            [
              78.424095,
              17.515382
            ],
            [
              78.422594,
              17.515357
            ],
            [
              78.422119,
              17.513725
            ],
            [
              78.418953,
              17.511974
            ],
            [
              78.411206,
              17.505361
            ],
            [
              78.410767,
              17.503518
            ],
            [
              78.411107,
              17.503289
            ],
            [
              78.41365,
              17.501955
            ],
            [
              78.413808,
              17.501228
            ],
            [
              78.414386,
              17.500557
            ],
            [
              78.414152,
              17.499565
            ]
          ]
        ]
      }
    }
  ]
}