{
  "type": "FeatureCollection",
  "features": [
    {
      "type": "Feature",
      "properties": {},
      "geometry": {
        "type": "Polygon",
        "coordinates": [
          [
            [
              78.388549,
              17.541429
            ],
            [
              78.387789,
              17.535411
            ],
            [
              78.385681,
              17.529781
            ],
            [
              78.385279,
              17.528882
            ],
            [
              78.386798,
              17.526765
            ],
            [
              78.387382,
              17.524256
            ],
            [
              78.38715,
              17.521347
            ],
            [
              78.389372,
              17.519005
            ],
            [
              78.388375,
              17.514321
            ],
            [
              78.392117,
              17.512982
            ],
            [
              78.400129,
              17.513652
            ],
            [
              78.401736,
              17.510688
            ],
            [
              78.401397,
              17.506937
            ],
            [
              78.401752,
              17.50497
            ],
            [
              78.401725,
              17.503196
            ],
            [
              78.401126,
              17.503203
            ],
            [
              78.401196,
              17.502148
            ],
            [
              78.4016,
              17.501146
            ],
            [
              78.401434,
              17.499349
            ],
            [
              78.401966,
              17.499352
            ],
            [
              78.401984,
              17.498604
            ],
            [
              78.399749,
              17.494839
            ],
            [
              78.404104,
              17.492821
            ],
            [
              78.406398,
              17.496738
            ],
            [
              78.409466,
              17.49797
            ],
            [
              78.410667,
              17.49695
            ],
            [
              78.412612,
              17.497979
            ],
            [
              78.412803,
              17.498405
            ],
            [
              78.414056,
              17.497529
            ],
            [
              78.414863,
              17.498502
            ],
            [
              78.415167,
              17.498929
            ],
            [
              78.414375,
              17.499103
            ],
            [
              78.414122,
              17.499528
            ],
            [
              78.413494,
              17.501531
            ],
            [
              78.410452,
              17.50188
            ],
            [
              78.410699,
              17.503473
            ],
            [
              78.411117,
              17.505405
            ],
            [
              78.414403,
              17.50813
            ],
            [
              78.410703,
              17.510335
            ],
            [
              78.413105,
              17.513295
            ],
            [
              78.405275,
              17.518281
            ],
            [
              78.405275,
              17.528965
            ],
            [
              78.399256,
              17.537101
            ],
            [
              78.395692,
              17.540499
            ],
            [
              78.388549,
              17.541429
            ]
          ]
        ]
      }
    }
  ]
}