{
  "type": "FeatureCollection",
  "features": [
    {
      "type": "Feature",
      "properties": {},
      "geometry": {
        "type": "Polygon",
        "coordinates": [
          [
            [
              78.403372,
              17.492991
            ],
            [
              78.400007,
              17.494492
            ],
            [
              78.397487,
              17.495725
            ],
            [
              78.394952,
              17.496366
            ],
            [
              78.39013,
              17.484484
            ],
            [
              78.389263,
              17.482098
            ],
            [
              78.385644,
              17.477576
            ],
            [
              78.3844,
              17.472833
            ],
            [
              78.386887,
              17.471028
            ],
            [
              78.391968,
              17.469327
            ],
            [
              78.396184,
              17.477163
            ],
            [
              78.395049,
              17.482422
            ],
            [
              78.400508,
              17.484381
            ],
            [
              78.403372,
              17.492991
            ]
          ]
        ]
      }
    }
  ]
}