{
  "type": "FeatureCollection",
  "features": [
    {
      "type": "Feature",
      "properties": {},
      "geometry": {
        "type": "Polygon",
        "coordinates": [
          [
            [
              78.393548,
              17.496929
            ],
            [
              78.397291,
              17.495873
            ],
            [
              78.399729,
              17.494838
            ],
            [
              78.401958,
              17.498601
            ],
            [
              78.401951,
              17.499341
            ],
            [
              78.401416,
              17.499317
            ],
            [
              78.401575,
              17.501153
            ],
            [
              78.401159,
              17.502148
            ],
            [
              78.401067,
              17.503258
            ],
            [
              78.401696,
              17.503249
            ],
            [
              78.401678,
              17.504975
            ],
            [
              78.395887,
              17.505304
            ],
            [
              78.393989,
              17.505432
            ],
            [
              78.393548,
              17.496929
            ]
          ]
        ]
      }
    }
  ]
}