{
  "type": "FeatureCollection",
  "features": [
    {
      "type": "Feature",
      "properties": {},
      "geometry": {
        "type": "Polygon",
        "coordinates": [
          [
            [
              78.389933,
              17.484319
            ],
            [
              78.392095,
              17.489393
            ],
            [
              78.38647,
              17.490133
            ],
            [
              78.384586,
              17.492089
            ],
            [
              78.383172,
              17.490635
            ],
            [
              78.380917,
              17.491976
            ],
            [
              78.380049,
              17.489174
            ],
            [
              78.37899,
              17.487126
            ],
            [
              78.375885,
              17.480433
            ],
            [
              78.378213,
              17.47742
            ],
            [
              78.380263,
              17.482627
            ],
            [
              78.389241,
              17.482389
            ],
            [
              78.389933,
              17.484319
            ]
          ]
        ]
      }
    }
  ]
}