{
  "type": "FeatureCollection",
  "features": [
    {
      "type": "Feature",
      "properties": {},
      "geometry": {
        "type": "Polygon",
        "coordinates": [
          [
            [
              78.387042,
              17.47134
            ],
            [
              78.388641,
              17.475089
            ],
            [
              78.390434,
              17.477648
            ],
            [
              78.389288,
              17.481879
            ],
            [
              78.390045,
              17.484427
            ],
            [
              78.382205,
              17.488097
            ],
            [
              78.382135,
              17.488251
            ],
            [
              78.374725,
              17.491748
            ],
            [
              78.368402,
              17.485762
            ],
            [
              78.370318,
              17.482381
            ],
            [
              78.375779,
              17.479
            ],
            [
              78.381672,
              17.474751
            ],
            [
              78.387042,
              17.47134
            ]
          ]
        ]
      }
    }
  ]
}