{
  "type": "FeatureCollection",
  "features": [
    {
      "type": "Feature",
      "properties": {},
      "geometry": {
        "type": "Polygon",
        "coordinates": [
          [
            [
              78.421033391,
              17.480974063
            ],
            [
              78.420054485,
              17.498069792
            ],
            [
              78.418829093,
              17.498173511
            ],
            [
              78.41757988,
              17.498118197
            ],
            [
              78.417344469,
              17.497700864
            ],
            [
              78.416501616,
              17.498107092
            ],
            [
              78.415301446,
              17.498899542
            ],
            [
              78.414320509,
              17.499098641
            ],
            [
              78.413935103,
              17.499547648
            ],
            [
              78.412983077,
              17.500522586
            ],
            [
              78.411817094,
              17.500434293
            ],
            [
              78.408354707,
              17.499262988
            ],
            [
              78.402016189,
              17.499316521
            ],
            [
              78.401977385,
              17.498628235
            ],
            [
              78.399754787,
              17.494778482
            ],
            [
              78.404030834,
              17.492791628
            ],
            [
              78.407487078,
              17.490766953
            ],
            [
              78.406382115,
              17.490092681
            ],
            [
              78.40614755,
              17.488890962
            ],
            [
              78.403628324,
              17.486113448
            ],
            [
              78.403625619,
              17.482884823
            ],
            [
              78.407560531,
              17.478230876
            ],
            [
              78.412754394,
              17.480237021
            ],
            [
              78.415902707,
              17.481665591
            ],
            [
              78.421021184,
              17.477553842
            ],
            [
              78.422030062,
              17.480143132
            ],
            [
              78.421802491,
              17.480517276
            ],
            [
              78.421033391,
              17.480974063
            ]
          ]
        ]
      }
    }
  ]
}