{
  "type": "FeatureCollection",
  "features": [
    {
      "type": "Feature",
      "properties": {},
      "geometry": {
        "type": "Polygon",
        "coordinates": [
          [
            [
              78.487151,
              17.430425
            ],
            [
              78.492458,
              17.431912
            ],
            [
              78.507363,
              17.434708
            ],
            [
              78.520282,
              17.439805
            ],
            [
              78.527006,
              17.442433
            ],
            [
              78.530538,
              17.453118
            ],
            [
              78.532204,
              17.45925
            ],
            [
              78.53179,
              17.462963
            ],
            [
              78.527697,
              17.478206
            ],
            [
              78.5258,
              17.484594
            ],
            [
              78.51377,
              17.487868
            ],
            [
              78.508343,
              17.486967
            ],
            [
              78.501618,
              17.483357
            ],
            [
              78.499606,
              17.483209
            ],
            [
              78.495238,
              17.484847
            ],
            [
              78.489162,
              17.486156
            ],
            [
              78.485715,
              17.481643
            ],
            [
              78.478038,
              17.475732
            ],
            [
              78.47399,
              17.469816
            ],
            [
              78.47226,
              17.463733
            ],
            [
              78.466668,
              17.460687
            ],
            [
              78.462162,
              17.443922
            ],
            [
              78.4725,
              17.438164
            ],
            [
              78.487151,
              17.430425
            ]
          ]
        ]
      }
    }
  ]
}