{
  "type": "FeatureCollection",
  "features": [
    {
      "type": "Feature",
      "properties": {},
      "geometry": {
        "type": "Polygon",
        "coordinates": [
          [
            [
              78.517197,
              17.410226
            ],
            [
              78.522346,
              17.415961
            ],
            [
              78.523747,
              17.419822
            ],
            [
              78.527485,
              17.423015
            ],
            [
              78.531146,
              17.427473
            ],
            [
              78.535597,
              17.432012
            ],
            [
              78.53655,
              17.433924
            ],
            [
              78.533729,
              17.435956
            ],
            [
              78.530923,
              17.43722
            ],
            [
              78.52414,
              17.438482
            ],
            [
              78.520132,
              17.43892
            ],
            [
              78.514885,
              17.436481
            ],
            [
              78.510409,
              17.434392
            ],
            [
              78.506354,
              17.433283
            ],
            [
              78.49895,
              17.431569
            ],
            [
              78.497397,
              17.427177
            ],
            [
              78.496542,
              17.42212
            ],
            [
              78.498187,
              17.415725
            ],
            [
              78.507225,
              17.411414
            ],
            [
              78.517197,
              17.410226
            ]
          ]
        ]
      }
    }
  ]
}