{
  "type": "FeatureCollection",
  "features": [
    {
      "type": "Feature",
      "properties": {},
      "geometry": {
        "type": "Polygon",
        "coordinates": [
          [
            [
              78.511959,
              17.488722
            ],
            [
              78.52606,
              17.485122
            ],
            [
              78.530756,
              17.489419
            ],
            [
              78.534316,
              17.49263
            ],
            [
              78.535818,
              17.494722
            ],
            [
              78.534102,
              17.494591
            ],
            [
              78.53217,
              17.496802
            ],
            [
              78.535391,
              17.498722
            ],
            [
              78.5368,
              17.499528
            ],
            [
              78.537676,
              17.500147
            ],
            [
              78.53902,
              17.501615
            ],
            [
              78.539716,
              17.503876
            ],
            [
              78.540319,
              17.505062
            ],
            [
              78.540583,
              17.50559
            ],
            [
              78.540599,
              17.506065
            ],
            [
              78.54106,
              17.509092
            ],
            [
              78.540662,
              17.510243
            ],
            [
              78.540147,
              17.511572
            ],
            [
              78.539951,
              17.513006
            ],
            [
              78.541191,
              17.519267
            ],
            [
              78.541949,
              17.526811
            ],
            [
              78.534932,
              17.52523
            ],
            [
              78.527155,
              17.526441
            ],
            [
              78.52193,
              17.528872
            ],
            [
              78.514148,
              17.531428
            ],
            [
              78.510967,
              17.534464
            ],
            [
              78.506768,
              17.537254
            ],
            [
              78.501282,
              17.539689
            ],
            [
              78.496173,
              17.54176
            ],
            [
              78.491323,
              17.542371
            ],
            [
              78.489633,
              17.535262
            ],
            [
              78.485559,
              17.527302
            ],
            [
              78.483225,
              17.523563
            ],
            [
              78.482099,
              17.518789
            ],
            [
              78.479986,
              17.515064
            ],
            [
              78.479903,
              17.511002
            ],
            [
              78.47801,
              17.501881
            ],
            [
              78.475034,
              17.493948
            ],
            [
              78.484067,
              17.490166
            ],
            [
              78.489746,
              17.486298
            ],
            [
              78.497193,
              17.484762
            ],
            [
              78.499734,
              17.483466
            ],
            [
              78.505817,
              17.486412
            ],
            [
              78.508917,
              17.487836
            ],
            [
              78.511959,
              17.488722
            ]
          ]
        ]
      }
    }
  ]
}