{
  "type": "FeatureCollection",
  "features": [
    {
      "type": "Feature",
      "properties": {},
      "geometry": {
        "type": "Polygon",
        "coordinates": [
          [
            [
              78.641297,
              17.46745
            ],
            [
              78.64326,
              17.469917
            ],
            [
              78.643968,
              17.471191
            ],
            [
              78.644204,
              17.473217
            ],
            [
              78.644675,
              17.474717
            ],
            [
              78.644675,
              17.476442
            ],
            [
              78.644518,
              17.477343
            ],
            [
              78.644439,
              17.479143
            ],
            [
              78.64381,
              17.480343
            ],
            [
              78.643259,
              17.481543
            ],
            [
              78.642944,
              17.483118
            ],
            [
              78.642629,
              17.484993
            ],
            [
              78.641293,
              17.486342
            ],
            [
              78.639642,
              17.487167
            ],
            [
              78.638934,
              17.488367
            ],
            [
              78.637755,
              17.489716
            ],
            [
              78.636733,
              17.491365
            ],
            [
              78.635397,
              17.493464
            ],
            [
              78.634925,
              17.494214
            ],
            [
              78.633196,
              17.495713
            ],
            [
              78.632567,
              17.496688
            ],
            [
              78.631624,
              17.497212
            ],
            [
              78.629581,
              17.49946
            ],
            [
              78.626831,
              17.501481
            ],
            [
              78.625025,
              17.502454
            ],
            [
              78.625574,
              17.501256
            ],
            [
              78.624475,
              17.499906
            ],
            [
              78.62,
              17.500127
            ],
            [
              78.618038,
              17.499451
            ],
            [
              78.61482,
              17.4987
            ],
            [
              78.612781,
              17.498698
            ],
            [
              78.610036,
              17.495624
            ],
            [
              78.607759,
              17.494276
            ],
            [
              78.60595,
              17.493155
            ],
            [
              78.604613,
              17.491508
            ],
            [
              78.602334,
              17.490161
            ],
            [
              78.601548,
              17.488288
            ],
            [
              78.601626,
              17.487539
            ],
            [
              78.602801,
              17.485367
            ],
            [
              78.605075,
              17.482971
            ],
            [
              78.608292,
              17.480198
            ],
            [
              78.611355,
              17.476826
            ],
            [
              78.613004,
              17.475177
            ],
            [
              78.614338,
              17.473153
            ],
            [
              78.614652,
              17.471503
            ],
            [
              78.615672,
              17.469479
            ],
            [
              78.616458,
              17.46693
            ],
            [
              78.61803,
              17.465056
            ],
            [
              78.62023,
              17.464305
            ],
            [
              78.625967,
              17.46318
            ],
            [
              78.630368,
              17.462803
            ],
            [
              78.633434,
              17.461975
            ],
            [
              78.633984,
              17.462801
            ],
            [
              78.636186,
              17.464077
            ],
            [
              78.637522,
              17.465501
            ],
            [
              78.638623,
              17.465951
            ],
            [
              78.639409,
              17.466476
            ],
            [
              78.640274,
              17.467151
            ],
            [
              78.641297,
              17.46745
            ]
          ]
        ]
      }
    }
  ]
}