{
  "type": "FeatureCollection",
  "features": [
    {
      "type": "Feature",
      "properties": {},
      "geometry": {
        "type": "Polygon",
        "coordinates": [
          [
            [
              78.582114,
              17.440612
            ],
            [
              78.58254,
              17.440409
            ],
            [
              78.583395,
              17.439772
            ],
            [
              78.584196,
              17.440689
            ],
            [
              78.584543,
              17.441734
            ],
            [
              78.584757,
              17.442727
            ],
            [
              78.585398,
              17.443874
            ],
            [
              78.586173,
              17.444511
            ],
            [
              78.587989,
              17.445505
            ],
            [
              78.589458,
              17.446626
            ],
            [
              78.590179,
              17.447569
            ],
            [
              78.589912,
              17.448766
            ],
            [
              78.589218,
              17.448996
            ],
            [
              78.58847,
              17.448563
            ],
            [
              78.587027,
              17.447977
            ],
            [
              78.584624,
              17.446601
            ],
            [
              78.581899,
              17.445581
            ],
            [
              78.579602,
              17.445607
            ],
            [
              78.577599,
              17.445836
            ],
            [
              78.576878,
              17.446244
            ],
            [
              78.576317,
              17.44632
            ],
            [
              78.574687,
              17.446218
            ],
            [
              78.57418,
              17.444256
            ],
            [
              78.573966,
              17.442345
            ],
            [
              78.573512,
              17.441224
            ],
            [
              78.573566,
              17.439721
            ],
            [
              78.573886,
              17.438064
            ],
            [
              78.574474,
              17.437121
            ],
            [
              78.575355,
              17.436357
            ],
            [
              78.576033,
              17.436599
            ],
            [
              78.576821,
              17.436875
            ],
            [
              78.57772,
              17.437108
            ],
            [
              78.579373,
              17.437817
            ],
            [
              78.580772,
              17.439214
            ],
            [
              78.582114,
              17.440612
            ]
          ]
        ]
      }
    }
  ]
}