{
  "type": "FeatureCollection",
  "features": [
    {
      "type": "Feature",
      "properties": {},
      "geometry": {
        "type": "Polygon",
        "coordinates": [
          [
            [
              78.675678,
              17.524046
            ],
            [
              78.678249,
              17.52287
            ],
            [
              78.679071,
              17.523213
            ],
            [
              78.679586,
              17.524047
            ],
            [
              78.680048,
              17.525125
            ],
            [
              78.680665,
              17.526253
            ],
            [
              78.680716,
              17.527969
            ],
            [
              78.68087,
              17.528704
            ],
            [
              78.679123,
              17.529929
            ],
            [
              78.675318,
              17.531792
            ],
            [
              78.673519,
              17.532969
            ],
            [
              78.671051,
              17.534685
            ],
            [
              78.670897,
              17.534734
            ],
            [
              78.670434,
              17.536596
            ],
            [
              78.669303,
              17.537185
            ],
            [
              78.667915,
              17.537234
            ],
            [
              78.665602,
              17.537283
            ],
            [
              78.664162,
              17.537185
            ],
            [
              78.662054,
              17.537185
            ],
            [
              78.659998,
              17.536792
            ],
            [
              78.657993,
              17.536253
            ],
            [
              78.656091,
              17.535077
            ],
            [
              78.6546,
              17.534587
            ],
            [
              78.653726,
              17.533998
            ],
            [
              78.652646,
              17.533018
            ],
            [
              78.652337,
              17.532185
            ],
            [
              78.651103,
              17.530567
            ],
            [
              78.650024,
              17.529734
            ],
            [
              78.649201,
              17.5289
            ],
            [
              78.648635,
              17.527724
            ],
            [
              78.647864,
              17.52537
            ],
            [
              78.64735,
              17.523115
            ],
            [
              78.64735,
              17.522772
            ],
            [
              78.647504,
              17.521546
            ],
            [
              78.64843,
              17.519389
            ],
            [
              78.648635,
              17.518506
            ],
            [
              78.648687,
              17.517036
            ],
            [
              78.651566,
              17.516202
            ],
            [
              78.654342,
              17.516741
            ],
            [
              78.655833,
              17.517134
            ],
            [
              78.658404,
              17.517673
            ],
            [
              78.660255,
              17.517918
            ],
            [
              78.662157,
              17.518359
            ],
            [
              78.664573,
              17.518654
            ],
            [
              78.668481,
              17.519683
            ],
            [
              78.670332,
              17.520271
            ],
            [
              78.672285,
              17.520811
            ],
            [
              78.673571,
              17.521546
            ],
            [
              78.674085,
              17.521742
            ],
            [
              78.674239,
              17.522036
            ],
            [
              78.674753,
              17.52287
            ],
            [
              78.675678,
              17.524046
            ]
          ]
        ]
      }
    }
  ]
}