{
  "type": "FeatureCollection",
  "features": [
    {
      "type": "Feature",
      "properties": {},
      "geometry": {
        "type": "Polygon",
        "coordinates": [
          [
            [
              78.570855,
              17.473526
            ],
            [
              78.571773,
              17.475152
            ],
            [
              78.572033,
              17.475895
            ],
            [
              78.572422,
              17.476473
            ],
            [
              78.573114,
              17.477545
            ],
            [
              78.573979,
              17.478989
            ],
            [
              78.574022,
              17.479897
            ],
            [
              78.574628,
              17.480681
            ],
            [
              78.574714,
              17.481052
            ],
            [
              78.575147,
              17.481589
            ],
            [
              78.575969,
              17.481919
            ],
            [
              78.577007,
              17.481712
            ],
            [
              78.577872,
              17.481341
            ],
            [
              78.57891,
              17.480929
            ],
            [
              78.580381,
              17.480722
            ],
            [
              78.581592,
              17.480516
            ],
            [
              78.582414,
              17.480351
            ],
            [
              78.583409,
              17.480103
            ],
            [
              78.584966,
              17.479897
            ],
            [
              78.586264,
              17.479361
            ],
            [
              78.586956,
              17.479608
            ],
            [
              78.587561,
              17.48064
            ],
            [
              78.588123,
              17.482208
            ],
            [
              78.588513,
              17.483775
            ],
            [
              78.588383,
              17.484642
            ],
            [
              78.58821,
              17.485962
            ],
            [
              78.588123,
              17.486746
            ],
            [
              78.587691,
              17.487777
            ],
            [
              78.587345,
              17.488974
            ],
            [
              78.586783,
              17.489923
            ],
            [
              78.585312,
              17.491325
            ],
            [
              78.58436,
              17.492357
            ],
            [
              78.582846,
              17.493305
            ],
            [
              78.581981,
              17.494007
            ],
            [
              78.581419,
              17.494254
            ],
            [
              78.5809,
              17.493759
            ],
            [
              78.579472,
              17.493718
            ],
            [
              78.578607,
              17.493759
            ],
            [
              78.577699,
              17.493759
            ],
            [
              78.576964,
              17.493264
            ],
            [
              78.576228,
              17.492687
            ],
            [
              78.575926,
              17.49248
            ],
            [
              78.57506,
              17.491944
            ],
            [
              78.573849,
              17.49116
            ],
            [
              78.571547,
              17.489534
            ],
            [
              78.570293,
              17.489245
            ],
            [
              78.569385,
              17.488792
            ],
            [
              78.566919,
              17.487059
            ],
            [
              78.566703,
              17.485986
            ],
            [
              78.56627,
              17.48512
            ],
            [
              78.565622,
              17.484171
            ],
            [
              78.565362,
              17.483057
            ],
            [
              78.56467,
              17.481365
            ],
            [
              78.564151,
              17.480375
            ],
            [
              78.563848,
              17.478065
            ],
            [
              78.563848,
              17.476868
            ],
            [
              78.565795,
              17.477033
            ],
            [
              78.567006,
              17.476456
            ],
            [
              78.567525,
              17.475961
            ],
            [
              78.568347,
              17.474888
            ],
            [
              78.570855,
              17.473526
            ]
          ]
        ]
      }
    }
  ]
}