{
  "type": "FeatureCollection",
  "features": [
    {
      "type": "Feature",
      "properties": {},
      "geometry": {
        "type": "Polygon",
        "coordinates": [
          [
            [
              78.553495,
              17.42004
            ],
            [
              78.554121,
              17.418546
            ],
            [
              78.55433,
              17.4177
            ],
            [
              78.554591,
              17.41755
            ],
            [
              78.555687,
              17.417699
            ],
            [
              78.556157,
              17.418048
            ],
            [
              78.556678,
              17.418546
            ],
            [
              78.556939,
              17.418994
            ],
            [
              78.557148,
              17.419392
            ],
            [
              78.557305,
              17.420289
            ],
            [
              78.557566,
              17.421135
            ],
            [
              78.557722,
              17.422131
            ],
            [
              78.557983,
              17.42248
            ],
            [
              78.558453,
              17.422928
            ],
            [
              78.560488,
              17.422878
            ],
            [
              78.562733,
              17.423327
            ],
            [
              78.562733,
              17.423675
            ],
            [
              78.561898,
              17.424273
            ],
            [
              78.561741,
              17.424771
            ],
            [
              78.561689,
              17.425269
            ],
            [
              78.561637,
              17.426165
            ],
            [
              78.561115,
              17.427758
            ],
            [
              78.559862,
              17.429451
            ],
            [
              78.559497,
              17.430099
            ],
            [
              78.558714,
              17.430995
            ],
            [
              78.557462,
              17.43214
            ],
            [
              78.555792,
              17.433236
            ],
            [
              78.554591,
              17.434132
            ],
            [
              78.554591,
              17.435327
            ],
            [
              78.554122,
              17.435725
            ],
            [
              78.553756,
              17.435875
            ],
            [
              78.553025,
              17.435875
            ],
            [
              78.552086,
              17.435725
            ],
            [
              78.551408,
              17.434779
            ],
            [
              78.550781,
              17.433783
            ],
            [
              78.550625,
              17.433136
            ],
            [
              78.550311,
              17.431991
            ],
            [
              78.550155,
              17.430895
            ],
            [
              78.54979,
              17.430397
            ],
            [
              78.549529,
              17.430597
            ],
            [
              78.548798,
              17.431244
            ],
            [
              78.547754,
              17.43209
            ],
            [
              78.545771,
              17.432738
            ],
            [
              78.544675,
              17.433036
            ],
            [
              78.543318,
              17.433335
            ],
            [
              78.542431,
              17.433136
            ],
            [
              78.542223,
              17.433036
            ],
            [
              78.541805,
              17.43224
            ],
            [
              78.541388,
              17.431095
            ],
            [
              78.541649,
              17.4297
            ],
            [
              78.541805,
              17.427709
            ],
            [
              78.542223,
              17.426314
            ],
            [
              78.543162,
              17.425169
            ],
            [
              78.54384,
              17.424422
            ],
            [
              78.544884,
              17.423128
            ],
            [
              78.546293,
              17.421883
            ],
            [
              78.54765,
              17.420488
            ],
            [
              78.548381,
              17.419542
            ],
            [
              78.549477,
              17.418297
            ],
            [
              78.550677,
              17.418198
            ],
            [
              78.550938,
              17.418496
            ],
            [
              78.551668,
              17.418696
            ],
            [
              78.552295,
              17.419343
            ],
            [
              78.552817,
              17.419691
            ],
            [
              78.553495,
              17.42004
            ]
          ]
        ]
      }
    }
  ]
}