{
  "type": "FeatureCollection",
  "features": [
    {
      "type": "Feature",
      "properties": {},
      "geometry": {
        "type": "Polygon",
        "coordinates": [
          [
            [
              78.612312,
              17.460117
            ],
            [
              78.611872,
              17.460903
            ],
            [
              78.611708,
              17.462266
            ],
            [
              78.611103,
              17.463472
            ],
            [
              78.610609,
              17.464573
            ],
            [
              78.610884,
              17.465254
            ],
            [
              78.610609,
              17.46604
            ],
            [
              78.610334,
              17.466407
            ],
            [
              78.609894,
              17.466879
            ],
            [
              78.60951,
              17.467613
            ],
            [
              78.60885,
              17.468137
            ],
            [
              78.607916,
              17.469395
            ],
            [
              78.608466,
              17.469972
            ],
            [
              78.608685,
              17.470653
            ],
            [
              78.608191,
              17.470549
            ],
            [
              78.607586,
              17.470811
            ],
            [
              78.606322,
              17.470811
            ],
            [
              78.605113,
              17.470915
            ],
            [
              78.60352,
              17.470968
            ],
            [
              78.601322,
              17.471387
            ],
            [
              78.601596,
              17.472069
            ],
            [
              78.602036,
              17.472698
            ],
            [
              78.602366,
              17.473379
            ],
            [
              78.60264,
              17.47427
            ],
            [
              78.603025,
              17.475371
            ],
            [
              78.60352,
              17.476524
            ],
            [
              78.603794,
              17.477468
            ],
            [
              78.604014,
              17.478254
            ],
            [
              78.604399,
              17.479093
            ],
            [
              78.604454,
              17.479459
            ],
            [
              78.603245,
              17.479722
            ],
            [
              78.600882,
              17.480141
            ],
            [
              78.599893,
              17.48056
            ],
            [
              78.599398,
              17.481241
            ],
            [
              78.598299,
              17.482132
            ],
            [
              78.59753,
              17.482919
            ],
            [
              78.596816,
              17.483705
            ],
            [
              78.595936,
              17.483495
            ],
            [
              78.595002,
              17.482866
            ],
            [
              78.593354,
              17.481556
            ],
            [
              78.592255,
              17.481031
            ],
            [
              78.591046,
              17.480403
            ],
            [
              78.589892,
              17.480036
            ],
            [
              78.588298,
              17.479249
            ],
            [
              78.587035,
              17.478778
            ],
            [
              78.586705,
              17.477991
            ],
            [
              78.58676,
              17.4771
            ],
            [
              78.587584,
              17.475842
            ],
            [
              78.588463,
              17.474951
            ],
            [
              78.588848,
              17.473798
            ],
            [
              78.589562,
              17.472855
            ],
            [
              78.589892,
              17.471282
            ],
            [
              78.589288,
              17.470758
            ],
            [
              78.588628,
              17.469815
            ],
            [
              78.588409,
              17.468924
            ],
            [
              78.588134,
              17.466827
            ],
            [
              78.587419,
              17.465359
            ],
            [
              78.588683,
              17.463525
            ],
            [
              78.589947,
              17.461952
            ],
            [
              78.591705,
              17.460432
            ],
            [
              78.592749,
              17.459593
            ],
            [
              78.593848,
              17.459069
            ],
            [
              78.59753,
              17.459331
            ],
            [
              78.599014,
              17.459174
            ],
            [
              78.601047,
              17.458597
            ],
            [
              78.60264,
              17.458283
            ],
            [
              78.604069,
              17.457706
            ],
            [
              78.605443,
              17.458125
            ],
            [
              78.607806,
              17.458545
            ],
            [
              78.609839,
              17.459803
            ],
            [
              78.612312,
              17.460117
            ]
          ]
        ]
      }
    }
  ]
}