{
  "type": "FeatureCollection",
  "features": [
    {
      "type": "Feature",
      "properties": {},
      "geometry": {
        "type": "Polygon",
        "coordinates": [
          [
            [
              78.362485,
              17.506383
            ],
            [
              78.364156,
              17.507004
            ],
            [
              78.367625,
              17.508057
            ],
            [
              78.377144,
              17.5068
            ],
            [
              78.376792,
              17.507933
            ],
            [
              78.372953,
              17.509372
            ],
            [
              78.37378,
              17.511712
            ],
            [
              78.372433,
              17.515321
            ],
            [
              78.368829,
              17.520274
            ],
            [
              78.375124,
              17.523297
            ],
            [
              78.37395,
              17.531064
            ],
            [
              78.378405,
              17.535219
            ],
            [
              78.380928,
              17.543187
            ],
            [
              78.395224,
              17.540431
            ],
            [
              78.400344,
              17.542636
            ],
            [
              78.403816,
              17.549
            ],
            [
              78.396773,
              17.556092
            ],
            [
              78.395248,
              17.564661
            ],
            [
              78.382502,
              17.566206
            ],
            [
              78.379315,
              17.560914
            ],
            [
              78.373225,
              17.560136
            ],
            [
              78.355555,
              17.560932
            ],
            [
              78.357669,
              17.554288
            ],
            [
              78.346368,
              17.529695
            ],
            [
              78.348112,
              17.520249
            ],
            [
              78.351682,
              17.516839
            ],
            [
              78.36096,
              17.512442
            ],
            [
              78.362167,
              17.50982
            ],
            [
              78.362485,
              17.506383
            ]
          ]
        ]
      }
    }
  ]
}