{
  "type": "FeatureCollection",
  "features": [
    {
      "type": "Feature",
      "properties": {},
      "geometry": {
        "type": "Polygon",
        "coordinates": [
          [
            [
              78.354729,
              17.485953
            ],
            [
              78.354958,
              17.482763
            ],
            [
              78.349822,
              17.482606
            ],
            [
              78.349854,
              17.477445
            ],
            [
              78.34933,
              17.47538
            ],
            [
              78.3491,
              17.468302
            ],
            [
              78.359353,
              17.46302
            ],
            [
              78.356468,
              17.459665
            ],
            [
              78.363448,
              17.455605
            ],
            [
              78.36648,
              17.458943
            ],
            [
              78.374009,
              17.457533
            ],
            [
              78.370397,
              17.452118
            ],
            [
              78.37425,
              17.448388
            ],
            [
              78.377659,
              17.446588
            ],
            [
              78.380124,
              17.450583
            ],
            [
              78.382942,
              17.454345
            ],
            [
              78.385954,
              17.467484
            ],
            [
              78.370481,
              17.473544
            ],
            [
              78.370561,
              17.481848
            ],
            [
              78.360861,
              17.483607
            ],
            [
              78.354729,
              17.485953
            ]
          ]
        ]
      }
    }
  ]
}