{
  "type": "FeatureCollection",
  "features": [
    {
      "type": "Feature",
      "properties": {},
      "geometry": {
        "type": "Polygon",
        "coordinates": [
          [
            [
              78.38508,
              17.462586
            ],
            [
              78.383074,
              17.454375
            ],
            [
              78.377318,
              17.446012
            ],
            [
              78.377053,
              17.441327
            ],
            [
              78.388143,
              17.436137
            ],
            [
              78.392632,
              17.44042
            ],
            [
              78.39691,
              17.451503
            ],
            [
              78.397279,
              17.458858
            ],
            [
              78.38508,
              17.462586
            ]
          ]
        ]
      }
    }
  ]
}