{
  "type": "FeatureCollection",
  "features": [
    {
      "type": "Feature",
      "properties": {},
      "geometry": {
        "type": "Polygon",
        "coordinates": [
          [
            [
              78.361928,
              17.4966
            ],
            [
              78.364662,
              17.489249
            ],
            [
              78.375122,
              17.491492
            ],
            [
              78.380053,
              17.489062
            ],
            [
              78.380935,
              17.492021
            ],
            [
              78.383221,
              17.490557
            ],
            [
              78.384592,
              17.492115
            ],
            [
              78.386388,
              17.489903
            ],
            [
              78.390373,
              17.493703
            ],
            [
              78.392626,
              17.497441
            ],
            [
              78.391091,
              17.498188
            ],
            [
              78.382731,
              17.499434
            ],
            [
              78.380902,
              17.498874
            ],
            [
              78.377832,
              17.497441
            ],
            [
              78.373946,
              17.496475
            ],
            [
              78.361928,
              17.4966
            ]
          ]
        ]
      }
    }
  ]
}