{
  "type": "FeatureCollection",
  "features": [
    {
      "type": "Feature",
      "properties": {},
      "geometry": {
        "type": "Polygon",
        "coordinates": [
          [
            [
              78.247763,
              17.567757
            ],
            [
              78.248523,
              17.554159
            ],
            [
              78.257434,
              17.546522
            ],
            [
              78.258715,
              17.541104
            ],
            [
              78.253011,
              17.536038
            ],
            [
              78.235933,
              17.539054
            ],
            [
              78.220108,
              17.544541
            ],
            [
              78.221736,
              17.54939
            ],
            [
              78.213493,
              17.554781
            ],
            [
              78.203515,
              17.556886
            ],
            [
              78.19491,
              17.547828
            ],
            [
              78.190807,
              17.538506
            ],
            [
              78.200496,
              17.532661
            ],
            [
              78.211584,
              17.536677
            ],
            [
              78.218289,
              17.544723
            ],
            [
              78.252778,
              17.531419
            ],
            [
              78.257935,
              17.525459
            ],
            [
              78.267623,
              17.520397
            ],
            [
              78.271682,
              17.523755
            ],
            [
              78.274104,
              17.528964
            ],
            [
              78.271607,
              17.53574
            ],
            [
              78.262075,
              17.546766
            ],
            [
              78.280273,
              17.55056
            ],
            [
              78.281599,
              17.554587
            ],
            [
              78.275664,
              17.564186
            ],
            [
              78.262168,
              17.570838
            ],
            [
              78.247763,
              17.567757
            ]
          ]
        ]
      }
    }
  ]
}