{
  "type": "FeatureCollection",
  "features": [
    {
      "type": "Feature",
      "properties": {},
      "geometry": {
        "type": "Polygon",
        "coordinates": [
          [
            [
              78.569918,
              17.435163
            ],
            [
              78.570799,
              17.43554
            ],
            [
              78.57957,
              17.437856
            ],
            [
              78.584851,
              17.440144
            ],
            [
              78.586308,
              17.443937
            ],
            [
              78.590861,
              17.447759
            ],
            [
              78.590466,
              17.448975
            ],
            [
              78.588979,
              17.448946
            ],
            [
              78.584183,
              17.446659
            ],
            [
              78.579813,
              17.445703
            ],
            [
              78.571922,
              17.448136
            ],
            [
              78.567065,
              17.449439
            ],
            [
              78.564728,
              17.449091
            ],
            [
              78.562877,
              17.447006
            ],
            [
              78.565062,
              17.441157
            ],
            [
              78.569918,
              17.435163
            ]
          ]
        ]
      }
    }
  ]
}