{
  "type": "FeatureCollection",
  "features": [
    {
      "type": "Feature",
      "properties": {},
      "geometry": {
        "type": "Polygon",
        "coordinates": [
          [
            [
              78.540927,
              17.419096
            ],
            [
              78.542545,
              17.417798
            ],
            [
              78.544616,
              17.416377
            ],
            [
              78.551155,
              17.418353
            ],
            [
              78.555431,
              17.422305
            ],
            [
              78.558536,
              17.425517
            ],
            [
              78.55905,
              17.431384
            ],
            [
              78.554584,
              17.435459
            ],
            [
              78.549083,
              17.437436
            ],
            [
              78.543193,
              17.434224
            ],
            [
              78.536204,
              17.431877
            ],
            [
              78.531353,
              17.426753
            ],
            [
              78.540927,
              17.419096
            ]
          ]
        ]
      }
    }
  ]
}