{
  "type": "FeatureCollection",
  "features": [
    {
      "type": "Feature",
      "properties": {},
      "geometry": {
        "type": "Polygon",
        "coordinates": [
          [
            [
              78.517501,
              17.384272
            ],
            [
              78.518498,
              17.381962
            ],
            [
              78.517535,
              17.380506
            ],
            [
              78.519587,
              17.37822
            ],
            [
              78.527093,
              17.375299
            ],
            [
              78.532266,
              17.376829
            ],
            [
              78.538752,
              17.381906
            ],
            [
              78.54582,
              17.383783
            ],
            [
              78.550119,
              17.380584
            ],
            [
              78.557054,
              17.382469
            ],
            [
              78.558366,
              17.384625
            ],
            [
              78.560333,
              17.401105
            ],
            [
              78.558803,
              17.402426
            ],
            [
              78.550204,
              17.411257
            ],
            [
              78.518652,
              17.409101
            ],
            [
              78.526255,
              17.403644
            ],
            [
              78.528486,
              17.395941
            ],
            [
              78.520582,
              17.392789
            ],
            [
              78.516412,
              17.392121
            ],
            [
              78.516697,
              17.388358
            ],
            [
              78.516815,
              17.386335
            ],
            [
              78.517501,
              17.384272
            ]
          ]
        ]
      }
    }
  ]
}