{
  "type": "FeatureCollection",
  "features": [
    {
      "type": "Feature",
      "properties": {},
      "geometry": {
        "type": "Polygon",
        "coordinates": [
          [
            [
              78.391401273,
              17.469662963
            ],
            [
              78.394504613,
              17.473877485
            ],
            [
              78.397342938,
              17.480866863
            ],
            [
              78.40178032,
              17.487466011
            ],
            [
              78.403518832,
              17.492936972
            ],
            [
              78.400836206,
              17.494182265
            ],
            [
              78.397259241,
              17.495751832
            ],
            [
              78.395144236,
              17.496387932
            ],
            [
              78.393567642,
              17.496868348
            ],
            [
              78.390890998,
              17.498412287
            ],
            [
              78.382428878,
              17.499512832
            ],
            [
              78.380517976,
              17.498891343
            ],
            [
              78.378171103,
              17.497706516
            ],
            [
              78.378260382,
              17.497395479
            ],
            [
              78.377583882,
              17.49487145
            ],
            [
              78.374752012,
              17.49200804
            ],
            [
              78.369405533,
              17.486111962
            ],
            [
              78.367019909,
              17.482342234
            ],
            [
              78.369862341,
              17.481956667
            ],
            [
              78.372610562,
              17.48145271
            ],
            [
              78.376708755,
              17.477977383
            ],
            [
              78.383245931,
              17.473047659
            ],
            [
              78.391401273,
              17.469662963
            ]
          ]
        ]
      }
    }
  ]
}