{
  "type": "FeatureCollection",
  "features": [
    {
      "type": "Feature",
      "properties": {},
      "geometry": {
        "type": "Polygon",
        "coordinates": [
          [
            [
              78.423257,
              17.50713
            ],
            [
              78.423416,
              17.507046
            ],
            [
              78.423521,
              17.506864
            ],
            [
              78.423605,
              17.506733
            ],
            [
              78.423709,
              17.50677
            ],
            [
              78.423925,
              17.506686
            ],
            [
              78.424148,
              17.506681
            ],
            [
              78.424188,
              17.506704
            ],
            [
              78.424739,
              17.506714
            ],
            [
              78.425185,
              17.506745
            ],
            [
              78.425788,
              17.506788
            ],
            [
              78.426562,
              17.506854
            ],
            [
              78.426938,
              17.50687
            ],
            [
              78.427349,
              17.506873
            ],
            [
              78.42822,
              17.506909
            ],
            [
              78.428522,
              17.506664
            ],
            [
              78.428772,
              17.506473
            ],
            [
              78.428929,
              17.506337
            ],
            [
              78.429098,
              17.506195
            ],
            [
              78.429335,
              17.505995
            ],
            [
              78.429498,
              17.505866
            ],
            [
              78.429711,
              17.505751
            ],
            [
              78.430171,
              17.505511
            ],
            [
              78.430695,
              17.505243
            ],
            [
              78.431954,
              17.508497
            ],
            [
              78.431789,
              17.510578
            ],
            [
              78.434583,
              17.513002
            ],
            [
              78.434513,
              17.514076
            ],
            [
              78.432728,
              17.516033
            ],
            [
              78.429519,
              17.517125
            ],
            [
              78.425026,
              17.516254
            ],
            [
              78.422216,
              17.51526
            ],
            [
              78.421121,
              17.513383
            ],
            [
              78.417385,
              17.510754
            ],
            [
              78.41748,
              17.509304
            ],
            [
              78.41841,
              17.509322
            ],
            [
              78.419188,
              17.509333
            ],
            [
              78.419532,
              17.509343
            ],
            [
              78.42027,
              17.509442
            ],
            [
              78.420365,
              17.508043
            ],
            [
              78.420339,
              17.507768
            ],
            [
              78.42035,
              17.50758
            ],
            [
              78.420451,
              17.507487
            ],
            [
              78.420599,
              17.507389
            ],
            [
              78.420694,
              17.50732
            ],
            [
              78.420773,
              17.507291
            ],
            [
              78.420892,
              17.507249
            ],
            [
              78.421089,
              17.507329
            ],
            [
              78.421514,
              17.507317
            ],
            [
              78.42172,
              17.507307
            ],
            [
              78.422475,
              17.507279
            ],
            [
              78.422754,
              17.507282
            ],
            [
              78.422954,
              17.507231
            ],
            [
              78.423257,
              17.50713
            ]
          ]
        ]
      }
    }
  ]
}