{
  "type": "FeatureCollection",
  "features": [
    {
      "type": "Feature",
      "properties": {},
      "geometry": {
        "type": "Polygon",
        "coordinates": [
          [
            [
              78.38762,
              17.498853
            ],
            [
              78.388896,
              17.498653
            ],
            [
              78.390306,
              17.4985
            ],
            [
              78.390806,
              17.4984
            ],
            [
              78.391427,
              17.498231
            ],
            [
              78.391964,
              17.497986
            ],
            [
              78.391834,
              17.49867
            ],
            [
              78.391631,
              17.499254
            ],
            [
              78.391641,
              17.499455
            ],
            [
              78.391649,
              17.499742
            ],
            [
              78.391693,
              17.50016
            ],
            [
              78.391791,
              17.500906
            ],
            [
              78.391841,
              17.501321
            ],
            [
              78.391904,
              17.501826
            ],
            [
              78.392003,
              17.502744
            ],
            [
              78.392073,
              17.503166
            ],
            [
              78.392148,
              17.503722
            ],
            [
              78.392206,
              17.504151
            ],
            [
              78.392252,
              17.504477
            ],
            [
              78.392286,
              17.504834
            ],
            [
              78.392307,
              17.505097
            ],
            [
              78.392324,
              17.505365
            ],
            [
              78.392318,
              17.505588
            ],
            [
              78.391939,
              17.505677
            ],
            [
              78.391954,
              17.505715
            ],
            [
              78.391911,
              17.50598
            ],
            [
              78.391854,
              17.50631
            ],
            [
              78.391767,
              17.506726
            ],
            [
              78.39172,
              17.506996
            ],
            [
              78.391722,
              17.507477
            ],
            [
              78.391784,
              17.507977
            ],
            [
              78.39195,
              17.509154
            ],
            [
              78.390978,
              17.509653
            ],
            [
              78.391087,
              17.510326
            ],
            [
              78.389332,
              17.511993
            ],
            [
              78.389892,
              17.512596
            ],
            [
              78.390383,
              17.513659
            ],
            [
              78.381244,
              17.516963
            ],
            [
              78.379296,
              17.518341
            ],
            [
              78.378321,
              17.519149
            ],
            [
              78.377659,
              17.519761
            ],
            [
              78.377027,
              17.520218
            ],
            [
              78.376478,
              17.520572
            ],
            [
              78.375369,
              17.52142
            ],
            [
              78.373036,
              17.520975
            ],
            [
              78.371773,
              17.52075
            ],
            [
              78.370556,
              17.520523
            ],
            [
              78.371494,
              17.517887
            ],
            [
              78.371654,
              17.517356
            ],
            [
              78.371815,
              17.516746
            ],
            [
              78.372167,
              17.515983
            ],
            [
              78.369223,
              17.513385
            ],
            [
              78.366316,
              17.510848
            ],
            [
              78.362417,
              17.505791
            ],
            [
              78.362094,
              17.503997
            ],
            [
              78.362047,
              17.503365
            ],
            [
              78.362132,
              17.502057
            ],
            [
              78.362214,
              17.501264
            ],
            [
              78.362116,
              17.50049
            ],
            [
              78.361636,
              17.496731
            ],
            [
              78.364656,
              17.496695
            ],
            [
              78.365828,
              17.496599
            ],
            [
              78.368068,
              17.49675
            ],
            [
              78.372297,
              17.496694
            ],
            [
              78.374378,
              17.496678
            ],
            [
              78.37663,
              17.497184
            ],
            [
              78.377181,
              17.497316
            ],
            [
              78.377705,
              17.497528
            ],
            [
              78.379193,
              17.49823
            ],
            [
              78.380386,
              17.498845
            ],
            [
              78.38204,
              17.499428
            ],
            [
              78.382689,
              17.49948
            ],
            [
              78.383346,
              17.49944
            ],
            [
              78.38401,
              17.49933
            ],
            [
              78.38479,
              17.499232
            ],
            [
              78.38762,
              17.498853
            ]
          ]
        ]
      }
    }
  ]
}