{
  "type": "FeatureCollection",
  "features": [
    {
      "type": "Feature",
      "properties": {},
      "geometry": {
        "type": "Polygon",
        "coordinates": [
          [
            [
              78.434153,
              17.456224
            ],
            [
              78.437534,
              17.448948
            ],
            [
              78.439059,
              17.446418
            ],
            [
              78.441247,
              17.442593
            ],
            [
              78.448292,
              17.441506
            ],
            [
              78.44883,
              17.444475
            ],
            [
              78.453135,
              17.443509
            ],
            [
              78.451662,
              17.447559
            ],
            [
              78.450865,
              17.450787
            ],
            [
              78.449371,
              17.461859
            ],
            [
              78.443248,
              17.462021
            ],
            [
              78.440279,
              17.46225
            ],
            [
              78.436783,
              17.460931
            ],
            [
              78.433797,
              17.459858
            ],
            [
              78.432855,
              17.459317
            ],
            [
              78.434153,
              17.456224
            ]
          ]
        ]
      }
    }
  ]
}