{
  "type": "FeatureCollection",
  "features": [
    {
      "type": "Feature",
      "properties": {},
      "geometry": {
        "type": "Polygon",
        "coordinates": [
          [
            [
              78.451917,
              17.495437
            ],
            [
              78.450971,
              17.496369
            ],
            [
              78.446666,
              17.497191
            ],
            [
              78.441991,
              17.497309
            ],
            [
              78.437192,
              17.496486
            ],
            [
              78.432825,
              17.497307
            ],
            [
              78.432793,
              17.497282
            ],
            [
              78.431841,
              17.495195
            ],
            [
              78.429812,
              17.493846
            ],
            [
              78.427852,
              17.490443
            ],
            [
              78.430811,
              17.487774
            ],
            [
              78.43344,
              17.486455
            ],
            [
              78.448942,
              17.481232
            ],
            [
              78.45085,
              17.488976
            ],
            [
              78.451917,
              17.495437
            ]
          ]
        ]
      }
    }
  ]
}