{
  "type": "FeatureCollection",
  "features": [
    {
      "type": "Feature",
      "properties": {},
      "geometry": {
        "type": "Polygon",
        "coordinates": [
          [
            [
              78.526084,
              17.338997
            ],
            [
              78.523915,
              17.339531
            ],
            [
              78.523694,
              17.339561
            ],
            [
              78.522683,
              17.337692
            ],
            [
              78.522084,
              17.335747
            ],
            [
              78.519658,
              17.329003
            ],
            [
              78.519004,
              17.327602
            ],
            [
              78.519995,
              17.323319
            ],
            [
              78.521724,
              17.324134
            ],
            [
              78.524586,
              17.324155
            ],
            [
              78.527105,
              17.324294
            ],
            [
              78.52793,
              17.322942
            ],
            [
              78.529573,
              17.322801
            ],
            [
              78.531216,
              17.322785
            ],
            [
              78.533419,
              17.32233
            ],
            [
              78.534865,
              17.322189
            ],
            [
              78.535982,
              17.322471
            ],
            [
              78.537116,
              17.322346
            ],
            [
              78.538283,
              17.322047
            ],
            [
              78.53825,
              17.322816
            ],
            [
              78.537982,
              17.330705
            ],
            [
              78.537737,
              17.332019
            ],
            [
              78.53757,
              17.333846
            ],
            [
              78.535903,
              17.33747
            ],
            [
              78.533659,
              17.337128
            ],
            [
              78.529191,
              17.338103
            ],
            [
              78.527403,
              17.338428
            ],
            [
              78.526084,
              17.338997
            ]
          ]
        ]
      }
    }
  ]
}