{
  "type": "FeatureCollection",
  "features": [
    {
      "type": "Feature",
      "properties": {},
      "geometry": {
        "type": "Polygon",
        "coordinates": [
          [
            [
              78.571201,
              17.36791
            ],
            [
              78.585637,
              17.366566
            ],
            [
              78.585096,
              17.369883
            ],
            [
              78.583558,
              17.378853
            ],
            [
              78.577492,
              17.384778
            ],
            [
              78.567659,
              17.384059
            ],
            [
              78.56789,
              17.383171
            ],
            [
              78.568114,
              17.382329
            ],
            [
              78.568648,
              17.380461
            ],
            [
              78.569352,
              17.377733
            ],
            [
              78.56922,
              17.377059
            ],
            [
              78.569075,
              17.376374
            ],
            [
              78.569021,
              17.376082
            ],
            [
              78.569044,
              17.37547
            ],
            [
              78.569251,
              17.37335
            ],
            [
              78.569417,
              17.371069
            ],
            [
              78.56936,
              17.368698
            ],
            [
              78.569814,
              17.366941
            ],
            [
              78.571201,
              17.36791
            ]
          ]
        ]
      }
    }
  ]
}