{
  "type": "FeatureCollection",
  "features": [
    {
      "type": "Feature",
      "properties": {},
      "geometry": {
        "type": "Polygon",
        "coordinates": [
          [
            [
              78.496491,
              17.315558
            ],
            [
              78.494289,
              17.312255
            ],
            [
              78.496703,
              17.306949
            ],
            [
              78.503073,
              17.304949
            ],
            [
              78.512194,
              17.308501
            ],
            [
              78.523351,
              17.310242
            ],
            [
              78.531139,
              17.318649
            ],
            [
              78.530535,
              17.31874
            ],
            [
              78.530038,
              17.31917
            ],
            [
              78.529268,
              17.320073
            ],
            [
              78.529215,
              17.32027
            ],
            [
              78.528808,
              17.321296
            ],
            [
              78.528437,
              17.321784
            ],
            [
              78.528211,
              17.321987
            ],
            [
              78.528125,
              17.322203
            ],
            [
              78.527856,
              17.322838
            ],
            [
              78.527617,
              17.323187
            ],
            [
              78.527292,
              17.323789
            ],
            [
              78.527205,
              17.324017
            ],
            [
              78.527079,
              17.324239
            ],
            [
              78.521733,
              17.323931
            ],
            [
              78.516466,
              17.321487
            ],
            [
              78.496491,
              17.315558
            ]
          ]
        ]
      }
    }
  ]
}