{
  "type": "FeatureCollection",
  "features": [
    {
      "type": "Feature",
      "properties": {},
      "geometry": {
        "type": "Polygon",
        "coordinates": [
          [
            [
              78.55731,
              17.36472
            ],
            [
              78.557522,
              17.362917
            ],
            [
              78.557885,
              17.360275
            ],
            [
              78.55685,
              17.356348
            ],
            [
              78.556022,
              17.353063
            ],
            [
              78.556229,
              17.353063
            ],
            [
              78.558143,
              17.353409
            ],
            [
              78.559178,
              17.353409
            ],
            [
              78.559929,
              17.352742
            ],
            [
              78.561352,
              17.352692
            ],
            [
              78.562749,
              17.352816
            ],
            [
              78.563132,
              17.354199
            ],
            [
              78.564374,
              17.355113
            ],
            [
              78.566082,
              17.356422
            ],
            [
              78.568023,
              17.360176
            ],
            [
              78.569627,
              17.363905
            ],
            [
              78.571642,
              17.366567
            ],
            [
              78.567174,
              17.367372
            ],
            [
              78.564494,
              17.367878
            ],
            [
              78.557157,
              17.367595
            ],
            [
              78.55731,
              17.36472
            ]
          ]
        ]
      }
    }
  ]
}