{
  "type": "FeatureCollection",
  "features": [
    {
      "type": "Feature",
      "properties": {},
      "geometry": {
        "type": "Polygon",
        "coordinates": [
          [
            [
              78.557227,
              17.367636
            ],
            [
              78.564547,
              17.367924
            ],
            [
              78.569764,
              17.366932
            ],
            [
              78.569305,
              17.368736
            ],
            [
              78.569305,
              17.371429
            ],
            [
              78.56924,
              17.372883
            ],
            [
              78.568818,
              17.375453
            ],
            [
              78.5693,
              17.377724
            ],
            [
              78.567634,
              17.384058
            ],
            [
              78.558375,
              17.383041
            ],
            [
              78.557227,
              17.367636
            ]
          ]
        ]
      }
    }
  ]
}