{
  "type": "FeatureCollection",
  "features": [
    {
      "type": "Feature",
      "properties": {},
      "geometry": {
        "type": "Polygon",
        "coordinates": [
          [
            [
              78.561193,
              17.340863
            ],
            [
              78.562904,
              17.334278
            ],
            [
              78.560568,
              17.329592
            ],
            [
              78.564324,
              17.321941
            ],
            [
              78.570564,
              17.321574
            ],
            [
              78.571363,
              17.323098
            ],
            [
              78.571155,
              17.324708
            ],
            [
              78.573939,
              17.328159
            ],
            [
              78.574738,
              17.332958
            ],
            [
              78.573377,
              17.336797
            ],
            [
              78.571869,
              17.337136
            ],
            [
              78.566782,
              17.339084
            ],
            [
              78.563322,
              17.340552
            ],
            [
              78.561193,
              17.340863
            ]
          ]
        ]
      }
    }
  ]
}