{
  "type": "FeatureCollection",
  "features": [
    {
      "type": "Feature",
      "properties": {},
      "geometry": {
        "type": "Polygon",
        "coordinates": [
          [
            [
              78.3803,
              17.504688
            ],
            [
              78.37284,
              17.496615
            ],
            [
              78.370039,
              17.490969
            ],
            [
              78.368288,
              17.487216
            ],
            [
              78.372755,
              17.483729
            ],
            [
              78.37667,
              17.478553
            ],
            [
              78.382008,
              17.474699
            ],
            [
              78.386236,
              17.471674
            ],
            [
              78.387182,
              17.471442
            ],
            [
              78.388496,
              17.474823
            ],
            [
              78.390526,
              17.477814
            ],
            [
              78.38949,
              17.480902
            ],
            [
              78.389326,
              17.482556
            ],
            [
              78.395006,
              17.496314
            ],
            [
              78.393392,
              17.497027
            ],
            [
              78.391792,
              17.497962
            ],
            [
              78.390089,
              17.498681
            ],
            [
              78.387457,
              17.498992
            ],
            [
              78.383569,
              17.499495
            ],
            [
              78.3803,
              17.504688
            ]
          ]
        ]
      }
    }
  ]
}