{
  "type": "FeatureCollection",
  "features": [
    {
      "type": "Feature",
      "properties": {},
      "geometry": {
        "type": "Polygon",
        "coordinates": [
          [
            [
              78.310861,
              17.481593
            ],
            [
              78.317577,
              17.483139
            ],
            [
              78.325476,
              17.486946
            ],
            [
              78.331421,
              17.487108
            ],
            [
              78.33991,
              17.488808
            ],
            [
              78.344201,
              17.485097
            ],
            [
              78.346636,
              17.483587
            ],
            [
              78.349598,
              17.482658
            ],
            [
              78.360254,
              17.482852
            ],
            [
              78.369503,
              17.482333
            ],
            [
              78.37311,
              17.496573
            ],
            [
              78.361518,
              17.496736
            ],
            [
              78.351201,
              17.494023
            ],
            [
              78.349571,
              17.494023
            ],
            [
              78.347949,
              17.494321
            ],
            [
              78.349444,
              17.500588
            ],
            [
              78.351233,
              17.506924
            ],
            [
              78.335993,
              17.508723
            ],
            [
              78.318263,
              17.511986
            ],
            [
              78.318121,
              17.510913
            ],
            [
              78.318451,
              17.508592
            ],
            [
              78.318391,
              17.506128
            ],
            [
              78.317221,
              17.496659
            ],
            [
              78.315941,
              17.494851
            ],
            [
              78.315703,
              17.493375
            ],
            [
              78.314965,
              17.492926
            ],
            [
              78.31336,
              17.486712
            ],
            [
              78.310861,
              17.481593
            ]
          ]
        ]
      }
    }
  ]
}