{
  "type": "FeatureCollection",
  "features": [
    {
      "type": "Feature",
      "properties": {},
      "geometry": {
        "type": "Polygon",
        "coordinates": [
          [
            [
              78.403787,
              17.48451
            ],
            [
              78.408524,
              17.479244
            ],
            [
              78.417119,
              17.480538
            ],
            [
              78.419453,
              17.47874
            ],
            [
              78.421937,
              17.477038
            ],
            [
              78.426364,
              17.474276
            ],
            [
              78.428712,
              17.492741
            ],
            [
              78.423069,
              17.494268
            ],
            [
              78.420554,
              17.496885
            ],
            [
              78.421052,
              17.501063
            ],
            [
              78.421537,
              17.506623
            ],
            [
              78.416717,
              17.509147
            ],
            [
              78.410333,
              17.508392
            ],
            [
              78.407934,
              17.507289
            ],
            [
              78.407754,
              17.506515
            ],
            [
              78.407831,
              17.50572
            ],
            [
              78.407963,
              17.504435
            ],
            [
              78.408161,
              17.503165
            ],
            [
              78.408577,
              17.501745
            ],
            [
              78.409121,
              17.500323
            ],
            [
              78.407779,
              17.498424
            ],
            [
              78.406877,
              17.497057
            ],
            [
              78.406715,
              17.496792
            ],
            [
              78.406425,
              17.496616
            ],
            [
              78.405635,
              17.49566
            ],
            [
              78.40411,
              17.492967
            ],
            [
              78.404798,
              17.492476
            ],
            [
              78.403787,
              17.48451
            ]
          ]
        ]
      }
    }
  ]
}