{
  "type": "FeatureCollection",
  "features": [
    {
      "type": "Feature",
      "properties": {},
      "geometry": {
        "type": "Polygon",
        "coordinates": [
          [
            [
              78.582456,
              17.445778
            ],
            [
              78.597606,
              17.443566
            ],
            [
              78.608321,
              17.444114
            ],
            [
              78.615614,
              17.443139
            ],
            [
              78.622583,
              17.448559
            ],
            [
              78.626355,
              17.452362
            ],
            [
              78.633897,
              17.461612
            ],
            [
              78.641638,
              17.467233
            ],
            [
              78.639101,
              17.467928
            ],
            [
              78.637859,
              17.468431
            ],
            [
              78.636798,
              17.469048
            ],
            [
              78.633461,
              17.471133
            ],
            [
              78.631219,
              17.473362
            ],
            [
              78.630171,
              17.474481
            ],
            [
              78.629034,
              17.475424
            ],
            [
              78.62659,
              17.477525
            ],
            [
              78.624698,
              17.478825
            ],
            [
              78.623747,
              17.479396
            ],
            [
              78.622502,
              17.479662
            ],
            [
              78.619929,
              17.479841
            ],
            [
              78.61787,
              17.480595
            ],
            [
              78.616808,
              17.481278
            ],
            [
              78.61633,
              17.482227
            ],
            [
              78.615239,
              17.484524
            ],
            [
              78.610541,
              17.491864
            ],
            [
              78.605523,
              17.493619
            ],
            [
              78.603671,
              17.492068
            ],
            [
              78.602412,
              17.490999
            ],
            [
              78.60151,
              17.489577
            ],
            [
              78.600025,
              17.490381
            ],
            [
              78.599496,
              17.490618
            ],
            [
              78.599151,
              17.491038
            ],
            [
              78.598587,
              17.491791
            ],
            [
              78.598142,
              17.492147
            ],
            [
              78.597787,
              17.492542
            ],
            [
              78.596505,
              17.494817
            ],
            [
              78.595677,
              17.496124
            ],
            [
              78.594797,
              17.49722
            ],
            [
              78.593884,
              17.49835
            ],
            [
              78.59344,
              17.498893
            ],
            [
              78.592963,
              17.499346
            ],
            [
              78.591978,
              17.500023
            ],
            [
              78.590941,
              17.50059
            ],
            [
              78.588928,
              17.50183
            ],
            [
              78.584439,
              17.499607
            ],
            [
              78.581453,
              17.497843
            ],
            [
              78.57945,
              17.495767
            ],
            [
              78.578352,
              17.494315
            ],
            [
              78.576652,
              17.492973
            ],
            [
              78.574879,
              17.49187
            ],
            [
              78.573495,
              17.490689
            ],
            [
              78.57137,
              17.489525
            ],
            [
              78.570109,
              17.489224
            ],
            [
              78.567581,
              17.48803
            ],
            [
              78.566639,
              17.486522
            ],
            [
              78.564276,
              17.476846
            ],
            [
              78.564734,
              17.468272
            ],
            [
              78.562162,
              17.465211
            ],
            [
              78.558694,
              17.462304
            ],
            [
              78.556972,
              17.457959
            ],
            [
              78.562756,
              17.452631
            ],
            [
              78.56912,
              17.447405
            ],
            [
              78.575054,
              17.445998
            ],
            [
              78.582456,
              17.445778
            ]
          ]
        ]
      }
    }
  ]
}