{
  "type": "FeatureCollection",
  "features": [
    {
      "type": "Feature",
      "properties": {},
      "geometry": {
        "type": "Polygon",
        "coordinates": [
          [
            [
              78.344081,
              17.515848
            ],
            [
              78.344507,
              17.50364
            ],
            [
              78.345361,
              17.49523
            ],
            [
              78.344478,
              17.489617
            ],
            [
              78.346997,
              17.487763
            ],
            [
              78.349699,
              17.485186
            ],
            [
              78.349964,
              17.479981
            ],
            [
              78.349984,
              17.477826
            ],
            [
              78.356363,
              17.474017
            ],
            [
              78.364772,
              17.472238
            ],
            [
              78.378334,
              17.473207
            ],
            [
              78.382053,
              17.487906
            ],
            [
              78.374235,
              17.492381
            ],
            [
              78.376581,
              17.496858
            ],
            [
              78.377061,
              17.497502
            ],
            [
              78.377339,
              17.497934
            ],
            [
              78.376359,
              17.501515
            ],
            [
              78.377162,
              17.506847
            ],
            [
              78.376748,
              17.507933
            ],
            [
              78.374758,
              17.508681
            ],
            [
              78.373763,
              17.509061
            ],
            [
              78.373213,
              17.510066
            ],
            [
              78.37374,
              17.511718
            ],
            [
              78.372988,
              17.51356
            ],
            [
              78.372286,
              17.515357
            ],
            [
              78.369541,
              17.515034
            ],
            [
              78.362277,
              17.516749
            ],
            [
              78.360512,
              17.517135
            ],
            [
              78.356931,
              17.516739
            ],
            [
              78.352811,
              17.516647
            ],
            [
              78.348431,
              17.516379
            ],
            [
              78.343948,
              17.516793
            ],
            [
              78.344081,
              17.515848
            ]
          ]
        ]
      }
    }
  ]
}