{
  "type": "FeatureCollection",
  "features": [
    {
      "type": "Feature",
      "properties": {},
      "geometry": {
        "type": "Polygon",
        "coordinates": [
          [
            [
              78.669521,
              17.399036
            ],
            [
              78.671466,
              17.399565
            ],
            [
              78.683285,
              17.405389
            ],
            [
              78.688384,
              17.425945
            ],
            [
              78.692788,
              17.4421
            ],
            [
              78.700234,
              17.455058
            ],
            [
              78.685249,
              17.454657
            ],
            [
              78.659752,
              17.450297
            ],
            [
              78.642146,
              17.43178
            ],
            [
              78.623707,
              17.422919
            ],
            [
              78.627034,
              17.417629
            ],
            [
              78.631134,
              17.405162
            ],
            [
              78.650336,
              17.395903
            ],
            [
              78.669521,
              17.399036
            ]
          ]
        ]
      }
    }
  ]
}