{
  "type": "FeatureCollection",
  "features": [
    {
      "type": "Feature",
      "properties": {},
      "geometry": {
        "type": "Polygon",
        "coordinates": [
          [
            [
              78.604926,
              17.426494
            ],
            [
              78.607113,
              17.425445
            ],
            [
              78.617321,
              17.430673
            ],
            [
              78.616466,
              17.435551
            ],
            [
              78.60918,
              17.439255
            ],
            [
              78.611001,
              17.448062
            ],
            [
              78.612458,
              17.457557
            ],
            [
              78.611002,
              17.464396
            ],
            [
              78.601533,
              17.464391
            ],
            [
              78.597044,
              17.460683
            ],
            [
              78.594014,
              17.450494
            ],
            [
              78.590363,
              17.440418
            ],
            [
              78.585987,
              17.435781
            ],
            [
              78.586822,
              17.428121
            ],
            [
              78.592043,
              17.423131
            ],
            [
              78.59618,
              17.426502
            ],
            [
              78.600796,
              17.427311
            ],
            [
              78.604926,
              17.426494
            ]
          ]
        ]
      }
    }
  ]
}