{
  "type": "FeatureCollection",
  "features": [
    {
      "type": "Feature",
      "properties": {},
      "geometry": {
        "type": "Polygon",
        "coordinates": [
          [
            [
              78.557526,
              17.479566
            ],
            [
              78.559726,
              17.482426
            ],
            [
              78.562129,
              17.486365
            ],
            [
              78.564131,
              17.490371
            ],
            [
              78.566929,
              17.494951
            ],
            [
              78.566527,
              17.497113
            ],
            [
              78.564392,
              17.500355
            ],
            [
              78.562591,
              17.502071
            ],
            [
              78.559058,
              17.503215
            ],
            [
              78.556258,
              17.505247
            ],
            [
              78.549927,
              17.506329
            ],
            [
              78.545062,
              17.507092
            ],
            [
              78.543463,
              17.506392
            ],
            [
              78.538867,
              17.503277
            ],
            [
              78.535736,
              17.499718
            ],
            [
              78.536668,
              17.49438
            ],
            [
              78.536736,
              17.490949
            ],
            [
              78.536999,
              17.484528
            ],
            [
              78.540394,
              17.480582
            ],
            [
              78.549327,
              17.4802
            ],
            [
              78.557526,
              17.479566
            ]
          ]
        ]
      }
    }
  ]
}