{
  "type": "FeatureCollection",
  "features": [
    {
      "type": "Feature",
      "properties": {},
      "geometry": {
        "type": "Polygon",
        "coordinates": [
          [
            [
              78.531545,
              17.427788
            ],
            [
              78.53703,
              17.430209
            ],
            [
              78.542342,
              17.430098
            ],
            [
              78.542862,
              17.432247
            ],
            [
              78.543093,
              17.434285
            ],
            [
              78.543266,
              17.435497
            ],
            [
              78.544132,
              17.43759
            ],
            [
              78.544998,
              17.439628
            ],
            [
              78.548058,
              17.443484
            ],
            [
              78.548635,
              17.445743
            ],
            [
              78.547884,
              17.446899
            ],
            [
              78.546729,
              17.449157
            ],
            [
              78.536381,
              17.448795
            ],
            [
              78.535809,
              17.449996
            ],
            [
              78.534131,
              17.450105
            ],
            [
              78.532071,
              17.450505
            ],
            [
              78.531954,
              17.449995
            ],
            [
              78.531458,
              17.449777
            ],
            [
              78.530619,
              17.449595
            ],
            [
              78.528756,
              17.44793
            ],
            [
              78.527767,
              17.445849
            ],
            [
              78.526421,
              17.443026
            ],
            [
              78.520347,
              17.439629
            ],
            [
              78.519192,
              17.435499
            ],
            [
              78.521213,
              17.433847
            ],
            [
              78.524676,
              17.430542
            ],
            [
              78.528948,
              17.427787
            ],
            [
              78.531545,
              17.427788
            ]
          ]
        ]
      }
    }
  ]
}