{
  "type": "FeatureCollection",
  "features": [
    {
      "type": "Feature",
      "properties": {},
      "geometry": {
        "type": "Polygon",
        "coordinates": [
          [
            [
              78.574718,
              17.447558
            ],
            [
              78.576749,
              17.451328
            ],
            [
              78.577957,
              17.455413
            ],
            [
              78.578561,
              17.460074
            ],
            [
              78.576365,
              17.463269
            ],
            [
              78.574992,
              17.466097
            ],
            [
              78.573181,
              17.468715
            ],
            [
              78.571698,
              17.471543
            ],
            [
              78.569714,
              17.472918
            ],
            [
              78.566451,
              17.474519
            ],
            [
              78.562805,
              17.472695
            ],
            [
              78.556546,
              17.471124
            ],
            [
              78.551879,
              17.465888
            ],
            [
              78.551275,
              17.461279
            ],
            [
              78.554515,
              17.456461
            ],
            [
              78.565495,
              17.450647
            ],
            [
              78.574718,
              17.447558
            ]
          ]
        ]
      }
    }
  ]
}