{
  "type": "FeatureCollection",
  "features": [
    {
      "type": "Feature",
      "properties": {},
      "geometry": {
        "type": "Polygon",
        "coordinates": [
          [
            [
              78.512478,
              17.43509
            ],
            [
              78.518374,
              17.436205
            ],
            [
              78.520242,
              17.440387
            ],
            [
              78.523714,
              17.442259
            ],
            [
              78.526308,
              17.444499
            ],
            [
              78.528482,
              17.448685
            ],
            [
              78.531725,
              17.451996
            ],
            [
              78.537185,
              17.449479
            ],
            [
              78.541775,
              17.449491
            ],
            [
              78.545808,
              17.450259
            ],
            [
              78.549776,
              17.446656
            ],
            [
              78.553141,
              17.451092
            ],
            [
              78.554666,
              17.455019
            ],
            [
              78.549329,
              17.456571
            ],
            [
              78.545314,
              17.457492
            ],
            [
              78.541959,
              17.459092
            ],
            [
              78.536571,
              17.459529
            ],
            [
              78.533063,
              17.459965
            ],
            [
              78.532314,
              17.462178
            ],
            [
              78.530271,
              17.462072
            ],
            [
              78.526516,
              17.461808
            ],
            [
              78.523182,
              17.460871
            ],
            [
              78.519759,
              17.460028
            ],
            [
              78.516742,
              17.459364
            ],
            [
              78.514417,
              17.457305
            ],
            [
              78.512951,
              17.454986
            ],
            [
              78.512219,
              17.453385
            ],
            [
              78.510242,
              17.451383
            ],
            [
              78.508463,
              17.448183
            ],
            [
              78.506226,
              17.442849
            ],
            [
              78.50831,
              17.439794
            ],
            [
              78.510902,
              17.437563
            ],
            [
              78.512478,
              17.43509
            ]
          ]
        ]
      }
    }
  ]
}