{
  "type": "FeatureCollection",
  "features": [
    {
      "type": "Feature",
      "properties": {},
      "geometry": {
        "type": "Polygon",
        "coordinates": [
          [
            [
              78.484635,
              17.632386
            ],
            [
              78.48545,
              17.633733
            ],
            [
              78.48757,
              17.632489
            ],
            [
              78.489473,
              17.631194
            ],
            [
              78.491104,
              17.631401
            ],
            [
              78.490452,
              17.6328
            ],
            [
              78.48969,
              17.633733
            ],
            [
              78.488549,
              17.634458
            ],
            [
              78.486374,
              17.635754
            ],
            [
              78.485287,
              17.637567
            ],
            [
              78.485342,
              17.638344
            ],
            [
              78.48507,
              17.640986
            ],
            [
              78.48545,
              17.643317
            ],
            [
              78.486429,
              17.645596
            ],
            [
              78.48757,
              17.648497
            ],
            [
              78.48806,
              17.65
            ],
            [
              78.486592,
              17.649378
            ],
            [
              78.483385,
              17.649326
            ],
            [
              78.480178,
              17.649844
            ],
            [
              78.478656,
              17.649844
            ],
            [
              78.477134,
              17.649481
            ],
            [
              78.475938,
              17.648963
            ],
            [
              78.475177,
              17.646632
            ],
            [
              78.474307,
              17.642696
            ],
            [
              78.473981,
              17.638137
            ],
            [
              78.475829,
              17.636479
            ],
            [
              78.478383,
              17.634355
            ],
            [
              78.481591,
              17.633474
            ],
            [
              78.484635,
              17.632386
            ]
          ]
        ]
      }
    }
  ]
}