{
  "type": "FeatureCollection",
  "features": [
    {
      "type": "Feature",
      "properties": {},
      "geometry": {
        "type": "Polygon",
        "coordinates": [
          [
            [
              78.38184,
              17.518273
            ],
            [
              78.380169,
              17.518264
            ],
            [
              78.38327,
              17.5153
            ],
            [
              78.392817,
              17.510051
            ],
            [
              78.404996,
              17.509126
            ],
            [
              78.409535,
              17.51277
            ],
            [
              78.412402,
              17.518697
            ],
            [
              78.410492,
              17.524402
            ],
            [
              78.41312,
              17.537166
            ],
            [
              78.423864,
              17.543093
            ],
            [
              78.424102,
              17.549017
            ],
            [
              78.420759,
              17.553576
            ],
            [
              78.426725,
              17.56268
            ],
            [
              78.434121,
              17.570644
            ],
            [
              78.447008,
              17.571325
            ],
            [
              78.459424,
              17.574053
            ],
            [
              78.474234,
              17.574278
            ],
            [
              78.485466,
              17.569951
            ],
            [
              78.491903,
              17.563353
            ],
            [
              78.490223,
              17.570638
            ],
            [
              78.489483,
              17.58361
            ],
            [
              78.489014,
              17.591572
            ],
            [
              78.487615,
              17.602271
            ],
            [
              78.485949,
              17.612059
            ],
            [
              78.486223,
              17.622546
            ],
            [
              78.483818,
              17.629594
            ],
            [
              78.475673,
              17.631851
            ],
            [
              78.468033,
              17.631852
            ],
            [
              78.455369,
              17.632749
            ],
            [
              78.45059,
              17.637064
            ],
            [
              78.444149,
              17.642072
            ],
            [
              78.435555,
              17.645705
            ],
            [
              78.428155,
              17.644556
            ],
            [
              78.418372,
              17.6443
            ],
            [
              78.408116,
              17.642264
            ],
            [
              78.398812,
              17.638859
            ],
            [
              78.389266,
              17.635003
            ],
            [
              78.384248,
              17.626148
            ],
            [
              78.382102,
              17.617503
            ],
            [
              78.376127,
              17.608868
            ],
            [
              78.37064,
              17.602042
            ],
            [
              78.363461,
              17.594085
            ],
            [
              78.357014,
              17.580429
            ],
            [
              78.359359,
              17.567902
            ],
            [
              78.362456,
              17.558103
            ],
            [
              78.362473,
              17.548771
            ],
            [
              78.365123,
              17.538765
            ],
            [
              78.371106,
              17.527167
            ],
            [
              78.376127,
              17.522625
            ],
            [
              78.38184,
              17.518273
            ]
          ]
        ]
      }
    }
  ]
}