{
  "type": "FeatureCollection",
  "features": [
    {
      "type": "Feature",
      "properties": {},
      "geometry": {
        "type": "Polygon",
        "coordinates": [
          [
            [
              78.447968,
              17.510073
            ],
            [
              78.450287,
              17.509477
            ],
            [
              78.453515,
              17.508223
            ],
            [
              78.455673,
              17.50736
            ],
            [
              78.456027,
              17.507219
            ],
            [
              78.456736,
              17.507202
            ],
            [
              78.457376,
              17.507214
            ],
            [
              78.458526,
              17.5074
            ],
            [
              78.459581,
              17.507616
            ],
            [
              78.459769,
              17.507721
            ],
            [
              78.460293,
              17.507772
            ],
            [
              78.460925,
              17.507829
            ],
            [
              78.464974,
              17.507715
            ],
            [
              78.466865,
              17.506317
            ],
            [
              78.467555,
              17.505459
            ],
            [
              78.467863,
              17.504259
            ],
            [
              78.468036,
              17.50403
            ],
            [
              78.468641,
              17.503641
            ],
            [
              78.469817,
              17.502984
            ],
            [
              78.472492,
              17.501195
            ],
            [
              78.476634,
              17.49922
            ],
            [
              78.477945,
              17.502315
            ],
            [
              78.478857,
              17.507096
            ],
            [
              78.479531,
              17.512402
            ],
            [
              78.480484,
              17.517444
            ],
            [
              78.459165,
              17.535625
            ],
            [
              78.441539,
              17.551082
            ],
            [
              78.429478,
              17.552755
            ],
            [
              78.423443,
              17.529944
            ],
            [
              78.426183,
              17.52832
            ],
            [
              78.429876,
              17.527173
            ],
            [
              78.434215,
              17.524559
            ],
            [
              78.437302,
              17.521317
            ],
            [
              78.435757,
              17.512485
            ],
            [
              78.438239,
              17.512158
            ],
            [
              78.447968,
              17.510073
            ]
          ]
        ]
      }
    }
  ]
}