{
  "type": "FeatureCollection",
  "features": [
    {
      "type": "Feature",
      "properties": {},
      "geometry": {
        "type": "Polygon",
        "coordinates": [
          [
            [
              78.416098,
              17.46901
            ],
            [
              78.41642,
              17.46864
            ],
            [
              78.417007,
              17.466695
            ],
            [
              78.417789,
              17.463311
            ],
            [
              78.417705,
              17.461047
            ],
            [
              78.417761,
              17.460087
            ],
            [
              78.427313,
              17.461926
            ],
            [
              78.433458,
              17.462246
            ],
            [
              78.440469,
              17.462565
            ],
            [
              78.441949,
              17.463711
            ],
            [
              78.440134,
              17.467121
            ],
            [
              78.438011,
              17.467441
            ],
            [
              78.434296,
              17.467894
            ],
            [
              78.432508,
              17.469173
            ],
            [
              78.427928,
              17.472663
            ],
            [
              78.425163,
              17.473569
            ],
            [
              78.418431,
              17.474315
            ],
            [
              78.413962,
              17.475061
            ],
            [
              78.413863,
              17.474765
            ],
            [
              78.416098,
              17.46901
            ]
          ]
        ]
      }
    }
  ]
}