{
  "type": "FeatureCollection",
  "features": [
    {
      "type": "Feature",
      "properties": {},
      "geometry": {
        "type": "Polygon",
        "coordinates": [
          [
            [
              78.54685,
              17.414851
            ],
            [
              78.547133,
              17.414635
            ],
            [
              78.548323,
              17.413554
            ],
            [
              78.553592,
              17.408472
            ],
            [
              78.556935,
              17.405283
            ],
            [
              78.560334,
              17.401553
            ],
            [
              78.56532,
              17.401715
            ],
            [
              78.575461,
              17.401823
            ],
            [
              78.576707,
              17.411932
            ],
            [
              78.573795,
              17.413267
            ],
            [
              78.574441,
              17.419338
            ],
            [
              78.572005,
              17.419609
            ],
            [
              78.570815,
              17.421176
            ],
            [
              78.568612,
              17.422635
            ],
            [
              78.566679,
              17.424311
            ],
            [
              78.563696,
              17.423907
            ],
            [
              78.553948,
              17.422897
            ],
            [
              78.550702,
              17.420311
            ],
            [
              78.54685,
              17.414851
            ]
          ]
        ]
      }
    }
  ]
}