{
  "type": "FeatureCollection",
  "features": [
    {
      "type": "Feature",
      "properties": {},
      "geometry": {
        "type": "Polygon",
        "coordinates": [
          [
            [
              78.528226,
              17.462191
            ],
            [
              78.53058,
              17.462233
            ],
            [
              78.531809,
              17.462291
            ],
            [
              78.539024,
              17.469171
            ],
            [
              78.544463,
              17.4687
            ],
            [
              78.544227,
              17.467677
            ],
            [
              78.543727,
              17.466845
            ],
            [
              78.553046,
              17.465659
            ],
            [
              78.554949,
              17.474924
            ],
            [
              78.553848,
              17.475369
            ],
            [
              78.552669,
              17.475487
            ],
            [
              78.552363,
              17.475606
            ],
            [
              78.552391,
              17.475749
            ],
            [
              78.552492,
              17.4762
            ],
            [
              78.55265,
              17.477001
            ],
            [
              78.553038,
              17.478416
            ],
            [
              78.553507,
              17.479603
            ],
            [
              78.554024,
              17.480748
            ],
            [
              78.554349,
              17.481471
            ],
            [
              78.553478,
              17.481795
            ],
            [
              78.549474,
              17.483707
            ],
            [
              78.556662,
              17.497609
            ],
            [
              78.557226,
              17.497
            ],
            [
              78.559468,
              17.496433
            ],
            [
              78.56214,
              17.49557
            ],
            [
              78.566776,
              17.494714
            ],
            [
              78.56728,
              17.497136
            ],
            [
              78.568275,
              17.499302
            ],
            [
              78.56924,
              17.50127
            ],
            [
              78.572047,
              17.502992
            ],
            [
              78.572109,
              17.505892
            ],
            [
              78.571613,
              17.508958
            ],
            [
              78.570425,
              17.515329
            ],
            [
              78.570605,
              17.521537
            ],
            [
              78.542502,
              17.527129
            ],
            [
              78.541599,
              17.523163
            ],
            [
              78.541327,
              17.52079
            ],
            [
              78.540631,
              17.518677
            ],
            [
              78.540295,
              17.517455
            ],
            [
              78.540201,
              17.513145
            ],
            [
              78.540352,
              17.511701
            ],
            [
              78.541142,
              17.509322
            ],
            [
              78.543894,
              17.509653
            ],
            [
              78.544212,
              17.507649
            ],
            [
              78.544205,
              17.505962
            ],
            [
              78.54503,
              17.505803
            ],
            [
              78.545122,
              17.50539
            ],
            [
              78.545335,
              17.504803
            ],
            [
              78.545189,
              17.503289
            ],
            [
              78.54498,
              17.499903
            ],
            [
              78.544858,
              17.495053
            ],
            [
              78.53427,
              17.49431
            ],
            [
              78.531079,
              17.489595
            ],
            [
              78.527724,
              17.486162
            ],
            [
              78.5277,
              17.485133
            ],
            [
              78.528881,
              17.483177
            ],
            [
              78.529759,
              17.481751
            ],
            [
              78.530821,
              17.48065
            ],
            [
              78.532931,
              17.479452
            ],
            [
              78.528519,
              17.477089
            ],
            [
              78.525163,
              17.476201
            ],
            [
              78.521855,
              17.475007
            ],
            [
              78.526278,
              17.470085
            ],
            [
              78.528226,
              17.462191
            ]
          ]
        ]
      }
    }
  ]
}