{
  "type": "FeatureCollection",
  "features": [
    {
      "type": "Feature",
      "properties": {},
      "geometry": {
        "type": "Polygon",
        "coordinates": [
          [
            [
              78.537757,
              17.433086
            ],
            [
              78.542965,
              17.429359
            ],
            [
              78.546731,
              17.428145
            ],
            [
              78.548888,
              17.427621
            ],
            [
              78.550448,
              17.427284
            ],
            [
              78.551419,
              17.425358
            ],
            [
              78.55313,
              17.423077
            ],
            [
              78.558028,
              17.423422
            ],
            [
              78.56666,
              17.424448
            ],
            [
              78.568567,
              17.42277
            ],
            [
              78.570455,
              17.421499
            ],
            [
              78.570981,
              17.421306
            ],
            [
              78.571777,
              17.420068
            ],
            [
              78.572943,
              17.419747
            ],
            [
              78.574275,
              17.419694
            ],
            [
              78.574838,
              17.421053
            ],
            [
              78.575544,
              17.422305
            ],
            [
              78.576159,
              17.423611
            ],
            [
              78.5759,
              17.424717
            ],
            [
              78.581229,
              17.426809
            ],
            [
              78.579472,
              17.429791
            ],
            [
              78.587739,
              17.4405
            ],
            [
              78.594627,
              17.451865
            ],
            [
              78.581534,
              17.455095
            ],
            [
              78.58114,
              17.449916
            ],
            [
              78.579249,
              17.44871
            ],
            [
              78.577045,
              17.447998
            ],
            [
              78.575061,
              17.447507
            ],
            [
              78.574623,
              17.446655
            ],
            [
              78.574511,
              17.44761
            ],
            [
              78.568426,
              17.4494
            ],
            [
              78.56491,
              17.449417
            ],
            [
              78.561857,
              17.447475
            ],
            [
              78.54926,
              17.445579
            ],
            [
              78.547406,
              17.442786
            ],
            [
              78.546626,
              17.435443
            ],
            [
              78.542411,
              17.433941
            ],
            [
              78.537757,
              17.433086
            ]
          ]
        ]
      }
    }
  ]
}