{
  "type": "FeatureCollection",
  "features": [
    {
      "type": "Feature",
      "properties": {},
      "geometry": {
        "type": "Polygon",
        "coordinates": [
          [
            [
              78.554536,
              17.45555
            ],
            [
              78.555275,
              17.455611
            ],
            [
              78.559969,
              17.454339
            ],
            [
              78.564746,
              17.452579
            ],
            [
              78.570376,
              17.450729
            ],
            [
              78.575436,
              17.448956
            ],
            [
              78.57516,
              17.447793
            ],
            [
              78.576061,
              17.448502
            ],
            [
              78.577737,
              17.448345
            ],
            [
              78.580852,
              17.449909
            ],
            [
              78.5812,
              17.455189
            ],
            [
              78.579689,
              17.455802
            ],
            [
              78.57894,
              17.456924
            ],
            [
              78.577935,
              17.459761
            ],
            [
              78.575988,
              17.463634
            ],
            [
              78.571894,
              17.470305
            ],
            [
              78.570653,
              17.472079
            ],
            [
              78.570586,
              17.473477
            ],
            [
              78.569381,
              17.473834
            ],
            [
              78.568413,
              17.474575
            ],
            [
              78.567214,
              17.476497
            ],
            [
              78.563844,
              17.477019
            ],
            [
              78.561262,
              17.478022
            ],
            [
              78.557605,
              17.47955
            ],
            [
              78.55441,
              17.481433
            ],
            [
              78.553886,
              17.480257
            ],
            [
              78.553556,
              17.479523
            ],
            [
              78.553188,
              17.47863
            ],
            [
              78.552913,
              17.477792
            ],
            [
              78.552712,
              17.476955
            ],
            [
              78.552416,
              17.475644
            ],
            [
              78.554017,
              17.475396
            ],
            [
              78.555056,
              17.474972
            ],
            [
              78.553252,
              17.465448
            ],
            [
              78.548228,
              17.466052
            ],
            [
              78.543662,
              17.466816
            ],
            [
              78.540167,
              17.459861
            ],
            [
              78.548962,
              17.456935
            ],
            [
              78.554536,
              17.45555
            ]
          ]
        ]
      }
    }
  ]
}