{
  "type": "FeatureCollection",
  "features": [
    {
      "type": "Feature",
      "properties": {},
      "geometry": {
        "type": "Polygon",
        "coordinates": [
          [
            [
              78.501206,
              17.529657
            ],
            [
              78.50258,
              17.528945
            ],
            [
              78.504086,
              17.52784
            ],
            [
              78.505902,
              17.526354
            ],
            [
              78.50759,
              17.524743
            ],
            [
              78.509311,
              17.523359
            ],
            [
              78.510982,
              17.521806
            ],
            [
              78.516013,
              17.521364
            ],
            [
              78.522419,
              17.52249
            ],
            [
              78.522798,
              17.529133
            ],
            [
              78.523947,
              17.535729
            ],
            [
              78.517579,
              17.540239
            ],
            [
              78.508665,
              17.544749
            ],
            [
              78.506027,
              17.537377
            ],
            [
              78.501206,
              17.529657
            ]
          ]
        ]
      }
    }
  ]
}