{
  "type": "FeatureCollection",
  "features": [
    {
      "type": "Feature",
      "properties": {},
      "geometry": {
        "type": "Polygon",
        "coordinates": [
          [
            [
              78.524237,
              17.440576
            ],
            [
              78.526746,
              17.442095
            ],
            [
              78.530794,
              17.439649
            ],
            [
              78.535652,
              17.436308
            ],
            [
              78.542067,
              17.435175
            ],
            [
              78.543195,
              17.434273
            ],
            [
              78.546426,
              17.435479
            ],
            [
              78.547032,
              17.443104
            ],
            [
              78.544615,
              17.444824
            ],
            [
              78.533283,
              17.450376
            ],
            [
              78.531007,
              17.454826
            ],
            [
              78.521541,
              17.474861
            ],
            [
              78.514632,
              17.474075
            ],
            [
              78.510943,
              17.474164
            ],
            [
              78.510416,
              17.473972
            ],
            [
              78.509848,
              17.472132
            ],
            [
              78.509709,
              17.471045
            ],
            [
              78.509145,
              17.470005
            ],
            [
              78.508212,
              17.46904
            ],
            [
              78.505838,
              17.466398
            ],
            [
              78.500556,
              17.461932
            ],
            [
              78.497949,
              17.453865
            ],
            [
              78.502165,
              17.446524
            ],
            [
              78.505294,
              17.443051
            ],
            [
              78.510186,
              17.43898
            ],
            [
              78.517627,
              17.439132
            ],
            [
              78.524237,
              17.440576
            ]
          ]
        ]
      }
    }
  ]
}