{
  "type": "FeatureCollection",
  "features": [
    {
      "type": "Feature",
      "properties": {},
      "geometry": {
        "type": "Polygon",
        "coordinates": [
          [
            [
              78.467715,
              17.504968
            ],
            [
              78.471282,
              17.50143
            ],
            [
              78.477527,
              17.498844
            ],
            [
              78.48184,
              17.501473
            ],
            [
              78.486327,
              17.507746
            ],
            [
              78.490155,
              17.514183
            ],
            [
              78.491367,
              17.516536
            ],
            [
              78.493784,
              17.52196
            ],
            [
              78.494538,
              17.530974
            ],
            [
              78.490757,
              17.540847
            ],
            [
              78.478185,
              17.544216
            ],
            [
              78.476343,
              17.541877
            ],
            [
              78.476754,
              17.530907
            ],
            [
              78.471824,
              17.519779
            ],
            [
              78.469112,
              17.513667
            ],
            [
              78.467304,
              17.509827
            ],
            [
              78.467715,
              17.504968
            ]
          ]
        ]
      }
    }
  ]
}