{
  "type": "FeatureCollection",
  "features": [
    {
      "type": "Feature",
      "properties": {},
      "geometry": {
        "type": "Polygon",
        "coordinates": [
          [
            [
              78.247219,
              17.49228
            ],
            [
              78.247037,
              17.48351
            ],
            [
              78.250741,
              17.459089
            ],
            [
              78.267266,
              17.426164
            ],
            [
              78.291127,
              17.414412
            ],
            [
              78.299628,
              17.437665
            ],
            [
              78.306708,
              17.447595
            ],
            [
              78.334556,
              17.462698
            ],
            [
              78.317451,
              17.47828
            ],
            [
              78.309588,
              17.478748
            ],
            [
              78.314018,
              17.494571
            ],
            [
              78.311806,
              17.499492
            ],
            [
              78.308346,
              17.503814
            ],
            [
              78.302005,
              17.506848
            ],
            [
              78.300588,
              17.511359
            ],
            [
              78.298787,
              17.521564
            ],
            [
              78.297655,
              17.531571
            ],
            [
              78.295392,
              17.551574
            ],
            [
              78.287365,
              17.550696
            ],
            [
              78.28025,
              17.549491
            ],
            [
              78.282143,
              17.541822
            ],
            [
              78.280371,
              17.538051
            ],
            [
              78.279858,
              17.533339
            ],
            [
              78.288502,
              17.526274
            ],
            [
              78.286959,
              17.523233
            ],
            [
              78.284389,
              17.520388
            ],
            [
              78.288709,
              17.516955
            ],
            [
              78.28333,
              17.509318
            ],
            [
              78.281676,
              17.496917
            ],
            [
              78.247219,
              17.49228
            ]
          ]
        ]
      }
    }
  ]
}