{
  "type": "FeatureCollection",
  "features": [
    {
      "type": "Feature",
      "properties": {},
      "geometry": {
        "type": "Polygon",
        "coordinates": [
          [
            [
              78.386802,
              17.471788
            ],
            [
              78.390667,
              17.469284
            ],
            [
              78.392417,
              17.468864
            ],
            [
              78.410226,
              17.479437
            ],
            [
              78.417382,
              17.480549
            ],
            [
              78.417383,
              17.486683
            ],
            [
              78.417529,
              17.496573
            ],
            [
              78.419136,
              17.503399
            ],
            [
              78.416363,
              17.508829
            ],
            [
              78.4114,
              17.508133
            ],
            [
              78.403231,
              17.507576
            ],
            [
              78.401821,
              17.510592
            ],
            [
              78.402966,
              17.518274
            ],
            [
              78.399182,
              17.532718
            ],
            [
              78.394815,
              17.532854
            ],
            [
              78.386938,
              17.53064
            ],
            [
              78.388949,
              17.517868
            ],
            [
              78.391879,
              17.4984
            ],
            [
              78.395282,
              17.496315
            ],
            [
              78.391692,
              17.48783
            ],
            [
              78.389202,
              17.482042
            ],
            [
              78.39007,
              17.47708
            ],
            [
              78.386802,
              17.471788
            ]
          ]
        ]
      }
    }
  ]
}