{
  "type": "FeatureCollection",
  "features": [
    {
      "type": "Feature",
      "properties": {},
      "geometry": {
        "type": "Polygon",
        "coordinates": [
          [
            [
              78.579355,
              17.401537
            ],
            [
              78.58068,
              17.401822
            ],
            [
              78.582901,
              17.4028
            ],
            [
              78.586745,
              17.405246
            ],
            [
              78.586062,
              17.408996
            ],
            [
              78.582474,
              17.410003
            ],
            [
              78.582294,
              17.410519
            ],
            [
              78.581697,
              17.410825
            ],
            [
              78.580318,
              17.411636
            ],
            [
              78.57766,
              17.412991
            ],
            [
              78.579052,
              17.414157
            ],
            [
              78.579585,
              17.414288
            ],
            [
              78.580848,
              17.415865
            ],
            [
              78.582459,
              17.417335
            ],
            [
              78.583021,
              17.418518
            ],
            [
              78.582528,
              17.418781
            ],
            [
              78.580963,
              17.41954
            ],
            [
              78.580161,
              17.419769
            ],
            [
              78.579355,
              17.41996
            ],
            [
              78.578156,
              17.420047
            ],
            [
              78.577232,
              17.419883
            ],
            [
              78.574409,
              17.419448
            ],
            [
              78.572754,
              17.419663
            ],
            [
              78.57198,
              17.419919
            ],
            [
              78.571484,
              17.420344
            ],
            [
              78.571015,
              17.421085
            ],
            [
              78.568732,
              17.422505
            ],
            [
              78.566715,
              17.424382
            ],
            [
              78.564296,
              17.421561
            ],
            [
              78.566156,
              17.417963
            ],
            [
              78.565516,
              17.415884
            ],
            [
              78.564448,
              17.408181
            ],
            [
              78.563978,
              17.405776
            ],
            [
              78.562672,
              17.402725
            ],
            [
              78.560945,
              17.401618
            ],
            [
              78.567395,
              17.401537
            ],
            [
              78.579355,
              17.401537
            ]
          ]
        ]
      }
    }
  ]
}