{
  "type": "FeatureCollection",
  "features": [
    {
      "type": "Feature",
      "properties": {},
      "geometry": {
        "type": "Polygon",
        "coordinates": [
          [
            [
              78.37789,
              17.519698
            ],
            [
              78.378893,
              17.518653
            ],
            [
              78.381846,
              17.516726
            ],
            [
              78.382911,
              17.514451
            ],
            [
              78.383822,
              17.513606
            ],
            [
              78.384702,
              17.510609
            ],
            [
              78.386362,
              17.50611
            ],
            [
              78.388513,
              17.502873
            ],
            [
              78.389411,
              17.49987
            ],
            [
              78.391999,
              17.499216
            ],
            [
              78.397638,
              17.499324
            ],
            [
              78.404302,
              17.499319
            ],
            [
              78.408434,
              17.499188
            ],
            [
              78.407901,
              17.504587
            ],
            [
              78.407788,
              17.507287
            ],
            [
              78.41158,
              17.509037
            ],
            [
              78.413981,
              17.513289
            ],
            [
              78.413803,
              17.514097
            ],
            [
              78.41487,
              17.515477
            ],
            [
              78.414429,
              17.517564
            ],
            [
              78.414344,
              17.518279
            ],
            [
              78.414263,
              17.51957
            ],
            [
              78.414352,
              17.520234
            ],
            [
              78.41428,
              17.52197
            ],
            [
              78.414949,
              17.522985
            ],
            [
              78.41536,
              17.524369
            ],
            [
              78.414276,
              17.525422
            ],
            [
              78.413623,
              17.525833
            ],
            [
              78.414764,
              17.528523
            ],
            [
              78.413299,
              17.52973
            ],
            [
              78.411926,
              17.530992
            ],
            [
              78.410626,
              17.532184
            ],
            [
              78.409994,
              17.532471
            ],
            [
              78.40599,
              17.533832
            ],
            [
              78.404663,
              17.534293
            ],
            [
              78.401674,
              17.534852
            ],
            [
              78.393599,
              17.54054
            ],
            [
              78.388643,
              17.541289
            ],
            [
              78.387182,
              17.534839
            ],
            [
              78.386599,
              17.531707
            ],
            [
              78.385302,
              17.529009
            ],
            [
              78.382869,
              17.527429
            ],
            [
              78.381248,
              17.527124
            ],
            [
              78.380096,
              17.526525
            ],
            [
              78.379464,
              17.525926
            ],
            [
              78.37851,
              17.523892
            ],
            [
              78.378118,
              17.52324
            ],
            [
              78.378164,
              17.522278
            ],
            [
              78.378419,
              17.521407
            ],
            [
              78.378301,
              17.520506
            ],
            [
              78.37789,
              17.519698
            ]
          ]
        ]
      }
    }
  ]
}