{
  "type": "FeatureCollection",
  "features": [
    {
      "type": "Feature",
      "properties": {},
      "geometry": {
        "type": "Polygon",
        "coordinates": [
          [
            [
              78.453869,
              17.411851
            ],
            [
              78.455431,
              17.411781
            ],
            [
              78.456314,
              17.411939
            ],
            [
              78.458394,
              17.414816
            ],
            [
              78.457244,
              17.41771
            ],
            [
              78.456355,
              17.420205
            ],
            [
              78.452694,
              17.426641
            ],
            [
              78.454992,
              17.428984
            ],
            [
              78.455784,
              17.434196
            ],
            [
              78.451078,
              17.435294
            ],
            [
              78.445869,
              17.433994
            ],
            [
              78.446729,
              17.432905
            ],
            [
              78.447762,
              17.431907
            ],
            [
              78.450027,
              17.430035
            ],
            [
              78.448911,
              17.429718
            ],
            [
              78.447693,
              17.42971
            ],
            [
              78.445428,
              17.430002
            ],
            [
              78.44566,
              17.427151
            ],
            [
              78.448726,
              17.42585
            ],
            [
              78.448358,
              17.424218
            ],
            [
              78.448364,
              17.423964
            ],
            [
              78.448573,
              17.423663
            ],
            [
              78.449188,
              17.422924
            ],
            [
              78.450633,
              17.423603
            ],
            [
              78.452336,
              17.42376
            ],
            [
              78.453117,
              17.417183
            ],
            [
              78.453518,
              17.413278
            ],
            [
              78.453869,
              17.411851
            ]
          ]
        ]
      }
    }
  ]
}