{
  "type": "FeatureCollection",
  "features": [
    {
      "type": "Feature",
      "properties": {},
      "geometry": {
        "type": "Polygon",
        "coordinates": [
          [
            [
              78.417132,
              17.444549
            ],
            [
              78.417725,
              17.445515
            ],
            [
              78.41803,
              17.445457
            ],
            [
              78.418372,
              17.445688
            ],
            [
              78.418977,
              17.445548
            ],
            [
              78.420681,
              17.445207
            ],
            [
              78.422241,
              17.444785
            ],
            [
              78.427113,
              17.44528
            ],
            [
              78.427769,
              17.450167
            ],
            [
              78.428851,
              17.454187
            ],
            [
              78.422658,
              17.454276
            ],
            [
              78.422228,
              17.460223
            ],
            [
              78.419734,
              17.459988
            ],
            [
              78.414363,
              17.45845
            ],
            [
              78.404194,
              17.45954
            ],
            [
              78.400883,
              17.46084
            ],
            [
              78.398797,
              17.463503
            ],
            [
              78.397668,
              17.454686
            ],
            [
              78.395788,
              17.449149
            ],
            [
              78.405998,
              17.446432
            ],
            [
              78.417132,
              17.444549
            ]
          ]
        ]
      }
    }
  ]
}