{
  "type": "FeatureCollection",
  "features": [
    {
      "type": "Feature",
      "properties": {},
      "geometry": {
        "type": "Polygon",
        "coordinates": [
          [
            [
              78.428853,
              17.444995
            ],
            [
              78.426781,
              17.445109
            ],
            [
              78.425811,
              17.444274
            ],
            [
              78.425413,
              17.443704
            ],
            [
              78.424974,
              17.443552
            ],
            [
              78.424433,
              17.444159
            ],
            [
              78.424182,
              17.444307
            ],
            [
              78.423872,
              17.444384
            ],
            [
              78.423391,
              17.444589
            ],
            [
              78.422394,
              17.444741
            ],
            [
              78.421628,
              17.444937
            ],
            [
              78.420744,
              17.445169
            ],
            [
              78.419815,
              17.445353
            ],
            [
              78.418359,
              17.445653
            ],
            [
              78.418046,
              17.445431
            ],
            [
              78.417716,
              17.445469
            ],
            [
              78.417275,
              17.444712
            ],
            [
              78.416168,
              17.438844
            ],
            [
              78.418773,
              17.437908
            ],
            [
              78.4222,
              17.437167
            ],
            [
              78.423366,
              17.439063
            ],
            [
              78.425052,
              17.438893
            ],
            [
              78.42865,
              17.437329
            ],
            [
              78.432301,
              17.436723
            ],
            [
              78.438438,
              17.436319
            ],
            [
              78.440448,
              17.437934
            ],
            [
              78.443517,
              17.437278
            ],
            [
              78.441189,
              17.442427
            ],
            [
              78.439707,
              17.442225
            ],
            [
              78.432459,
              17.444748
            ],
            [
              78.428853,
              17.444995
            ]
          ]
        ]
      }
    }
  ]
}