{
  "type": "FeatureCollection",
  "features": [
    {
      "type": "Feature",
      "properties": {},
      "geometry": {
        "type": "Polygon",
        "coordinates": [
          [
            [
              78.448646,
              17.425825
            ],
            [
              78.445596,
              17.427072
            ],
            [
              78.445325,
              17.430116
            ],
            [
              78.447591,
              17.429791
            ],
            [
              78.44909,
              17.429856
            ],
            [
              78.44943,
              17.429978
            ],
            [
              78.449822,
              17.430084
            ],
            [
              78.449226,
              17.430596
            ],
            [
              78.447358,
              17.432082
            ],
            [
              78.446598,
              17.432861
            ],
            [
              78.445916,
              17.433702
            ],
            [
              78.44338,
              17.437007
            ],
            [
              78.440398,
              17.437673
            ],
            [
              78.438689,
              17.43617
            ],
            [
              78.435914,
              17.436189
            ],
            [
              78.433014,
              17.436409
            ],
            [
              78.428135,
              17.437233
            ],
            [
              78.426398,
              17.431852
            ],
            [
              78.425659,
              17.430442
            ],
            [
              78.424994,
              17.429174
            ],
            [
              78.424625,
              17.428469
            ],
            [
              78.424366,
              17.427306
            ],
            [
              78.423591,
              17.425791
            ],
            [
              78.423148,
              17.424241
            ],
            [
              78.426274,
              17.422936
            ],
            [
              78.428908,
              17.421205
            ],
            [
              78.429143,
              17.418133
            ],
            [
              78.42885,
              17.417239
            ],
            [
              78.428801,
              17.416659
            ],
            [
              78.429935,
              17.416449
            ],
            [
              78.432146,
              17.416509
            ],
            [
              78.437515,
              17.415552
            ],
            [
              78.444743,
              17.415455
            ],
            [
              78.449656,
              17.414595
            ],
            [
              78.4507,
              17.409511
            ],
            [
              78.450799,
              17.40836
            ],
            [
              78.451287,
              17.407443
            ],
            [
              78.453992,
              17.40988
            ],
            [
              78.453861,
              17.411721
            ],
            [
              78.453462,
              17.413046
            ],
            [
              78.453044,
              17.417171
            ],
            [
              78.452262,
              17.423716
            ],
            [
              78.450729,
              17.42358
            ],
            [
              78.449881,
              17.423174
            ],
            [
              78.449142,
              17.422828
            ],
            [
              78.448178,
              17.424098
            ],
            [
              78.448646,
              17.425825
            ]
          ]
        ]
      }
    }
  ]
}