{
  "type": "FeatureCollection",
  "features": [
    {
      "type": "Feature",
      "properties": {},
      "geometry": {
        "type": "Polygon",
        "coordinates": [
          [
            [
              78.335368,
              17.487738
            ],
            [
              78.329862,
              17.48652
            ],
            [
              78.325792,
              17.486756
            ],
            [
              78.317528,
              17.483051
            ],
            [
              78.311238,
              17.481249
            ],
            [
              78.304325,
              17.480556
            ],
            [
              78.300555,
              17.478933
            ],
            [
              78.294099,
              17.476323
            ],
            [
              78.287398,
              17.47372
            ],
            [
              78.273804,
              17.46873
            ],
            [
              78.297239,
              17.43596
            ],
            [
              78.315467,
              17.411651
            ],
            [
              78.333029,
              17.406045
            ],
            [
              78.351145,
              17.39706
            ],
            [
              78.357579,
              17.424425
            ],
            [
              78.369274,
              17.422782
            ],
            [
              78.373822,
              17.429785
            ],
            [
              78.364185,
              17.438527
            ],
            [
              78.35256,
              17.444329
            ],
            [
              78.352633,
              17.455712
            ],
            [
              78.355459,
              17.459634
            ],
            [
              78.35793,
              17.462481
            ],
            [
              78.357942,
              17.465862
            ],
            [
              78.348938,
              17.470008
            ],
            [
              78.342718,
              17.475021
            ],
            [
              78.334218,
              17.478013
            ],
            [
              78.335369,
              17.483475
            ],
            [
              78.335368,
              17.487738
            ]
          ]
        ]
      }
    }
  ]
}