{
  "type": "FeatureCollection",
  "features": [
    {
      "type": "Feature",
      "properties": {},
      "geometry": {
        "type": "Polygon",
        "coordinates": [
          [
            [
              78.387022852,
              17.47173918
            ],
            [
              78.39157935,
              17.469187161
            ],
            [
              78.395200862,
              17.476392398
            ],
            [
              78.398811953,
              17.48395949
            ],
            [
              78.403471024,
              17.492789291
            ],
            [
              78.407635556,
              17.490612356
            ],
            [
              78.412510973,
              17.484418734
            ],
            [
              78.416049194,
              17.48156834
            ],
            [
              78.419260514,
              17.478688392
            ],
            [
              78.422472397,
              17.476463631
            ],
            [
              78.42431005,
              17.475187116
            ],
            [
              78.426374832,
              17.47420237
            ],
            [
              78.426948383,
              17.478323679
            ],
            [
              78.427521933,
              17.483137832
            ],
            [
              78.426336595,
              17.485508391
            ],
            [
              78.426527779,
              17.487076591
            ],
            [
              78.424998311,
              17.48714953
            ],
            [
              78.423736499,
              17.489228284
            ],
            [
              78.425189494,
              17.490197222
            ],
            [
              78.42453947,
              17.491692444
            ],
            [
              78.424615944,
              17.4934794
            ],
            [
              78.423774736,
              17.494792254
            ],
            [
              78.42140406,
              17.496141566
            ],
            [
              78.420448142,
              17.498074348
            ],
            [
              78.41838336,
              17.49818375
            ],
            [
              78.417274496,
              17.501684583
            ],
            [
              78.408900656,
              17.505987598
            ],
            [
              78.401329788,
              17.508686047
            ],
            [
              78.401736293,
              17.513555791
            ],
            [
              78.406238944,
              17.518312567
            ],
            [
              78.40573665,
              17.526534509
            ],
            [
              78.399394571,
              17.534326712
            ],
            [
              78.396263974,
              17.540776861
            ],
            [
              78.388279066,
              17.541437071
            ],
            [
              78.375048313,
              17.543372764
            ],
            [
              78.366700146,
              17.539898095
            ],
            [
              78.363560358,
              17.540948019
            ],
            [
              78.361429081,
              17.551375464
            ],
            [
              78.350306516,
              17.561082435
            ],
            [
              78.338907859,
              17.556958335
            ],
            [
              78.355806246,
              17.547924528
            ],
            [
              78.359549413,
              17.539431552
            ],
            [
              78.387260041,
              17.523729695
            ],
            [
              78.38296589,
              17.514909984
            ],
            [
              78.387956904,
              17.503219607
            ],
            [
              78.376605931,
              17.502555165
            ],
            [
              78.368220532,
              17.503092186
            ],
            [
              78.365620171,
              17.504494707
            ],
            [
              78.354002062,
              17.506904803
            ],
            [
              78.355466264,
              17.495994347
            ],
            [
              78.361751171,
              17.496871146
            ],
            [
              78.372664469,
              17.496617684
            ],
            [
              78.378832459,
              17.498010039
            ],
            [
              78.386594722,
              17.498895091
            ],
            [
              78.391702699,
              17.497946081
            ],
            [
              78.395287942,
              17.496427033
            ],
            [
              78.390054073,
              17.484235568
            ],
            [
              78.389388205,
              17.481893988
            ],
            [
              78.390316685,
              17.477463264
            ],
            [
              78.387022852,
              17.47173918
            ]
          ]
        ]
      }
    }
  ]
}