{
  "type": "FeatureCollection",
  "features": [
    {
      "type": "Feature",
      "properties": {},
      "geometry": {
        "type": "Polygon",
        "coordinates": [
          [
            [
              78.406657,
              17.49163
            ],
            [
              78.407564,
              17.490913
            ],
            [
              78.411456,
              17.49459
            ],
            [
              78.413391,
              17.496509
            ],
            [
              78.413831,
              17.496993
            ],
            [
              78.414211,
              17.497541
            ],
            [
              78.414936,
              17.498537
            ],
            [
              78.416441,
              17.497819
            ],
            [
              78.418347,
              17.497396
            ],
            [
              78.420295,
              17.497416
            ],
            [
              78.424783,
              17.493653
            ],
            [
              78.430991,
              17.493431
            ],
            [
              78.433408,
              17.498853
            ],
            [
              78.431433,
              17.5019
            ],
            [
              78.427249,
              17.506009
            ],
            [
              78.417845,
              17.508813
            ],
            [
              78.411574,
              17.509251
            ],
            [
              78.412296,
              17.51441
            ],
            [
              78.402689,
              17.514356
            ],
            [
              78.397083,
              17.511603
            ],
            [
              78.391684,
              17.511824
            ],
            [
              78.388348,
              17.511256
            ],
            [
              78.390037,
              17.498714
            ],
            [
              78.399839,
              17.495006
            ],
            [
              78.406657,
              17.49163
            ]
          ]
        ]
      }
    }
  ]
}