{
  "type": "FeatureCollection",
  "features": [
    {
      "type": "Feature",
      "properties": {},
      "geometry": {
        "type": "Polygon",
        "coordinates": [
          [
            [
              78.393488,
              17.54066
            ],
            [
              78.400819,
              17.543021
            ],
            [
              78.410202,
              17.554314
            ],
            [
              78.413371,
              17.562327
            ],
            [
              78.403534,
              17.566468
            ],
            [
              78.377947,
              17.567416
            ],
            [
              78.367094,
              17.569751
            ],
            [
              78.361665,
              17.569581
            ],
            [
              78.357943,
              17.560874
            ],
            [
              78.343364,
              17.561134
            ],
            [
              78.332296,
              17.560619
            ],
            [
              78.332659,
              17.558373
            ],
            [
              78.340378,
              17.554714
            ],
            [
              78.349535,
              17.551433
            ],
            [
              78.360406,
              17.539015
            ],
            [
              78.361399,
              17.536599
            ],
            [
              78.366556,
              17.53643
            ],
            [
              78.366736,
              17.540222
            ],
            [
              78.371167,
              17.543154
            ],
            [
              78.379393,
              17.543502
            ],
            [
              78.393488,
              17.54066
            ]
          ]
        ]
      }
    }
  ]
}