{
  "type": "FeatureCollection",
  "features": [
    {
      "type": "Feature",
      "properties": {},
      "geometry": {
        "type": "Polygon",
        "coordinates": [
          [
            [
              78.360462,
              17.484057
            ],
            [
              78.368341,
              17.482753
            ],
            [
              78.368985,
              17.486665
            ],
            [
              78.378066,
              17.498316
            ],
            [
              78.37646,
              17.507739
            ],
            [
              78.372121,
              17.515019
            ],
            [
              78.371961,
              17.518848
            ],
            [
              78.35684,
              17.516337
            ],
            [
              78.349286,
              17.505985
            ],
            [
              78.348309,
              17.49456
            ],
            [
              78.347504,
              17.489113
            ],
            [
              78.349839,
              17.487733
            ],
            [
              78.360462,
              17.484057
            ]
          ]
        ]
      }
    }
  ]
}