{
  "type": "FeatureCollection",
  "features": [
    {
      "type": "Feature",
      "properties": {},
      "geometry": {
        "type": "Polygon",
        "coordinates": [
          [
            [
              78.378194,
              17.477928
            ],
            [
              78.379961,
              17.480929
            ],
            [
              78.383939,
              17.490966
            ],
            [
              78.384094,
              17.491735
            ],
            [
              78.388382,
              17.496875
            ],
            [
              78.390752,
              17.497999
            ],
            [
              78.394302,
              17.49656
            ],
            [
              78.396477,
              17.49601
            ],
            [
              78.400827,
              17.494444
            ],
            [
              78.404156,
              17.493044
            ],
            [
              78.404689,
              17.493978
            ],
            [
              78.406375,
              17.497026
            ],
            [
              78.409925,
              17.49838
            ],
            [
              78.405281,
              17.502009
            ],
            [
              78.401714,
              17.502994
            ],
            [
              78.400011,
              17.504689
            ],
            [
              78.389686,
              17.505492
            ],
            [
              78.387495,
              17.522195
            ],
            [
              78.385625,
              17.52431
            ],
            [
              78.374409,
              17.523966
            ],
            [
              78.372288,
              17.518565
            ],
            [
              78.37251,
              17.515136
            ],
            [
              78.376815,
              17.507856
            ],
            [
              78.378369,
              17.498338
            ],
            [
              78.36927,
              17.48657
            ],
            [
              78.370607,
              17.482283
            ],
            [
              78.378194,
              17.477928
            ]
          ]
        ]
      }
    }
  ]
}