{
  "type": "FeatureCollection",
  "features": [
    {
      "type": "Feature",
      "properties": {},
      "geometry": {
        "type": "Polygon",
        "coordinates": [
          [
            [
              78.391252,
              17.46999
            ],
            [
              78.392718,
              17.468992
            ],
            [
              78.411703,
              17.479845
            ],
            [
              78.416032,
              17.481509
            ],
            [
              78.413299,
              17.484493
            ],
            [
              78.408771,
              17.489192
            ],
            [
              78.404422,
              17.492705
            ],
            [
              78.400962,
              17.49415
            ],
            [
              78.394966,
              17.49601
            ],
            [
              78.39072,
              17.497656
            ],
            [
              78.3885,
              17.496652
            ],
            [
              78.384523,
              17.491745
            ],
            [
              78.381018,
              17.482048
            ],
            [
              78.390565,
              17.477449
            ],
            [
              78.387277,
              17.47159
            ],
            [
              78.391252,
              17.46999
            ]
          ]
        ]
      }
    }
  ]
}