{
  "type": "FeatureCollection",
  "features": [
    {
      "type": "Feature",
      "properties": {},
      "geometry": {
        "type": "Polygon",
        "coordinates": [
          [
            [
              78.425918,
              17.474487
            ],
            [
              78.429262,
              17.472831
            ],
            [
              78.431896,
              17.479272
            ],
            [
              78.429002,
              17.492515
            ],
            [
              78.425211,
              17.493741
            ],
            [
              78.419683,
              17.498767
            ],
            [
              78.415442,
              17.500237
            ],
            [
              78.413128,
              17.499379
            ],
            [
              78.406642,
              17.49668
            ],
            [
              78.404644,
              17.493044
            ],
            [
              78.408955,
              17.489327
            ],
            [
              78.416469,
              17.481664
            ],
            [
              78.425918,
              17.474487
            ]
          ]
        ]
      }
    }
  ]
}