{
  "type": "FeatureCollection",
  "features": [
    {
      "type": "Feature",
      "properties": {},
      "geometry": {
        "type": "Polygon",
        "coordinates": [
          [
            [
              78.377525,
              17.497971
            ],
            [
              78.37779,
              17.497507
            ],
            [
              78.380868,
              17.49894
            ],
            [
              78.382827,
              17.499522
            ],
            [
              78.391347,
              17.498154
            ],
            [
              78.391629,
              17.499354
            ],
            [
              78.389506,
              17.505732
            ],
            [
              78.389833,
              17.508822
            ],
            [
              78.390016,
              17.511368
            ],
            [
              78.390773,
              17.513434
            ],
            [
              78.388348,
              17.51436
            ],
            [
              78.38923,
              17.51894
            ],
            [
              78.387093,
              17.521371
            ],
            [
              78.38733,
              17.524282
            ],
            [
              78.386686,
              17.526627
            ],
            [
              78.385102,
              17.528773
            ],
            [
              78.378511,
              17.535225
            ],
            [
              78.374051,
              17.531061
            ],
            [
              78.375195,
              17.523232
            ],
            [
              78.368948,
              17.520263
            ],
            [
              78.37245,
              17.515376
            ],
            [
              78.373871,
              17.511664
            ],
            [
              78.372992,
              17.509417
            ],
            [
              78.376844,
              17.507962
            ],
            [
              78.37719,
              17.506823
            ],
            [
              78.376166,
              17.500495
            ],
            [
              78.377525,
              17.497971
            ]
          ]
        ]
      }
    }
  ]
}