{
  "type": "FeatureCollection",
  "features": [
    {
      "type": "Feature",
      "properties": {},
      "geometry": {
        "type": "Polygon",
        "coordinates": [
          [
            [
              78.339597,
              17.529815
            ],
            [
              78.332189,
              17.516019
            ],
            [
              78.334597,
              17.508859
            ],
            [
              78.344936,
              17.508227
            ],
            [
              78.349877,
              17.501338
            ],
            [
              78.351677,
              17.497264
            ],
            [
              78.351013,
              17.494271
            ],
            [
              78.354247,
              17.494452
            ],
            [
              78.356435,
              17.492005
            ],
            [
              78.354058,
              17.489829
            ],
            [
              78.354533,
              17.489285
            ],
            [
              78.357291,
              17.486475
            ],
            [
              78.359858,
              17.484755
            ],
            [
              78.360618,
              17.483758
            ],
            [
              78.363659,
              17.483216
            ],
            [
              78.364592,
              17.489189
            ],
            [
              78.361838,
              17.496649
            ],
            [
              78.373998,
              17.496579
            ],
            [
              78.377663,
              17.497486
            ],
            [
              78.376055,
              17.500414
            ],
            [
              78.377078,
              17.50667
            ],
            [
              78.367269,
              17.507864
            ],
            [
              78.364134,
              17.506958
            ],
            [
              78.362424,
              17.506324
            ],
            [
              78.362044,
              17.509948
            ],
            [
              78.360903,
              17.512396
            ],
            [
              78.351679,
              17.516752
            ],
            [
              78.34806,
              17.520202
            ],
            [
              78.34626,
              17.529717
            ],
            [
              78.339597,
              17.529815
            ]
          ]
        ]
      }
    }
  ]
}