{
  "type": "FeatureCollection",
  "features": [
    {
      "type": "Feature",
      "properties": {},
      "geometry": {
        "type": "Polygon",
        "coordinates": [
          [
            [
              78.355845,
              17.518965
            ],
            [
              78.350487,
              17.518965
            ],
            [
              78.343493,
              17.520168
            ],
            [
              78.343446,
              17.518156
            ],
            [
              78.342637,
              17.516295
            ],
            [
              78.340474,
              17.512522
            ],
            [
              78.339773,
              17.508626
            ],
            [
              78.34241,
              17.503906
            ],
            [
              78.342383,
              17.499303
            ],
            [
              78.343301,
              17.495872
            ],
            [
              78.348455,
              17.494154
            ],
            [
              78.348347,
              17.489029
            ],
            [
              78.354972,
              17.486431
            ],
            [
              78.360449,
              17.484269
            ],
            [
              78.366443,
              17.483424
            ],
            [
              78.374849,
              17.491972
            ],
            [
              78.378318,
              17.497032
            ],
            [
              78.377352,
              17.506607
            ],
            [
              78.374469,
              17.512396
            ],
            [
              78.37353,
              17.515555
            ],
            [
              78.36972,
              17.514785
            ],
            [
              78.361434,
              17.511727
            ],
            [
              78.356094,
              17.518475
            ],
            [
              78.355845,
              17.518965
            ]
          ]
        ]
      }
    }
  ]
}