{
  "type": "FeatureCollection",
  "features": [
    {
      "type": "Feature",
      "properties": {},
      "geometry": {
        "type": "Polygon",
        "coordinates": [
          [
            [
              78.19064,
              17.555559
            ],
            [
              78.190007,
              17.536968
            ],
            [
              78.210588,
              17.530243
            ],
            [
              78.235448,
              17.520871
            ],
            [
              78.265206,
              17.495076
            ],
            [
              78.280472,
              17.492493
            ],
            [
              78.281644,
              17.509429
            ],
            [
              78.284015,
              17.514964
            ],
            [
              78.289869,
              17.51318
            ],
            [
              78.295399,
              17.511269
            ],
            [
              78.297842,
              17.510291
            ],
            [
              78.300441,
              17.509288
            ],
            [
              78.300816,
              17.509995
            ],
            [
              78.301241,
              17.511118
            ],
            [
              78.301707,
              17.512046
            ],
            [
              78.301805,
              17.512805
            ],
            [
              78.300907,
              17.513647
            ],
            [
              78.299671,
              17.517021
            ],
            [
              78.299573,
              17.520684
            ],
            [
              78.298525,
              17.524389
            ],
            [
              78.298113,
              17.533916
            ],
            [
              78.281525,
              17.535847
            ],
            [
              78.260366,
              17.543795
            ],
            [
              78.253717,
              17.543914
            ],
            [
              78.246201,
              17.54226
            ],
            [
              78.237871,
              17.541921
            ],
            [
              78.230951,
              17.547507
            ],
            [
              78.229617,
              17.549396
            ],
            [
              78.225068,
              17.549861
            ],
            [
              78.218532,
              17.553683
            ],
            [
              78.21667,
              17.557593
            ],
            [
              78.210629,
              17.563968
            ],
            [
              78.194121,
              17.570404
            ],
            [
              78.193296,
              17.566213
            ],
            [
              78.19064,
              17.555559
            ]
          ]
        ]
      }
    }
  ]
}