{
  "type": "FeatureCollection",
  "features": [
    {
      "type": "Feature",
      "properties": {},
      "geometry": {
        "type": "Polygon",
        "coordinates": [
          [
            [
              78.505316,
              17.423038
            ],
            [
              78.507915,
              17.418079
            ],
            [
              78.509559,
              17.414801
            ],
            [
              78.50434,
              17.403998
            ],
            [
              78.501149,
              17.404739
            ],
            [
              78.496261,
              17.405707
            ],
            [
              78.490362,
              17.395475
            ],
            [
              78.49672,
              17.392254
            ],
            [
              78.506459,
              17.391009
            ],
            [
              78.526829,
              17.39609
            ],
            [
              78.522002,
              17.403644
            ],
            [
              78.520434,
              17.414034
            ],
            [
              78.537532,
              17.433461
            ],
            [
              78.520111,
              17.439192
            ],
            [
              78.51551,
              17.438095
            ],
            [
              78.51295,
              17.434844
            ],
            [
              78.505316,
              17.423038
            ]
          ]
        ]
      }
    }
  ]
}