{
  "type": "FeatureCollection",
  "features": [
    {
      "type": "Feature",
      "properties": {},
      "geometry": {
        "type": "Polygon",
        "coordinates": [
          [
            [
              78.329072,
              17.471801
            ],
            [
              78.330283,
              17.472757
            ],
            [
              78.333126,
              17.477095
            ],
            [
              78.336041,
              17.481298
            ],
            [
              78.335613,
              17.487739
            ],
            [
              78.332061,
              17.486858
            ],
            [
              78.326151,
              17.486714
            ],
            [
              78.323957,
              17.486043
            ],
            [
              78.320829,
              17.488891
            ],
            [
              78.31713,
              17.494995
            ],
            [
              78.316134,
              17.494792
            ],
            [
              78.314002,
              17.490179
            ],
            [
              78.311443,
              17.482108
            ],
            [
              78.313363,
              17.480277
            ],
            [
              78.315638,
              17.472817
            ],
            [
              78.329072,
              17.471801
            ]
          ]
        ]
      }
    }
  ]
}