{
  "type": "FeatureCollection",
  "features": [
    {
      "type": "Feature",
      "properties": {},
      "geometry": {
        "type": "Polygon",
        "coordinates": [
          [
            [
              78.330915,
              17.426643
            ],
            [
              78.33467,
              17.42909
            ],
            [
              78.313027,
              17.45074
            ],
            [
              78.314973,
              17.46523
            ],
            [
              78.315004,
              17.473039
            ],
            [
              78.313013,
              17.479445
            ],
            [
              78.311402,
              17.480893
            ],
            [
              78.30592,
              17.480506
            ],
            [
              78.303635,
              17.479925
            ],
            [
              78.297646,
              17.477891
            ],
            [
              78.296164,
              17.455759
            ],
            [
              78.299028,
              17.444997
            ],
            [
              78.311213,
              17.431077
            ],
            [
              78.322494,
              17.423603
            ],
            [
              78.330915,
              17.426643
            ]
          ]
        ]
      }
    }
  ]
}