{
  "type": "FeatureCollection",
  "features": [
    {
      "type": "Feature",
      "properties": {},
      "geometry": {
        "type": "Polygon",
        "coordinates": [
          [
            [
              78.330833,
              17.486985
            ],
            [
              78.332156,
              17.487129
            ],
            [
              78.339106,
              17.489332
            ],
            [
              78.335862,
              17.490862
            ],
            [
              78.335752,
              17.491605
            ],
            [
              78.335663,
              17.49221
            ],
            [
              78.33553,
              17.493251
            ],
            [
              78.33521,
              17.495366
            ],
            [
              78.333062,
              17.495165
            ],
            [
              78.327919,
              17.494791
            ],
            [
              78.324999,
              17.49496
            ],
            [
              78.321577,
              17.49484
            ],
            [
              78.317193,
              17.494993
            ],
            [
              78.320254,
              17.490012
            ],
            [
              78.320881,
              17.488991
            ],
            [
              78.321796,
              17.488149
            ],
            [
              78.322912,
              17.487099
            ],
            [
              78.324013,
              17.486137
            ],
            [
              78.326073,
              17.486759
            ],
            [
              78.330833,
              17.486985
            ]
          ]
        ]
      }
    }
  ]
}