{
  "type": "FeatureCollection",
  "features": [
    {
      "type": "Feature",
      "properties": {},
      "geometry": {
        "type": "Polygon",
        "coordinates": [
          [
            [
              78.353682,
              17.483079
            ],
            [
              78.355843,
              17.482967
            ],
            [
              78.361978,
              17.482522
            ],
            [
              78.368288,
              17.482355
            ],
            [
              78.368521,
              17.484305
            ],
            [
              78.370273,
              17.490212
            ],
            [
              78.37506,
              17.496452
            ],
            [
              78.372842,
              17.49623
            ],
            [
              78.367819,
              17.496453
            ],
            [
              78.360985,
              17.496342
            ],
            [
              78.3545,
              17.49467
            ],
            [
              78.350469,
              17.493779
            ],
            [
              78.346729,
              17.494392
            ],
            [
              78.342054,
              17.495006
            ],
            [
              78.335333,
              17.495284
            ],
            [
              78.335918,
              17.490881
            ],
            [
              78.340009,
              17.489097
            ],
            [
              78.347897,
              17.483023
            ],
            [
              78.353682,
              17.483079
            ]
          ]
        ]
      }
    }
  ]
}