{
  "type": "FeatureCollection",
  "features": [
    {
      "type": "Feature",
      "properties": {},
      "geometry": {
        "type": "Polygon",
        "coordinates": [
          [
            [
              78.454042,
              17.50793
            ],
            [
              78.455055,
              17.507619
            ],
            [
              78.456008,
              17.507222
            ],
            [
              78.457684,
              17.507213
            ],
            [
              78.459003,
              17.507495
            ],
            [
              78.459716,
              17.507706
            ],
            [
              78.460433,
              17.507783
            ],
            [
              78.461732,
              17.507805
            ],
            [
              78.462771,
              17.507755
            ],
            [
              78.463838,
              17.507749
            ],
            [
              78.464689,
              17.507725
            ],
            [
              78.465906,
              17.506995
            ],
            [
              78.46707,
              17.506053
            ],
            [
              78.467524,
              17.505544
            ],
            [
              78.467719,
              17.50478
            ],
            [
              78.467839,
              17.504374
            ],
            [
              78.467853,
              17.504227
            ],
            [
              78.467971,
              17.504082
            ],
            [
              78.468234,
              17.503895
            ],
            [
              78.468685,
              17.503602
            ],
            [
              78.469013,
              17.503386
            ],
            [
              78.469352,
              17.503196
            ],
            [
              78.470715,
              17.502401
            ],
            [
              78.471978,
              17.501515
            ],
            [
              78.472635,
              17.501072
            ],
            [
              78.473387,
              17.500831
            ],
            [
              78.476515,
              17.499393
            ],
            [
              78.47769,
              17.501399
            ],
            [
              78.478347,
              17.503845
            ],
            [
              78.478965,
              17.511376
            ],
            [
              78.474069,
              17.512911
            ],
            [
              78.471585,
              17.513756
            ],
            [
              78.469288,
              17.513701
            ],
            [
              78.463756,
              17.513302
            ],
            [
              78.45441,
              17.512786
            ],
            [
              78.454042,
              17.50793
            ]
          ]
        ]
      }
    }
  ]
}