{
  "type": "FeatureCollection",
  "features": [
    {
      "type": "Feature",
      "properties": {},
      "geometry": {
        "type": "Polygon",
        "coordinates": [
          [
            [
              78.408522,
              17.517618
            ],
            [
              78.416835,
              17.520185
            ],
            [
              78.423019,
              17.524998
            ],
            [
              78.421742,
              17.530759
            ],
            [
              78.413787,
              17.538815
            ],
            [
              78.401626,
              17.544638
            ],
            [
              78.398064,
              17.541451
            ],
            [
              78.400772,
              17.537259
            ],
            [
              78.401532,
              17.532625
            ],
            [
              78.402847,
              17.526314
            ],
            [
              78.408522,
              17.517618
            ]
          ]
        ]
      }
    }
  ]
}