{
  "type": "FeatureCollection",
  "features": [
    {
      "type": "Feature",
      "properties": {},
      "geometry": {
        "type": "Polygon",
        "coordinates": [
          [
            [
              78.480892,
              17.517326
            ],
            [
              78.481326,
              17.517913
            ],
            [
              78.481687,
              17.518821
            ],
            [
              78.482113,
              17.520662
            ],
            [
              78.482396,
              17.521708
            ],
            [
              78.482635,
              17.522785
            ],
            [
              78.483498,
              17.52483
            ],
            [
              78.484725,
              17.526641
            ],
            [
              78.486986,
              17.530164
            ],
            [
              78.488348,
              17.532329
            ],
            [
              78.489276,
              17.535157
            ],
            [
              78.490712,
              17.540543
            ],
            [
              78.491282,
              17.543399
            ],
            [
              78.492195,
              17.546112
            ],
            [
              78.493629,
              17.551892
            ],
            [
              78.477478,
              17.554794
            ],
            [
              78.468118,
              17.555516
            ],
            [
              78.457414,
              17.550665
            ],
            [
              78.45484,
              17.545321
            ],
            [
              78.464876,
              17.532909
            ],
            [
              78.480892,
              17.517326
            ]
          ]
        ]
      }
    }
  ]
}