{
  "type": "FeatureCollection",
  "features": [
    {
      "type": "Feature",
      "properties": {},
      "geometry": {
        "type": "Polygon",
        "coordinates": [
          [
            [
              78.447884,
              17.512122
            ],
            [
              78.451188,
              17.51285
            ],
            [
              78.461697,
              17.513442
            ],
            [
              78.471588,
              17.513898
            ],
            [
              78.475103,
              17.512769
            ],
            [
              78.476912,
              17.51213
            ],
            [
              78.479022,
              17.511596
            ],
            [
              78.479537,
              17.514395
            ],
            [
              78.480837,
              17.517233
            ],
            [
              78.470185,
              17.527438
            ],
            [
              78.463944,
              17.533347
            ],
            [
              78.458354,
              17.536195
            ],
            [
              78.443348,
              17.53347
            ],
            [
              78.44219,
              17.532305
            ],
            [
              78.441404,
              17.530453
            ],
            [
              78.439888,
              17.526799
            ],
            [
              78.447884,
              17.512122
            ]
          ]
        ]
      }
    }
  ]
}