{
  "type": "FeatureCollection",
  "features": [
    {
      "type": "Feature",
      "properties": {},
      "geometry": {
        "type": "Polygon",
        "coordinates": [
          [
            [
              78.439915,
              17.527264
            ],
            [
              78.443783,
              17.536331
            ],
            [
              78.441145,
              17.550866
            ],
            [
              78.448194,
              17.559576
            ],
            [
              78.449713,
              17.566674
            ],
            [
              78.442225,
              17.571825
            ],
            [
              78.430991,
              17.559935
            ],
            [
              78.419366,
              17.555446
            ],
            [
              78.418986,
              17.547769
            ],
            [
              78.417596,
              17.543953
            ],
            [
              78.425324,
              17.537583
            ],
            [
              78.439915,
              17.527264
            ]
          ]
        ]
      }
    }
  ]
}