{
  "type": "FeatureCollection",
  "features": [
    {
      "type": "Feature",
      "properties": {},
      "geometry": {
        "type": "Polygon",
        "coordinates": [
          [
            [
              78.455352,
              17.47837
            ],
            [
              78.463474,
              17.481169
            ],
            [
              78.472948,
              17.483645
            ],
            [
              78.472832,
              17.486012
            ],
            [
              78.474408,
              17.490315
            ],
            [
              78.476633,
              17.499194
            ],
            [
              78.472766,
              17.500845
            ],
            [
              78.470512,
              17.502358
            ],
            [
              78.469094,
              17.503235
            ],
            [
              78.467792,
              17.504078
            ],
            [
              78.467527,
              17.50497
            ],
            [
              78.467489,
              17.505263
            ],
            [
              78.467357,
              17.505558
            ],
            [
              78.466815,
              17.50614
            ],
            [
              78.46651,
              17.50644
            ],
            [
              78.465871,
              17.506858
            ],
            [
              78.464824,
              17.507534
            ],
            [
              78.464738,
              17.507593
            ],
            [
              78.464658,
              17.507602
            ],
            [
              78.464557,
              17.507626
            ],
            [
              78.464269,
              17.507632
            ],
            [
              78.463383,
              17.507648
            ],
            [
              78.46251,
              17.507663
            ],
            [
              78.46113,
              17.50773
            ],
            [
              78.460587,
              17.507709
            ],
            [
              78.460174,
              17.507687
            ],
            [
              78.459886,
              17.507667
            ],
            [
              78.459734,
              17.507645
            ],
            [
              78.459559,
              17.507468
            ],
            [
              78.459379,
              17.507449
            ],
            [
              78.458944,
              17.507341
            ],
            [
              78.458098,
              17.507186
            ],
            [
              78.455999,
              17.507145
            ],
            [
              78.454039,
              17.507771
            ],
            [
              78.452988,
              17.500127
            ],
            [
              78.451969,
              17.498928
            ],
            [
              78.452077,
              17.497309
            ],
            [
              78.450386,
              17.489455
            ],
            [
              78.449257,
              17.481924
            ],
            [
              78.455352,
              17.47837
            ]
          ]
        ]
      }
    }
  ]
}