{
  "type": "FeatureCollection",
  "features": [
    {
      "type": "Feature",
      "properties": {},
      "geometry": {
        "type": "Polygon",
        "coordinates": [
          [
            [
              78.484845,
              17.432619
            ],
            [
              78.486121,
              17.426087
            ],
            [
              78.489712,
              17.425895
            ],
            [
              78.498975,
              17.421444
            ],
            [
              78.500451,
              17.421092
            ],
            [
              78.501257,
              17.425222
            ],
            [
              78.501928,
              17.428841
            ],
            [
              78.501525,
              17.429833
            ],
            [
              78.502029,
              17.431818
            ],
            [
              78.489947,
              17.431498
            ],
            [
              78.484845,
              17.432619
            ]
          ]
        ]
      }
    }
  ]
}