{
  "type": "FeatureCollection",
  "features": [
    {
      "type": "Feature",
      "properties": {},
      "geometry": {
        "type": "Polygon",
        "coordinates": [
          [
            [
              78.48897,
              17.43269
            ],
            [
              78.489684,
              17.431829
            ],
            [
              78.504998,
              17.432044
            ],
            [
              78.5056,
              17.434665
            ],
            [
              78.512372,
              17.436352
            ],
            [
              78.510528,
              17.438326
            ],
            [
              78.502702,
              17.442849
            ],
            [
              78.488405,
              17.443423
            ],
            [
              78.48897,
              17.43269
            ]
          ]
        ]
      }
    }
  ]
}