{
  "type": "FeatureCollection",
  "features": [
    {
      "type": "Feature",
      "properties": {},
      "geometry": {
        "type": "Polygon",
        "coordinates": [
          [
            [
              78.475016,
              17.400908
            ],
            [
              78.475721,
              17.395157
            ],
            [
              78.47054,
              17.395157
            ],
            [
              78.470504,
              17.390616
            ],
            [
              78.475122,
              17.383754
            ],
            [
              78.478506,
              17.385402
            ],
            [
              78.490278,
              17.38409
            ],
            [
              78.493309,
              17.384662
            ],
            [
              78.497538,
              17.388286
            ],
            [
              78.496094,
              17.389472
            ],
            [
              78.495847,
              17.391759
            ],
            [
              78.496587,
              17.396098
            ],
            [
              78.494367,
              17.39815
            ],
            [
              78.494261,
              17.39889
            ],
            [
              78.490595,
              17.395358
            ],
            [
              78.488128,
              17.395358
            ],
            [
              78.48552,
              17.394551
            ],
            [
              78.481325,
              17.397948
            ],
            [
              78.475016,
              17.400908
            ]
          ]
        ]
      }
    }
  ]
}