{
  "type": "FeatureCollection",
  "features": [
    {
      "type": "Feature",
      "properties": {},
      "geometry": {
        "type": "Polygon",
        "coordinates": [
          [
            [
              78.48502,
              17.457178
            ],
            [
              78.485623,
              17.455195
            ],
            [
              78.486553,
              17.452221
            ],
            [
              78.494867,
              17.447994
            ],
            [
              78.49629,
              17.454413
            ],
            [
              78.499681,
              17.454413
            ],
            [
              78.515651,
              17.459893
            ],
            [
              78.530531,
              17.463388
            ],
            [
              78.527629,
              17.47617
            ],
            [
              78.526316,
              17.476275
            ],
            [
              78.520901,
              17.478987
            ],
            [
              78.5174,
              17.479404
            ],
            [
              78.516033,
              17.482847
            ],
            [
              78.511658,
              17.484151
            ],
            [
              78.509744,
              17.47064
            ],
            [
              78.492624,
              17.469806
            ],
            [
              78.49246,
              17.472728
            ],
            [
              78.486115,
              17.475545
            ],
            [
              78.481629,
              17.468554
            ],
            [
              78.48502,
              17.457178
            ]
          ]
        ]
      }
    }
  ]
}