{
  "type": "FeatureCollection",
  "features": [
    {
      "type": "Feature",
      "properties": {},
      "geometry": {
        "type": "Polygon",
        "coordinates": [
          [
            [
              78.563452,
              17.477362
            ],
            [
              78.563746,
              17.480117
            ],
            [
              78.564117,
              17.481758
            ],
            [
              78.564874,
              17.4833
            ],
            [
              78.565493,
              17.484415
            ],
            [
              78.565992,
              17.485498
            ],
            [
              78.566937,
              17.48781
            ],
            [
              78.568869,
              17.489039
            ],
            [
              78.570497,
              17.489485
            ],
            [
              78.571897,
              17.489969
            ],
            [
              78.575943,
              17.49276
            ],
            [
              78.577317,
              17.49376
            ],
            [
              78.578791,
              17.495593
            ],
            [
              78.581865,
              17.498203
            ],
            [
              78.583491,
              17.499275
            ],
            [
              78.585337,
              17.500169
            ],
            [
              78.587513,
              17.501145
            ],
            [
              78.588871,
              17.501956
            ],
            [
              78.570372,
              17.51553
            ],
            [
              78.556511,
              17.5135
            ],
            [
              78.552546,
              17.48799
            ],
            [
              78.550033,
              17.489726
            ],
            [
              78.54727,
              17.485415
            ],
            [
              78.552243,
              17.482637
            ],
            [
              78.563452,
              17.477362
            ]
          ]
        ]
      }
    }
  ]
}