{
  "type": "FeatureCollection",
  "features": [
    {
      "type": "Feature",
      "properties": {},
      "geometry": {
        "type": "Polygon",
        "coordinates": [
          [
            [
              78.404731,
              17.499365
            ],
            [
              78.405901,
              17.49932
            ],
            [
              78.408346,
              17.499365
            ],
            [
              78.408868,
              17.500325
            ],
            [
              78.407948,
              17.503493
            ],
            [
              78.407532,
              17.506913
            ],
            [
              78.403162,
              17.507407
            ],
            [
              78.402567,
              17.508068
            ],
            [
              78.402529,
              17.508995
            ],
            [
              78.40221,
              17.511939
            ],
            [
              78.402449,
              17.514817
            ],
            [
              78.406534,
              17.52142
            ],
            [
              78.404195,
              17.5265
            ],
            [
              78.402896,
              17.530576
            ],
            [
              78.401305,
              17.533208
            ],
            [
              78.400785,
              17.535778
            ],
            [
              78.398966,
              17.539742
            ],
            [
              78.397537,
              17.541167
            ],
            [
              78.396368,
              17.540548
            ],
            [
              78.393477,
              17.540393
            ],
            [
              78.388599,
              17.540834
            ],
            [
              78.387453,
              17.533879
            ],
            [
              78.383215,
              17.528669
            ],
            [
              78.384777,
              17.524719
            ],
            [
              78.387412,
              17.518151
            ],
            [
              78.387931,
              17.51569
            ],
            [
              78.388162,
              17.5137
            ],
            [
              78.388939,
              17.507756
            ],
            [
              78.38985,
              17.500824
            ],
            [
              78.3901,
              17.498748
            ],
            [
              78.391626,
              17.498143
            ],
            [
              78.393346,
              17.497125
            ],
            [
              78.395265,
              17.496402
            ],
            [
              78.397355,
              17.495875
            ],
            [
              78.399644,
              17.494778
            ],
            [
              78.401882,
              17.498592
            ],
            [
              78.401922,
              17.49936
            ],
            [
              78.403557,
              17.499376
            ],
            [
              78.404731,
              17.499365
            ]
          ]
        ]
      }
    }
  ]
}