{
  "type": "FeatureCollection",
  "features": [
    {
      "type": "Feature",
      "properties": {},
      "geometry": {
        "type": "Polygon",
        "coordinates": [
          [
            [
              78.412788,
              17.479988
            ],
            [
              78.415235,
              17.480167
            ],
            [
              78.417139,
              17.480952
            ],
            [
              78.419194,
              17.479055
            ],
            [
              78.420342,
              17.478338
            ],
            [
              78.421974,
              17.477101
            ],
            [
              78.426235,
              17.47486
            ],
            [
              78.426824,
              17.480628
            ],
            [
              78.422729,
              17.48167
            ],
            [
              78.420613,
              17.489581
            ],
            [
              78.419843,
              17.502463
            ],
            [
              78.41691,
              17.500813
            ],
            [
              78.415402,
              17.500045
            ],
            [
              78.413737,
              17.499326
            ],
            [
              78.412457,
              17.498787
            ],
            [
              78.410247,
              17.498193
            ],
            [
              78.40935,
              17.497938
            ],
            [
              78.406712,
              17.496838
            ],
            [
              78.404131,
              17.495613
            ],
            [
              78.401086,
              17.49426
            ],
            [
              78.403736,
              17.492958
            ],
            [
              78.405591,
              17.492048
            ],
            [
              78.407463,
              17.490849
            ],
            [
              78.404901,
              17.486992
            ],
            [
              78.40401,
              17.483735
            ],
            [
              78.407855,
              17.480205
            ],
            [
              78.411681,
              17.480169
            ],
            [
              78.412788,
              17.479988
            ]
          ]
        ]
      }
    }
  ]
}