{
  "type": "FeatureCollection",
  "features": [
    {
      "type": "Feature",
      "properties": {},
      "geometry": {
        "type": "Polygon",
        "coordinates": [
          [
            [
              78.356367,
              17.459585
            ],
            [
              78.347941,
              17.449524
            ],
            [
              78.351434,
              17.445644
            ],
            [
              78.349021,
              17.439381
            ],
            [
              78.365837,
              17.428468
            ],
            [
              78.370693,
              17.427985
            ],
            [
              78.374482,
              17.428466
            ],
            [
              78.375768,
              17.430512
            ],
            [
              78.375122,
              17.437266
            ],
            [
              78.37693,
              17.439736
            ],
            [
              78.376977,
              17.446736
            ],
            [
              78.374263,
              17.448301
            ],
            [
              78.370338,
              17.452114
            ],
            [
              78.373908,
              17.457503
            ],
            [
              78.366482,
              17.458861
            ],
            [
              78.363486,
              17.455519
            ],
            [
              78.356367,
              17.459585
            ]
          ]
        ]
      }
    }
  ]
}