{
  "type": "FeatureCollection",
  "features": [
    {
      "type": "Feature",
      "properties": {},
      "geometry": {
        "type": "Polygon",
        "coordinates": [
          [
            [
              78.313495,
              17.482131
            ],
            [
              78.315022,
              17.473241
            ],
            [
              78.316622,
              17.449481
            ],
            [
              78.348156,
              17.449877
            ],
            [
              78.359097,
              17.463004
            ],
            [
              78.349011,
              17.468239
            ],
            [
              78.34927,
              17.47566
            ],
            [
              78.349706,
              17.477597
            ],
            [
              78.349738,
              17.482693
            ],
            [
              78.348396,
              17.482713
            ],
            [
              78.34596,
              17.483464
            ],
            [
              78.342149,
              17.486857
            ],
            [
              78.339415,
              17.488678
            ],
            [
              78.338189,
              17.488873
            ],
            [
              78.335635,
              17.488101
            ],
            [
              78.330638,
              17.486779
            ],
            [
              78.325852,
              17.486857
            ],
            [
              78.313495,
              17.482131
            ]
          ]
        ]
      }
    }
  ]
}