{
  "type": "FeatureCollection",
  "features": [
    {
      "type": "Feature",
      "properties": {},
      "geometry": {
        "type": "Polygon",
        "coordinates": [
          [
            [
              78.535921,
              17.368448
            ],
            [
              78.537656,
              17.368411
            ],
            [
              78.538694,
              17.368603
            ],
            [
              78.539649,
              17.370001
            ],
            [
              78.541506,
              17.371382
            ],
            [
              78.542644,
              17.375791
            ],
            [
              78.540846,
              17.382556
            ],
            [
              78.532875,
              17.377586
            ],
            [
              78.529192,
              17.375637
            ],
            [
              78.525844,
              17.37602
            ],
            [
              78.516538,
              17.379343
            ],
            [
              78.515499,
              17.377857
            ],
            [
              78.514842,
              17.37699
            ],
            [
              78.514764,
              17.375989
            ],
            [
              78.515006,
              17.370001
            ],
            [
              78.519652,
              17.368796
            ],
            [
              78.524338,
              17.36864
            ],
            [
              78.535921,
              17.368448
            ]
          ]
        ]
      }
    }
  ]
}