{
  "type": "FeatureCollection",
  "features": [
    {
      "type": "Feature",
      "properties": {},
      "geometry": {
        "type": "Polygon",
        "coordinates": [
          [
            [
              78.538324,
              17.299039
            ],
            [
              78.538185,
              17.301557
            ],
            [
              78.538145,
              17.305287
            ],
            [
              78.537946,
              17.312291
            ],
            [
              78.535753,
              17.315945
            ],
            [
              78.530849,
              17.316593
            ],
            [
              78.529692,
              17.316402
            ],
            [
              78.528028,
              17.314952
            ],
            [
              78.527997,
              17.310379
            ],
            [
              78.527685,
              17.306925
            ],
            [
              78.530203,
              17.304404
            ],
            [
              78.533657,
              17.301062
            ],
            [
              78.538324,
              17.299039
            ]
          ]
        ]
      }
    }
  ]
}