{
  "type": "FeatureCollection",
  "features": [
    {
      "type": "Feature",
      "properties": {},
      "geometry": {
        "type": "Polygon",
        "coordinates": [
          [
            [
              78.53616,
              17.33758
            ],
            [
              78.536907,
              17.335776
            ],
            [
              78.537786,
              17.333889
            ],
            [
              78.537918,
              17.33217
            ],
            [
              78.539236,
              17.331876
            ],
            [
              78.540431,
              17.330559
            ],
            [
              78.541718,
              17.329363
            ],
            [
              78.544079,
              17.327931
            ],
            [
              78.544786,
              17.327635
            ],
            [
              78.545683,
              17.327223
            ],
            [
              78.547665,
              17.327042
            ],
            [
              78.548217,
              17.326762
            ],
            [
              78.55132,
              17.32561
            ],
            [
              78.552704,
              17.325173
            ],
            [
              78.554428,
              17.324086
            ],
            [
              78.556273,
              17.323362
            ],
            [
              78.560014,
              17.321832
            ],
            [
              78.562264,
              17.325775
            ],
            [
              78.560401,
              17.329552
            ],
            [
              78.56278,
              17.33434
            ],
            [
              78.561056,
              17.340812
            ],
            [
              78.558776,
              17.341462
            ],
            [
              78.557197,
              17.342126
            ],
            [
              78.554505,
              17.344121
            ],
            [
              78.550651,
              17.346602
            ],
            [
              78.546659,
              17.342392
            ],
            [
              78.541459,
              17.338094
            ],
            [
              78.53616,
              17.33758
            ]
          ]
        ]
      }
    }
  ]
}