{
  "type": "FeatureCollection",
  "features": [
    {
      "type": "Feature",
      "properties": {},
      "geometry": {
        "type": "Polygon",
        "coordinates": [
          [
            [
              78.535941,
              17.315959
            ],
            [
              78.53808,
              17.312333
            ],
            [
              78.538152,
              17.312012
            ],
            [
              78.538273,
              17.30795
            ],
            [
              78.538449,
              17.298996
            ],
            [
              78.544445,
              17.296192
            ],
            [
              78.543317,
              17.28814
            ],
            [
              78.545852,
              17.285935
            ],
            [
              78.559584,
              17.286205
            ],
            [
              78.587162,
              17.283388
            ],
            [
              78.586368,
              17.29482
            ],
            [
              78.580239,
              17.307335
            ],
            [
              78.571614,
              17.310044
            ],
            [
              78.562932,
              17.311452
            ],
            [
              78.535941,
              17.315959
            ]
          ]
        ]
      }
    }
  ]
}