{
  "type": "FeatureCollection",
  "features": [
    {
      "type": "Feature",
      "properties": {},
      "geometry": {
        "type": "Polygon",
        "coordinates": [
          [
            [
              78.540922,
              17.382932
            ],
            [
              78.542463,
              17.377031
            ],
            [
              78.542833,
              17.375972
            ],
            [
              78.541615,
              17.371203
            ],
            [
              78.540403,
              17.370368
            ],
            [
              78.539562,
              17.369501
            ],
            [
              78.538654,
              17.368281
            ],
            [
              78.541221,
              17.367089
            ],
            [
              78.5439,
              17.36361
            ],
            [
              78.546429,
              17.35239
            ],
            [
              78.548066,
              17.349833
            ],
            [
              78.550819,
              17.346596
            ],
            [
              78.554093,
              17.350685
            ],
            [
              78.555173,
              17.352033
            ],
            [
              78.555729,
              17.353668
            ],
            [
              78.55692,
              17.357361
            ],
            [
              78.557589,
              17.360627
            ],
            [
              78.557069,
              17.364249
            ],
            [
              78.557009,
              17.367581
            ],
            [
              78.558177,
              17.382967
            ],
            [
              78.551265,
              17.380367
            ],
            [
              78.546504,
              17.383066
            ],
            [
              78.540922,
              17.382932
            ]
          ]
        ]
      }
    }
  ]
}