{
  "type": "FeatureCollection",
  "features": [
    {
      "type": "Feature",
      "properties": {},
      "geometry": {
        "type": "Polygon",
        "coordinates": [
          [
            [
              78.527918,
              17.322855
            ],
            [
              78.528047,
              17.322439
            ],
            [
              78.528136,
              17.322253
            ],
            [
              78.528239,
              17.322073
            ],
            [
              78.528752,
              17.321455
            ],
            [
              78.528942,
              17.321112
            ],
            [
              78.529091,
              17.320726
            ],
            [
              78.529276,
              17.320073
            ],
            [
              78.529382,
              17.319944
            ],
            [
              78.52954,
              17.319758
            ],
            [
              78.529825,
              17.319442
            ],
            [
              78.52999,
              17.31928
            ],
            [
              78.530479,
              17.318849
            ],
            [
              78.530642,
              17.318788
            ],
            [
              78.530823,
              17.318744
            ],
            [
              78.531073,
              17.318732
            ],
            [
              78.531293,
              17.3187
            ],
            [
              78.531182,
              17.318659
            ],
            [
              78.530554,
              17.317922
            ],
            [
              78.529837,
              17.317117
            ],
            [
              78.532843,
              17.31664
            ],
            [
              78.536291,
              17.316164
            ],
            [
              78.539095,
              17.315812
            ],
            [
              78.540994,
              17.315601
            ],
            [
              78.541234,
              17.317714
            ],
            [
              78.541603,
              17.321112
            ],
            [
              78.540072,
              17.321904
            ],
            [
              78.539814,
              17.321534
            ],
            [
              78.539205,
              17.321429
            ],
            [
              78.538228,
              17.321939
            ],
            [
              78.536623,
              17.322344
            ],
            [
              78.535756,
              17.322344
            ],
            [
              78.534945,
              17.32208
            ],
            [
              78.533783,
              17.322115
            ],
            [
              78.531164,
              17.322661
            ],
            [
              78.529873,
              17.322679
            ],
            [
              78.527918,
              17.322855
            ]
          ]
        ]
      }
    }
  ]
}