{
  "type": "FeatureCollection",
  "features": [
    {
      "type": "Feature",
      "properties": {},
      "geometry": {
        "type": "Polygon",
        "coordinates": [
          [
            [
              78.538109,
              17.331841
            ],
            [
              78.538402,
              17.321908
            ],
            [
              78.53923,
              17.321461
            ],
            [
              78.539803,
              17.321554
            ],
            [
              78.540065,
              17.321942
            ],
            [
              78.540969,
              17.321504
            ],
            [
              78.541717,
              17.321116
            ],
            [
              78.541666,
              17.320892
            ],
            [
              78.541085,
              17.315464
            ],
            [
              78.571427,
              17.31036
            ],
            [
              78.570983,
              17.321455
            ],
            [
              78.56427,
              17.321814
            ],
            [
              78.563627,
              17.32302
            ],
            [
              78.562962,
              17.32431
            ],
            [
              78.562298,
              17.325601
            ],
            [
              78.560059,
              17.321667
            ],
            [
              78.557637,
              17.32265
            ],
            [
              78.554186,
              17.324066
            ],
            [
              78.551037,
              17.325598
            ],
            [
              78.548918,
              17.326349
            ],
            [
              78.547555,
              17.326927
            ],
            [
              78.54592,
              17.327014
            ],
            [
              78.544164,
              17.327766
            ],
            [
              78.541682,
              17.329211
            ],
            [
              78.540562,
              17.33028
            ],
            [
              78.539411,
              17.331436
            ],
            [
              78.538109,
              17.331841
            ]
          ]
        ]
      }
    }
  ]
}