{
  "type": "FeatureCollection",
  "features": [
    {
      "type": "Feature",
      "properties": {},
      "geometry": {
        "type": "Polygon",
        "coordinates": [
          [
            [
              78.573476,
              17.336804
            ],
            [
              78.574887,
              17.332901
            ],
            [
              78.574389,
              17.33036
            ],
            [
              78.574016,
              17.328101
            ],
            [
              78.572744,
              17.326549
            ],
            [
              78.571218,
              17.324686
            ],
            [
              78.571312,
              17.323963
            ],
            [
              78.571436,
              17.323157
            ],
            [
              78.57061,
              17.321572
            ],
            [
              78.572991,
              17.322747
            ],
            [
              78.574419,
              17.321859
            ],
            [
              78.576275,
              17.321623
            ],
            [
              78.579017,
              17.321532
            ],
            [
              78.590088,
              17.32193
            ],
            [
              78.595548,
              17.322509
            ],
            [
              78.593907,
              17.330141
            ],
            [
              78.586259,
              17.334373
            ],
            [
              78.582867,
              17.335538
            ],
            [
              78.577451,
              17.336248
            ],
            [
              78.573476,
              17.336804
            ]
          ]
        ]
      }
    }
  ]
}