{
  "type": "FeatureCollection",
  "features": [
    {
      "type": "Feature",
      "properties": {},
      "geometry": {
        "type": "Polygon",
        "coordinates": [
          [
            [
              78.504823,
              17.30553
            ],
            [
              78.520461,
              17.275354
            ],
            [
              78.541653,
              17.269267
            ],
            [
              78.545957,
              17.274209
            ],
            [
              78.545303,
              17.286122
            ],
            [
              78.543123,
              17.288032
            ],
            [
              78.544235,
              17.296161
            ],
            [
              78.533528,
              17.300967
            ],
            [
              78.527472,
              17.306811
            ],
            [
              78.527789,
              17.310098
            ],
            [
              78.527866,
              17.314992
            ],
            [
              78.523388,
              17.310176
            ],
            [
              78.512203,
              17.308422
            ],
            [
              78.504823,
              17.30553
            ]
          ]
        ]
      }
    }
  ]
}