{
  "type": "FeatureCollection",
  "features": [
    {
      "type": "Feature",
      "properties": {},
      "geometry": {
        "type": "Polygon",
        "coordinates": [
          [
            [
              78.43271,
              17.444606
            ],
            [
              78.431805,
              17.43767
            ],
            [
              78.436856,
              17.433799
            ],
            [
              78.439338,
              17.430345
            ],
            [
              78.442841,
              17.430205
            ],
            [
              78.448126,
              17.429732
            ],
            [
              78.449732,
              17.430066
            ],
            [
              78.448943,
              17.430595
            ],
            [
              78.444476,
              17.435498
            ],
            [
              78.44106,
              17.442378
            ],
            [
              78.439805,
              17.442183
            ],
            [
              78.43271,
              17.444606
            ]
          ]
        ]
      }
    }
  ]
}