{
  "type": "FeatureCollection",
  "features": [
    {
      "type": "Feature",
      "properties": {},
      "geometry": {
        "type": "Polygon",
        "coordinates": [
          [
            [
              78.53197,
              17.460956
            ],
            [
              78.528813,
              17.458457
            ],
            [
              78.525758,
              17.455762
            ],
            [
              78.524822,
              17.452987
            ],
            [
              78.523907,
              17.45031
            ],
            [
              78.522981,
              17.446001
            ],
            [
              78.521486,
              17.441805
            ],
            [
              78.525623,
              17.439797
            ],
            [
              78.529773,
              17.439136
            ],
            [
              78.542691,
              17.434846
            ],
            [
              78.544997,
              17.440014
            ],
            [
              78.552723,
              17.450725
            ],
            [
              78.557861,
              17.45991
            ],
            [
              78.563863,
              17.467927
            ],
            [
              78.570654,
              17.473493
            ],
            [
              78.568815,
              17.474072
            ],
            [
              78.567878,
              17.475581
            ],
            [
              78.566452,
              17.476565
            ],
            [
              78.564255,
              17.476846
            ],
            [
              78.562423,
              17.477488
            ],
            [
              78.555752,
              17.480747
            ],
            [
              78.548907,
              17.484002
            ],
            [
              78.544363,
              17.483362
            ],
            [
              78.54004,
              17.483079
            ],
            [
              78.536747,
              17.481789
            ],
            [
              78.533806,
              17.480353
            ],
            [
              78.531827,
              17.478825
            ],
            [
              78.528321,
              17.476975
            ],
            [
              78.53197,
              17.460956
            ]
          ]
        ]
      }
    }
  ]
}