{
  "type": "FeatureCollection",
  "features": [
    {
      "type": "Feature",
      "properties": {},
      "geometry": {
        "type": "Polygon",
        "coordinates": [
          [
            [
              78.451189,
              17.464824
            ],
            [
              78.448137,
              17.46584
            ],
            [
              78.446742,
              17.463064
            ],
            [
              78.44764,
              17.46083
            ],
            [
              78.449556,
              17.458529
            ],
            [
              78.451171,
              17.457566
            ],
            [
              78.451977,
              17.457198
            ],
            [
              78.45262,
              17.457101
            ],
            [
              78.454169,
              17.456836
            ],
            [
              78.454505,
              17.457463
            ],
            [
              78.454476,
              17.457852
            ],
            [
              78.45644,
              17.461778
            ],
            [
              78.463441,
              17.462839
            ],
            [
              78.463938,
              17.464395
            ],
            [
              78.463749,
              17.469698
            ],
            [
              78.461525,
              17.471706
            ],
            [
              78.460532,
              17.472405
            ],
            [
              78.456061,
              17.472496
            ],
            [
              78.455943,
              17.469788
            ],
            [
              78.453459,
              17.467013
            ],
            [
              78.451189,
              17.464824
            ]
          ]
        ]
      }
    }
  ]
}