{
  "type": "FeatureCollection",
  "features": [
    {
      "type": "Feature",
      "properties": {},
      "geometry": {
        "type": "Polygon",
        "coordinates": [
          [
            [
              78.42028,
              17.454154
            ],
            [
              78.421513,
              17.450172
            ],
            [
              78.421871,
              17.44909
            ],
            [
              78.421604,
              17.447827
            ],
            [
              78.421606,
              17.447679
            ],
            [
              78.421797,
              17.44755
            ],
            [
              78.422369,
              17.447323
            ],
            [
              78.423295,
              17.446927
            ],
            [
              78.424485,
              17.443931
            ],
            [
              78.425581,
              17.443722
            ],
            [
              78.427218,
              17.443391
            ],
            [
              78.432727,
              17.443619
            ],
            [
              78.431511,
              17.437767
            ],
            [
              78.432222,
              17.436705
            ],
            [
              78.43364,
              17.4364
            ],
            [
              78.435979,
              17.434532
            ],
            [
              78.437263,
              17.433865
            ],
            [
              78.439691,
              17.433231
            ],
            [
              78.440988,
              17.432479
            ],
            [
              78.442032,
              17.432507
            ],
            [
              78.44297,
              17.432569
            ],
            [
              78.442965,
              17.43184
            ],
            [
              78.443579,
              17.432139
            ],
            [
              78.44425,
              17.432203
            ],
            [
              78.4473,
              17.432092
            ],
            [
              78.44381,
              17.43658
            ],
            [
              78.443389,
              17.437118
            ],
            [
              78.442828,
              17.43901
            ],
            [
              78.440882,
              17.442544
            ],
            [
              78.437777,
              17.447934
            ],
            [
              78.434713,
              17.454573
            ],
            [
              78.434337,
              17.455583
            ],
            [
              78.433418,
              17.456931
            ],
            [
              78.432631,
              17.458447
            ],
            [
              78.432278,
              17.460131
            ],
            [
              78.431064,
              17.461675
            ],
            [
              78.428201,
              17.461644
            ],
            [
              78.425385,
              17.461387
            ],
            [
              78.422354,
              17.460412
            ],
            [
              78.418633,
              17.459713
            ],
            [
              78.419419,
              17.457442
            ],
            [
              78.42028,
              17.454154
            ]
          ]
        ]
      }
    }
  ]
}