{
  "type": "FeatureCollection",
  "features": [
    {
      "type": "Feature",
      "properties": {},
      "geometry": {
        "type": "Polygon",
        "coordinates": [
          [
            [
              78.573196,
              17.420243
            ],
            [
              78.57369,
              17.416799
            ],
            [
              78.574475,
              17.414861
            ],
            [
              78.578585,
              17.404549
            ],
            [
              78.579922,
              17.402483
            ],
            [
              78.600902,
              17.409194
            ],
            [
              78.605198,
              17.410827
            ],
            [
              78.607255,
              17.41157
            ],
            [
              78.609293,
              17.41238
            ],
            [
              78.611351,
              17.412914
            ],
            [
              78.610984,
              17.414351
            ],
            [
              78.613098,
              17.415782
            ],
            [
              78.614044,
              17.418221
            ],
            [
              78.610823,
              17.420753
            ],
            [
              78.6112,
              17.422559
            ],
            [
              78.611373,
              17.424695
            ],
            [
              78.606903,
              17.426874
            ],
            [
              78.604102,
              17.427347
            ],
            [
              78.602213,
              17.427585
            ],
            [
              78.597821,
              17.427191
            ],
            [
              78.596196,
              17.426271
            ],
            [
              78.593422,
              17.424685
            ],
            [
              78.591314,
              17.423467
            ],
            [
              78.588963,
              17.42214
            ],
            [
              78.585499,
              17.421364
            ],
            [
              78.581095,
              17.420386
            ],
            [
              78.578992,
              17.420351
            ],
            [
              78.577175,
              17.4203
            ],
            [
              78.575397,
              17.420282
            ],
            [
              78.574276,
              17.420281
            ],
            [
              78.57409,
              17.42028
            ],
            [
              78.57371,
              17.420274
            ],
            [
              78.573443,
              17.420268
            ],
            [
              78.573196,
              17.420243
            ]
          ]
        ]
      }
    }
  ]
}