{
  "type": "FeatureCollection",
  "features": [
    {
      "type": "Feature",
      "properties": {},
      "geometry": {
        "type": "Polygon",
        "coordinates": [
          [
            [
              78.616515,
              17.38631
            ],
            [
              78.668175,
              17.403307
            ],
            [
              78.669551,
              17.403383
            ],
            [
              78.715036,
              17.415246
            ],
            [
              78.71127,
              17.455966
            ],
            [
              78.696966,
              17.45997
            ],
            [
              78.657383,
              17.45504
            ],
            [
              78.647725,
              17.447414
            ],
            [
              78.635523,
              17.437877
            ],
            [
              78.620731,
              17.429081
            ],
            [
              78.615961,
              17.412966
            ],
            [
              78.61822,
              17.402002
            ],
            [
              78.616515,
              17.38631
            ]
          ]
        ]
      }
    }
  ]
}