{
  "type": "FeatureCollection",
  "features": [
    {
      "type": "Feature",
      "properties": {},
      "geometry": {
        "type": "Polygon",
        "coordinates": [
          [
            [
              78.514035,
              17.407789
            ],
            [
              78.500407,
              17.398478
            ],
            [
              78.531079,
              17.377369
            ],
            [
              78.538675,
              17.382094
            ],
            [
              78.543627,
              17.383336
            ],
            [
              78.548369,
              17.381774
            ],
            [
              78.5516,
              17.380092
            ],
            [
              78.557224,
              17.382495
            ],
            [
              78.558147,
              17.393508
            ],
            [
              78.558273,
              17.401277
            ],
            [
              78.555819,
              17.401199
            ],
            [
              78.553091,
              17.401159
            ],
            [
              78.550531,
              17.40132
            ],
            [
              78.545453,
              17.4014
            ],
            [
              78.541844,
              17.400639
            ],
            [
              78.538151,
              17.399718
            ],
            [
              78.514035,
              17.407789
            ]
          ]
        ]
      }
    }
  ]
}