{
  "type": "FeatureCollection",
  "features": [
    {
      "type": "Feature",
      "properties": {},
      "geometry": {
        "type": "Polygon",
        "coordinates": [
          [
            [
              78.422768,
              17.449538
            ],
            [
              78.422552,
              17.454357
            ],
            [
              78.425056,
              17.461223
            ],
            [
              78.414482,
              17.458672
            ],
            [
              78.411538,
              17.457851
            ],
            [
              78.397995,
              17.462388
            ],
            [
              78.396138,
              17.459969
            ],
            [
              78.397292,
              17.457872
            ],
            [
              78.398426,
              17.457108
            ],
            [
              78.4,
              17.456341
            ],
            [
              78.404145,
              17.454508
            ],
            [
              78.409107,
              17.454877
            ],
            [
              78.410651,
              17.454325
            ],
            [
              78.413047,
              17.453526
            ],
            [
              78.412766,
              17.452723
            ],
            [
              78.412439,
              17.451941
            ],
            [
              78.411596,
              17.450383
            ],
            [
              78.422768,
              17.449538
            ]
          ]
        ]
      }
    }
  ]
}