{
  "type": "FeatureCollection",
  "features": [
    {
      "type": "Feature",
      "properties": {},
      "geometry": {
        "type": "Polygon",
        "coordinates": [
          [
            [
              78.420444,
              17.431832
            ],
            [
              78.421171,
              17.431798
            ],
            [
              78.42191,
              17.433879
            ],
            [
              78.423247,
              17.438577
            ],
            [
              78.41627,
              17.440493
            ],
            [
              78.4108,
              17.441936
            ],
            [
              78.408871,
              17.439869
            ],
            [
              78.412303,
              17.43551
            ],
            [
              78.416141,
              17.434249
            ],
            [
              78.420444,
              17.431832
            ]
          ]
        ]
      }
    }
  ]
}