{
  "type": "FeatureCollection",
  "features": [
    {
      "type": "Feature",
      "properties": {},
      "geometry": {
        "type": "Polygon",
        "coordinates": [
          [
            [
              78.501343,
              17.517916
            ],
            [
              78.501382,
              17.515747
            ],
            [
              78.502484,
              17.511541
            ],
            [
              78.502841,
              17.50998
            ],
            [
              78.503328,
              17.508807
            ],
            [
              78.506451,
              17.509231
            ],
            [
              78.50751,
              17.509335
            ],
            [
              78.509043,
              17.510229
            ],
            [
              78.510334,
              17.510995
            ],
            [
              78.511605,
              17.511589
            ],
            [
              78.512566,
              17.511917
            ],
            [
              78.513673,
              17.511967
            ],
            [
              78.516104,
              17.51116
            ],
            [
              78.518514,
              17.510249
            ],
            [
              78.520229,
              17.51294
            ],
            [
              78.521503,
              17.515747
            ],
            [
              78.521503,
              17.515784
            ],
            [
              78.522405,
              17.522928
            ],
            [
              78.522779,
              17.527112
            ],
            [
              78.523963,
              17.530195
            ],
            [
              78.516953,
              17.53239
            ],
            [
              78.514404,
              17.531343
            ],
            [
              78.507736,
              17.521207
            ],
            [
              78.501343,
              17.517916
            ]
          ]
        ]
      }
    }
  ]
}