{
  "type": "FeatureCollection",
  "features": [
    {
      "type": "Feature",
      "properties": {},
      "geometry": {
        "type": "Polygon",
        "coordinates": [
          [
            [
              78.487061,
              17.449126
            ],
            [
              78.487583,
              17.448827
            ],
            [
              78.488749,
              17.448941
            ],
            [
              78.491789,
              17.449385
            ],
            [
              78.497413,
              17.450067
            ],
            [
              78.50291,
              17.450922
            ],
            [
              78.508496,
              17.451777
            ],
            [
              78.514128,
              17.452675
            ],
            [
              78.516772,
              17.456465
            ],
            [
              78.519386,
              17.460256
            ],
            [
              78.517392,
              17.465441
            ],
            [
              78.513463,
              17.468245
            ],
            [
              78.50955,
              17.470916
            ],
            [
              78.505646,
              17.470608
            ],
            [
              78.501939,
              17.470223
            ],
            [
              78.498377,
              17.469915
            ],
            [
              78.496923,
              17.469761
            ],
            [
              78.495083,
              17.468836
            ],
            [
              78.493542,
              17.46632
            ],
            [
              78.491962,
              17.463889
            ],
            [
              78.491206,
              17.462198
            ],
            [
              78.48478,
              17.46064
            ],
            [
              78.482336,
              17.4569
            ],
            [
              78.481476,
              17.455279
            ],
            [
              78.484284,
              17.456434
            ],
            [
              78.48507,
              17.456413
            ],
            [
              78.486344,
              17.451535
            ],
            [
              78.487061,
              17.449126
            ]
          ]
        ]
      }
    }
  ]
}