{
  "type": "FeatureCollection",
  "features": [
    {
      "type": "Feature",
      "properties": {},
      "geometry": {
        "type": "Polygon",
        "coordinates": [
          [
            [
              78.474209,
              17.628251
            ],
            [
              78.476505,
              17.625383
            ],
            [
              78.485541,
              17.6244
            ],
            [
              78.506253,
              17.623632
            ],
            [
              78.51201,
              17.629688
            ],
            [
              78.511609,
              17.636729
            ],
            [
              78.48789,
              17.641719
            ],
            [
              78.475855,
              17.645449
            ],
            [
              78.470938,
              17.634702
            ],
            [
              78.474209,
              17.628251
            ]
          ]
        ]
      }
    }
  ]
}