{
  "type": "FeatureCollection",
  "features": [
    {
      "type": "Feature",
      "properties": {},
      "geometry": {
        "type": "Polygon",
        "coordinates": [
          [
            [
              78.438757,
              17.52844
            ],
            [
              78.43979,
              17.527259
            ],
            [
              78.441311,
              17.526009
            ],
            [
              78.44361,
              17.52277
            ],
            [
              78.445836,
              17.519539
            ],
            [
              78.449426,
              17.521905
            ],
            [
              78.4511,
              17.523226
            ],
            [
              78.452072,
              17.524487
            ],
            [
              78.461125,
              17.525498
            ],
            [
              78.458607,
              17.535951
            ],
            [
              78.444558,
              17.537373
            ],
            [
              78.441577,
              17.553226
            ],
            [
              78.429308,
              17.554429
            ],
            [
              78.430453,
              17.543059
            ],
            [
              78.429977,
              17.534705
            ],
            [
              78.430941,
              17.53482
            ],
            [
              78.432316,
              17.535472
            ],
            [
              78.433941,
              17.536089
            ],
            [
              78.43468,
              17.536583
            ],
            [
              78.435402,
              17.534262
            ],
            [
              78.437007,
              17.530654
            ],
            [
              78.438757,
              17.52844
            ]
          ]
        ]
      }
    }
  ]
}