{
  "type": "FeatureCollection",
  "features": [
    {
      "type": "Feature",
      "properties": {},
      "geometry": {
        "type": "Polygon",
        "coordinates": [
          [
            [
              78.466018,
              17.506813
            ],
            [
              78.46738,
              17.505757
            ],
            [
              78.467906,
              17.504283
            ],
            [
              78.470612,
              17.50247
            ],
            [
              78.476456,
              17.499095
            ],
            [
              78.487319,
              17.504668
            ],
            [
              78.490996,
              17.513294
            ],
            [
              78.491949,
              17.527478
            ],
            [
              78.487163,
              17.541174
            ],
            [
              78.478484,
              17.539826
            ],
            [
              78.469866,
              17.513733
            ],
            [
              78.466018,
              17.506813
            ]
          ]
        ]
      }
    }
  ]
}