{
  "type": "FeatureCollection",
  "features": [
    {
      "type": "Feature",
      "properties": {},
      "geometry": {
        "type": "Polygon",
        "coordinates": [
          [
            [
              78.420036,
              17.497351
            ],
            [
              78.420344,
              17.496264
            ],
            [
              78.424201,
              17.49018
            ],
            [
              78.433519,
              17.486187
            ],
            [
              78.44903,
              17.482069
            ],
            [
              78.462369,
              17.485896
            ],
            [
              78.46307,
              17.491159
            ],
            [
              78.452045,
              17.496196
            ],
            [
              78.433254,
              17.50267
            ],
            [
              78.431324,
              17.507232
            ],
            [
              78.429713,
              17.507965
            ],
            [
              78.428376,
              17.509178
            ],
            [
              78.426036,
              17.510333
            ],
            [
              78.424169,
              17.511202
            ],
            [
              78.42286,
              17.510638
            ],
            [
              78.417327,
              17.509574
            ],
            [
              78.415598,
              17.500215
            ],
            [
              78.420036,
              17.497351
            ]
          ]
        ]
      }
    }
  ]
}