{
  "type": "FeatureCollection",
  "features": [
    {
      "type": "Feature",
      "properties": {},
      "geometry": {
        "type": "Polygon",
        "coordinates": [
          [
            [
              78.478109,
              17.414088
            ],
            [
              78.490946,
              17.407348
            ],
            [
              78.504047,
              17.404397
            ],
            [
              78.509182,
              17.414555
            ],
            [
              78.50506,
              17.423129
            ],
            [
              78.512573,
              17.434624
            ],
            [
              78.5112,
              17.436733
            ],
            [
              78.509654,
              17.438719
            ],
            [
              78.507291,
              17.440307
            ],
            [
              78.505433,
              17.440837
            ],
            [
              78.505335,
              17.442389
            ],
            [
              78.502251,
              17.442598
            ],
            [
              78.498778,
              17.44282
            ],
            [
              78.495655,
              17.442954
            ],
            [
              78.496498,
              17.453752
            ],
            [
              78.497661,
              17.454084
            ],
            [
              78.498028,
              17.454473
            ],
            [
              78.498269,
              17.455369
            ],
            [
              78.499313,
              17.457164
            ],
            [
              78.500115,
              17.459093
            ],
            [
              78.500328,
              17.459744
            ],
            [
              78.500365,
              17.460531
            ],
            [
              78.500553,
              17.461997
            ],
            [
              78.495131,
              17.472443
            ],
            [
              78.494251,
              17.472595
            ],
            [
              78.493382,
              17.472527
            ],
            [
              78.49212,
              17.473642
            ],
            [
              78.491375,
              17.474218
            ],
            [
              78.490527,
              17.474648
            ],
            [
              78.488194,
              17.475555
            ],
            [
              78.487087,
              17.475732
            ],
            [
              78.485922,
              17.476133
            ],
            [
              78.485685,
              17.475612
            ],
            [
              78.484026,
              17.475949
            ],
            [
              78.48314,
              17.476123
            ],
            [
              78.482421,
              17.476155
            ],
            [
              78.481605,
              17.476351
            ],
            [
              78.481187,
              17.476364
            ],
            [
              78.480798,
              17.47633
            ],
            [
              78.479624,
              17.476679
            ],
            [
              78.479265,
              17.476681
            ],
            [
              78.478687,
              17.476704
            ],
            [
              78.477999,
              17.476538
            ],
            [
              78.477642,
              17.476602
            ],
            [
              78.47749,
              17.476687
            ],
            [
              78.477435,
              17.476796
            ],
            [
              78.476739,
              17.476789
            ],
            [
              78.476099,
              17.476693
            ],
            [
              78.475753,
              17.476665
            ],
            [
              78.475448,
              17.476589
            ],
            [
              78.475183,
              17.476498
            ],
            [
              78.474973,
              17.476376
            ],
            [
              78.473889,
              17.47591
            ],
            [
              78.473331,
              17.464334
            ],
            [
              78.477383,
              17.452621
            ],
            [
              78.47825,
              17.443509
            ],
            [
              78.48809,
              17.431362
            ],
            [
              78.478109,
              17.414088
            ]
          ]
        ]
      }
    }
  ]
}