{
  "type": "FeatureCollection",
  "features": [
    {
      "type": "Feature",
      "properties": {},
      "geometry": {
        "type": "Polygon",
        "coordinates": [
          [
            [
              78.394568,
              17.482506
            ],
            [
              78.398913,
              17.48392
            ],
            [
              78.40153,
              17.487439
            ],
            [
              78.403198,
              17.492898
            ],
            [
              78.400459,
              17.494246
            ],
            [
              78.393573,
              17.496734
            ],
            [
              78.389507,
              17.498303
            ],
            [
              78.382499,
              17.48795
            ],
            [
              78.390346,
              17.484321
            ],
            [
              78.394568,
              17.482506
            ]
          ]
        ]
      }
    }
  ]
}