{
  "type": "FeatureCollection",
  "features": [
    {
      "type": "Feature",
      "properties": {},
      "geometry": {
        "type": "Polygon",
        "coordinates": [
          [
            [
              72.844419,
              19.227783
            ],
            [
              72.807311,
              19.185387
            ],
            [
              72.828616,
              19.125277
            ],
            [
              72.874869,
              19.112564
            ],
            [
              72.888044,
              19.157585
            ],
            [
              72.864118,
              19.25435
            ],
            [
              72.861835,
              19.25101
            ],
            [
              72.859565,
              19.247645
            ],
            [
              72.856743,
              19.243526
            ],
            [
              72.855301,
              19.241426
            ],
            [
              72.854574,
              19.240364
            ],
            [
              72.853885,
              19.239345
            ],
            [
              72.851015,
              19.235135
            ],
            [
              72.850757,
              19.234757
            ],
            [
              72.850625,
              19.234562
            ],
            [
              72.850558,
              19.234462
            ],
            [
              72.850521,
              19.234409
            ],
            [
              72.850491,
              19.234365
            ],
            [
              72.850244,
              19.233996
            ],
            [
              72.850107,
              19.233789
            ],
            [
              72.849976,
              19.233595
            ],
            [
              72.849479,
              19.232871
            ],
            [
              72.849148,
              19.232388
            ],
            [
              72.848961,
              19.232114
            ],
            [
              72.848712,
              19.231751
            ],
            [
              72.848461,
              19.231384
            ],
            [
              72.847962,
              19.230645
            ],
            [
              72.844419,
              19.227783
            ]
          ]
        ]
      }
    }
  ]
}