{
  "type": "FeatureCollection",
  "features": [
    {
      "type": "Feature",
      "properties": {},
      "geometry": {
        "type": "Polygon",
        "coordinates": [
          [
            [
              78.450827,
              17.488672
            ],
            [
              78.456016,
              17.48757
            ],
            [
              78.45961,
              17.486921
            ],
            [
              78.459706,
              17.479134
            ],
            [
              78.468618,
              17.479246
            ],
            [
              78.473205,
              17.487848
            ],
            [
              78.473246,
              17.491725
            ],
            [
              78.476715,
              17.498966
            ],
            [
              78.472602,
              17.500925
            ],
            [
              78.467762,
              17.504051
            ],
            [
              78.467203,
              17.50562
            ],
            [
              78.466444,
              17.506468
            ],
            [
              78.464693,
              17.507568
            ],
            [
              78.459666,
              17.507662
            ],
            [
              78.456656,
              17.506905
            ],
            [
              78.454396,
              17.504883
            ],
            [
              78.451995,
              17.499409
            ],
            [
              78.452284,
              17.495339
            ],
            [
              78.451506,
              17.491266
            ],
            [
              78.450827,
              17.488672
            ]
          ]
        ]
      }
    }
  ]
}