{
  "type": "FeatureCollection",
  "features": [
    {
      "type": "Feature",
      "properties": {},
      "geometry": {
        "type": "Polygon",
        "coordinates": [
          [
            [
              78.432384,
              17.552186
            ],
            [
              78.430657,
              17.542929
            ],
            [
              78.43013,
              17.542749
            ],
            [
              78.427835,
              17.543754
            ],
            [
              78.426932,
              17.542068
            ],
            [
              78.425277,
              17.538552
            ],
            [
              78.428484,
              17.536295
            ],
            [
              78.430466,
              17.53478
            ],
            [
              78.431306,
              17.533907
            ],
            [
              78.432211,
              17.533772
            ],
            [
              78.433113,
              17.533627
            ],
            [
              78.435333,
              17.534273
            ],
            [
              78.436455,
              17.531394
            ],
            [
              78.437613,
              17.52945
            ],
            [
              78.439772,
              17.526886
            ],
            [
              78.441485,
              17.525646
            ],
            [
              78.442869,
              17.523555
            ],
            [
              78.445126,
              17.524887
            ],
            [
              78.445364,
              17.526463
            ],
            [
              78.442956,
              17.530374
            ],
            [
              78.442994,
              17.5331
            ],
            [
              78.443332,
              17.534248
            ],
            [
              78.443784,
              17.537297
            ],
            [
              78.442466,
              17.544689
            ],
            [
              78.441713,
              17.549962
            ],
            [
              78.441262,
              17.551863
            ],
            [
              78.436635,
              17.552329
            ],
            [
              78.432384,
              17.552186
            ]
          ]
        ]
      }
    }
  ]
}