{
  "type": "FeatureCollection",
  "features": [
    {
      "type": "Feature",
      "properties": {},
      "geometry": {
        "type": "Polygon",
        "coordinates": [
          [
            [
              78.437948,
              17.447984
            ],
            [
              78.438906,
              17.447843
            ],
            [
              78.445702,
              17.447608
            ],
            [
              78.446813,
              17.449957
            ],
            [
              78.446419,
              17.455595
            ],
            [
              78.437012,
              17.457005
            ],
            [
              78.43221,
              17.458974
            ],
            [
              78.429624,
              17.457895
            ],
            [
              78.429132,
              17.455595
            ],
            [
              78.429017,
              17.454122
            ],
            [
              78.428603,
              17.45275
            ],
            [
              78.427775,
              17.450027
            ],
            [
              78.431494,
              17.449348
            ],
            [
              78.437948,
              17.447984
            ]
          ]
        ]
      }
    }
  ]
}