{
  "type": "FeatureCollection",
  "features": [
    {
      "type": "Feature",
      "properties": {},
      "geometry": {
        "type": "Polygon",
        "coordinates": [
          [
            [
              78.424052,
              17.444464
            ],
            [
              78.426,
              17.444843
            ],
            [
              78.427251,
              17.445059
            ],
            [
              78.428674,
              17.445007
            ],
            [
              78.43017,
              17.445143
            ],
            [
              78.431308,
              17.445004
            ],
            [
              78.432498,
              17.444571
            ],
            [
              78.432893,
              17.44896
            ],
            [
              78.427673,
              17.449937
            ],
            [
              78.42891,
              17.454161
            ],
            [
              78.4293,
              17.458074
            ],
            [
              78.427275,
              17.461483
            ],
            [
              78.422382,
              17.460513
            ],
            [
              78.419614,
              17.458111
            ],
            [
              78.418274,
              17.456797
            ],
            [
              78.416959,
              17.45525
            ],
            [
              78.416606,
              17.454835
            ],
            [
              78.416333,
              17.45423
            ],
            [
              78.415582,
              17.449963
            ],
            [
              78.416634,
              17.446319
            ],
            [
              78.417084,
              17.446205
            ],
            [
              78.417517,
              17.446043
            ],
            [
              78.418401,
              17.445698
            ],
            [
              78.419956,
              17.445418
            ],
            [
              78.422181,
              17.444832
            ],
            [
              78.424052,
              17.444464
            ]
          ]
        ]
      }
    }
  ]
}