{
  "type": "FeatureCollection",
  "features": [
    {
      "type": "Feature",
      "properties": {},
      "geometry": {
        "type": "Polygon",
        "coordinates": [
          [
            [
              78.425206,
              17.430614
            ],
            [
              78.427161,
              17.430152
            ],
            [
              78.438875,
              17.430228
            ],
            [
              78.438461,
              17.43177
            ],
            [
              78.435931,
              17.434298
            ],
            [
              78.434455,
              17.43555
            ],
            [
              78.433103,
              17.436583
            ],
            [
              78.432063,
              17.436562
            ],
            [
              78.428679,
              17.437119
            ],
            [
              78.426471,
              17.438098
            ],
            [
              78.421716,
              17.439327
            ],
            [
              78.417051,
              17.439938
            ],
            [
              78.413603,
              17.44388
            ],
            [
              78.412248,
              17.445365
            ],
            [
              78.410163,
              17.4459
            ],
            [
              78.409081,
              17.441928
            ],
            [
              78.410123,
              17.435543
            ],
            [
              78.419715,
              17.431616
            ],
            [
              78.425206,
              17.430614
            ]
          ]
        ]
      }
    }
  ]
}