{
  "type": "FeatureCollection",
  "features": [
    {
      "type": "Feature",
      "properties": {},
      "geometry": {
        "type": "Polygon",
        "coordinates": [
          [
            [
              78.445545,
              17.434141
            ],
            [
              78.450414,
              17.434881
            ],
            [
              78.45022,
              17.438154
            ],
            [
              78.453784,
              17.442785
            ],
            [
              78.451517,
              17.446243
            ],
            [
              78.448861,
              17.447292
            ],
            [
              78.442104,
              17.447615
            ],
            [
              78.439792,
              17.4454
            ],
            [
              78.435257,
              17.443645
            ],
            [
              78.431842,
              17.444714
            ],
            [
              78.430939,
              17.444955
            ],
            [
              78.430079,
              17.445087
            ],
            [
              78.429793,
              17.443161
            ],
            [
              78.429611,
              17.440102
            ],
            [
              78.42875,
              17.437225
            ],
            [
              78.432008,
              17.436683
            ],
            [
              78.432823,
              17.436731
            ],
            [
              78.433067,
              17.436875
            ],
            [
              78.436939,
              17.433586
            ],
            [
              78.445545,
              17.434141
            ]
          ]
        ]
      }
    }
  ]
}