{
  "type": "FeatureCollection",
  "features": [
    {
      "type": "Feature",
      "properties": {},
      "geometry": {
        "type": "Polygon",
        "coordinates": [
          [
            [
              78.409026,
              17.4462
            ],
            [
              78.410222,
              17.446163
            ],
            [
              78.411405,
              17.446015
            ],
            [
              78.412339,
              17.445789
            ],
            [
              78.413036,
              17.445789
            ],
            [
              78.414099,
              17.44584
            ],
            [
              78.414445,
              17.445835
            ],
            [
              78.414778,
              17.44592
            ],
            [
              78.415485,
              17.446096
            ],
            [
              78.416577,
              17.446327
            ],
            [
              78.415503,
              17.44991
            ],
            [
              78.415906,
              17.452245
            ],
            [
              78.416148,
              17.453471
            ],
            [
              78.416161,
              17.454239
            ],
            [
              78.416845,
              17.455316
            ],
            [
              78.417165,
              17.45562
            ],
            [
              78.417471,
              17.455946
            ],
            [
              78.417965,
              17.45669
            ],
            [
              78.421917,
              17.460344
            ],
            [
              78.405455,
              17.45948
            ],
            [
              78.403485,
              17.453358
            ],
            [
              78.402088,
              17.447478
            ],
            [
              78.405827,
              17.446248
            ],
            [
              78.409026,
              17.4462
            ]
          ]
        ]
      }
    }
  ]
}