{
  "type": "FeatureCollection",
  "features": [
    {
      "type": "Feature",
      "properties": {},
      "geometry": {
        "type": "Polygon",
        "coordinates": [
          [
            [
              78.423261,
              17.439176
            ],
            [
              78.424786,
              17.438768
            ],
            [
              78.426755,
              17.438094
            ],
            [
              78.428599,
              17.437254
            ],
            [
              78.429091,
              17.439081
            ],
            [
              78.429598,
              17.44122
            ],
            [
              78.42971,
              17.443174
            ],
            [
              78.429986,
              17.44508
            ],
            [
              78.428733,
              17.444936
            ],
            [
              78.427355,
              17.444941
            ],
            [
              78.423963,
              17.444393
            ],
            [
              78.422164,
              17.444761
            ],
            [
              78.420227,
              17.4453
            ],
            [
              78.418396,
              17.445663
            ],
            [
              78.417365,
              17.446066
            ],
            [
              78.41661,
              17.446273
            ],
            [
              78.412628,
              17.445369
            ],
            [
              78.417119,
              17.44006
            ],
            [
              78.423261,
              17.439176
            ]
          ]
        ]
      }
    }
  ]
}