{
  "type": "FeatureCollection",
  "features": [
    {
      "type": "Feature",
      "properties": {},
      "geometry": {
        "type": "Polygon",
        "coordinates": [
          [
            [
              78.610328,
              17.501158
            ],
            [
              78.611178,
              17.499757
            ],
            [
              78.610984,
              17.499432
            ],
            [
              78.621655,
              17.501724
            ],
            [
              78.625513,
              17.505639
            ],
            [
              78.634558,
              17.512141
            ],
            [
              78.647345,
              17.514613
            ],
            [
              78.65298,
              17.507449
            ],
            [
              78.662615,
              17.510803
            ],
            [
              78.665653,
              17.517299
            ],
            [
              78.667158,
              17.522112
            ],
            [
              78.667384,
              17.526138
            ],
            [
              78.662096,
              17.528932
            ],
            [
              78.656131,
              17.53229
            ],
            [
              78.648973,
              17.534414
            ],
            [
              78.640289,
              17.536085
            ],
            [
              78.63232,
              17.537772
            ],
            [
              78.62669,
              17.537885
            ],
            [
              78.618476,
              17.535874
            ],
            [
              78.608993,
              17.534965
            ],
            [
              78.603062,
              17.528571
            ],
            [
              78.60153,
              17.526259
            ],
            [
              78.595012,
              17.523173
            ],
            [
              78.591521,
              17.517459
            ],
            [
              78.594756,
              17.514115
            ],
            [
              78.594982,
              17.509494
            ],
            [
              78.602577,
              17.505629
            ],
            [
              78.607699,
              17.502262
            ],
            [
              78.610328,
              17.501158
            ]
          ]
        ]
      }
    }
  ]
}