{
  "type": "FeatureCollection",
  "features": [
    {
      "type": "Feature",
      "properties": {},
      "geometry": {
        "type": "Polygon",
        "coordinates": [
          [
            [
              78.611721,
              17.460595
            ],
            [
              78.619638,
              17.463704
            ],
            [
              78.61855,
              17.466267
            ],
            [
              78.617605,
              17.469176
            ],
            [
              78.616443,
              17.470561
            ],
            [
              78.613248,
              17.472223
            ],
            [
              78.608384,
              17.475545
            ],
            [
              78.602359,
              17.47644
            ],
            [
              78.598005,
              17.47637
            ],
            [
              78.591332,
              17.474844
            ],
            [
              78.589158,
              17.471729
            ],
            [
              78.587347,
              17.468476
            ],
            [
              78.586404,
              17.465085
            ],
            [
              78.583869,
              17.459479
            ],
            [
              78.581544,
              17.455191
            ],
            [
              78.579217,
              17.448617
            ],
            [
              78.581173,
              17.446609
            ],
            [
              78.588723,
              17.449448
            ],
            [
              78.59351,
              17.451939
            ],
            [
              78.598513,
              17.454155
            ],
            [
              78.602795,
              17.456301
            ],
            [
              78.607221,
              17.459002
            ],
            [
              78.611721,
              17.460595
            ]
          ]
        ]
      }
    }
  ]
}