{
  "type": "FeatureCollection",
  "features": [
    {
      "type": "Feature",
      "properties": {},
      "geometry": {
        "type": "Polygon",
        "coordinates": [
          [
            [
              78.570063,
              17.500998
            ],
            [
              78.571663,
              17.504689
            ],
            [
              78.572395,
              17.507552
            ],
            [
              78.574393,
              17.51264
            ],
            [
              78.571793,
              17.515691
            ],
            [
              78.573058,
              17.518297
            ],
            [
              78.568859,
              17.520012
            ],
            [
              78.563061,
              17.523505
            ],
            [
              78.554933,
              17.525473
            ],
            [
              78.552935,
              17.523059
            ],
            [
              78.550067,
              17.520329
            ],
            [
              78.546129,
              17.514737
            ],
            [
              78.545724,
              17.50857
            ],
            [
              78.549596,
              17.508126
            ],
            [
              78.554063,
              17.506856
            ],
            [
              78.557661,
              17.505138
            ],
            [
              78.563793,
              17.502911
            ],
            [
              78.570063,
              17.500998
            ]
          ]
        ]
      }
    }
  ]
}