{
  "type": "FeatureCollection",
  "features": [
    {
      "type": "Feature",
      "properties": {},
      "geometry": {
        "type": "Polygon",
        "coordinates": [
          [
            [
              78.550387,
              17.465809
            ],
            [
              78.55131,
              17.466281
            ],
            [
              78.552556,
              17.467318
            ],
            [
              78.553253,
              17.469313
            ],
            [
              78.554517,
              17.470518
            ],
            [
              78.555257,
              17.471516
            ],
            [
              78.557654,
              17.472305
            ],
            [
              78.557828,
              17.472846
            ],
            [
              78.558046,
              17.474009
            ],
            [
              78.558438,
              17.474924
            ],
            [
              78.55883,
              17.475879
            ],
            [
              78.559222,
              17.477002
            ],
            [
              78.559789,
              17.478041
            ],
            [
              78.55944,
              17.478789
            ],
            [
              78.557523,
              17.478789
            ],
            [
              78.556434,
              17.478664
            ],
            [
              78.55578,
              17.478456
            ],
            [
              78.553829,
              17.478319
            ],
            [
              78.552653,
              17.478568
            ],
            [
              78.551738,
              17.478651
            ],
            [
              78.550779,
              17.478028
            ],
            [
              78.549951,
              17.477529
            ],
            [
              78.547686,
              17.476407
            ],
            [
              78.547337,
              17.475784
            ],
            [
              78.547206,
              17.474745
            ],
            [
              78.546335,
              17.47329
            ],
            [
              78.545899,
              17.472625
            ],
            [
              78.545071,
              17.470755
            ],
            [
              78.544679,
              17.469092
            ],
            [
              78.544244,
              17.467762
            ],
            [
              78.544374,
              17.466931
            ],
            [
              78.545638,
              17.46664
            ],
            [
              78.546509,
              17.466183
            ],
            [
              78.548426,
              17.465975
            ],
            [
              78.54969,
              17.465726
            ],
            [
              78.550387,
              17.465809
            ]
          ]
        ]
      }
    }
  ]
}