{
  "type": "FeatureCollection",
  "features": [
    {
      "type": "Feature",
      "properties": {},
      "geometry": {
        "type": "Polygon",
        "coordinates": [
          [
            [
              78.601137,
              17.489859
            ],
            [
              78.604058,
              17.49331
            ],
            [
              78.609724,
              17.497989
            ],
            [
              78.610366,
              17.500273
            ],
            [
              78.605868,
              17.502501
            ],
            [
              78.602481,
              17.504729
            ],
            [
              78.598451,
              17.506956
            ],
            [
              78.596115,
              17.508181
            ],
            [
              78.594947,
              17.507736
            ],
            [
              78.593254,
              17.505285
            ],
            [
              78.591154,
              17.50261
            ],
            [
              78.586834,
              17.501273
            ],
            [
              78.580818,
              17.497377
            ],
            [
              78.584786,
              17.491641
            ],
            [
              78.587937,
              17.487742
            ],
            [
              78.59366,
              17.487352
            ],
            [
              78.601137,
              17.489859
            ]
          ]
        ]
      }
    }
  ]
}