{
  "type": "FeatureCollection",
  "features": [
    {
      "type": "Feature",
      "properties": {},
      "geometry": {
        "type": "Polygon",
        "coordinates": [
          [
            [
              78.591035,
              17.475661
            ],
            [
              78.591669,
              17.476163
            ],
            [
              78.592537,
              17.476508
            ],
            [
              78.593551,
              17.476819
            ],
            [
              78.594202,
              17.477026
            ],
            [
              78.595433,
              17.477164
            ],
            [
              78.596302,
              17.477164
            ],
            [
              78.597243,
              17.477371
            ],
            [
              78.598039,
              17.477509
            ],
            [
              78.59898,
              17.477785
            ],
            [
              78.600247,
              17.477785
            ],
            [
              78.600935,
              17.477785
            ],
            [
              78.601876,
              17.47782
            ],
            [
              78.600355,
              17.479132
            ],
            [
              78.599451,
              17.479857
            ],
            [
              78.597713,
              17.481445
            ],
            [
              78.597026,
              17.48217
            ],
            [
              78.596302,
              17.482998
            ],
            [
              78.595361,
              17.483861
            ],
            [
              78.593949,
              17.484483
            ],
            [
              78.593334,
              17.484552
            ],
            [
              78.591379,
              17.485311
            ],
            [
              78.590257,
              17.485346
            ],
            [
              78.588882,
              17.485933
            ],
            [
              78.58852,
              17.485967
            ],
            [
              78.587868,
              17.48614
            ],
            [
              78.587579,
              17.486382
            ],
            [
              78.587072,
              17.486968
            ],
            [
              78.587036,
              17.487831
            ],
            [
              78.586022,
              17.488591
            ],
            [
              78.585588,
              17.489489
            ],
            [
              78.585154,
              17.490317
            ],
            [
              78.58414,
              17.490904
            ],
            [
              78.582982,
              17.491663
            ],
            [
              78.582693,
              17.492043
            ],
            [
              78.582005,
              17.492595
            ],
            [
              78.581245,
              17.493527
            ],
            [
              78.580231,
              17.494218
            ],
            [
              78.579688,
              17.494598
            ],
            [
              78.579471,
              17.494252
            ],
            [
              78.578422,
              17.493562
            ],
            [
              78.577951,
              17.493286
            ],
            [
              78.577408,
              17.492734
            ],
            [
              78.576938,
              17.492492
            ],
            [
              78.573771,
              17.490092
            ],
            [
              78.572974,
              17.489747
            ],
            [
              78.572142,
              17.489505
            ],
            [
              78.572287,
              17.488884
            ],
            [
              78.572214,
              17.487227
            ],
            [
              78.572612,
              17.485431
            ],
            [
              78.573264,
              17.484154
            ],
            [
              78.574169,
              17.483326
            ],
            [
              78.575255,
              17.482428
            ],
            [
              78.577281,
              17.481668
            ],
            [
              78.578403,
              17.481289
            ],
            [
              78.580213,
              17.480909
            ],
            [
              78.581118,
              17.480598
            ],
            [
              78.582204,
              17.480426
            ],
            [
              78.584014,
              17.480253
            ],
            [
              78.584774,
              17.48008
            ],
            [
              78.585317,
              17.480322
            ],
            [
              78.585787,
              17.480011
            ],
            [
              78.58633,
              17.479873
            ],
            [
              78.586439,
              17.479252
            ],
            [
              78.587778,
              17.476421
            ],
            [
              78.589298,
              17.474177
            ],
            [
              78.589913,
              17.474729
            ],
            [
              78.59013,
              17.475074
            ],
            [
              78.590673,
              17.475316
            ],
            [
              78.591035,
              17.475661
            ]
          ]
        ]
      }
    }
  ]
}