{
  "type": "FeatureCollection",
  "features": [
    {
      "type": "Feature",
      "properties": {},
      "geometry": {
        "type": "Polygon",
        "coordinates": [
          [
            [
              78.555174,
              17.485686
            ],
            [
              78.552621,
              17.484857
            ],
            [
              78.552212,
              17.482596
            ],
            [
              78.556822,
              17.480361
            ],
            [
              78.557371,
              17.479837
            ],
            [
              78.558308,
              17.479514
            ],
            [
              78.560311,
              17.478651
            ],
            [
              78.563736,
              17.477386
            ],
            [
              78.563905,
              17.479821
            ],
            [
              78.564826,
              17.483312
            ],
            [
              78.582412,
              17.48946
            ],
            [
              78.594319,
              17.497718
            ],
            [
              78.589361,
              17.501528
            ],
            [
              78.586378,
              17.50397
            ],
            [
              78.585357,
              17.504834
            ],
            [
              78.584581,
              17.505796
            ],
            [
              78.58343,
              17.505265
            ],
            [
              78.581808,
              17.504789
            ],
            [
              78.578146,
              17.505082
            ],
            [
              78.572005,
              17.505364
            ],
            [
              78.558905,
              17.505954
            ],
            [
              78.549735,
              17.514098
            ],
            [
              78.540297,
              17.512792
            ],
            [
              78.539987,
              17.503206
            ],
            [
              78.538911,
              17.501225
            ],
            [
              78.545639,
              17.494172
            ],
            [
              78.555174,
              17.485686
            ]
          ]
        ]
      }
    }
  ]
}