{
  "type": "FeatureCollection",
  "features": [
    {
      "type": "Feature",
      "properties": {},
      "geometry": {
        "type": "Polygon",
        "coordinates": [
          [
            [
              78.386336,
              17.489751
            ],
            [
              78.389977,
              17.484293
            ],
            [
              78.393879,
              17.482628
            ],
            [
              78.404245,
              17.482557
            ],
            [
              78.408294,
              17.47919
            ],
            [
              78.416728,
              17.48114
            ],
            [
              78.414485,
              17.482577
            ],
            [
              78.412925,
              17.483569
            ],
            [
              78.40724,
              17.491047
            ],
            [
              78.397654,
              17.495795
            ],
            [
              78.397726,
              17.499629
            ],
            [
              78.401972,
              17.51162
            ],
            [
              78.403424,
              17.526749
            ],
            [
              78.397056,
              17.540598
            ],
            [
              78.388788,
              17.542033
            ],
            [
              78.387224,
              17.52552
            ],
            [
              78.389458,
              17.518652
            ],
            [
              78.390352,
              17.509915
            ],
            [
              78.390129,
              17.498883
            ],
            [
              78.390521,
              17.490834
            ],
            [
              78.386336,
              17.489751
            ]
          ]
        ]
      }
    }
  ]
}