{
  "type": "FeatureCollection",
  "features": [
    {
      "type": "Feature",
      "properties": {},
      "geometry": {
        "type": "Polygon",
        "coordinates": [
          [
            [
              78.41283,
              17.483708
            ],
            [
              78.416353,
              17.483932
            ],
            [
              78.417469,
              17.486508
            ],
            [
              78.417234,
              17.489869
            ],
            [
              78.417997,
              17.496309
            ],
            [
              78.417116,
              17.497989
            ],
            [
              78.418175,
              17.500053
            ],
            [
              78.417333,
              17.501134
            ],
            [
              78.41364,
              17.499272
            ],
            [
              78.41061,
              17.49832
            ],
            [
              78.40684,
              17.496844
            ],
            [
              78.408457,
              17.49927
            ],
            [
              78.40197,
              17.499513
            ],
            [
              78.4018,
              17.498542
            ],
            [
              78.399807,
              17.494781
            ],
            [
              78.407311,
              17.491114
            ],
            [
              78.41283,
              17.483708
            ]
          ]
        ]
      }
    }
  ]
}