{
  "type": "FeatureCollection",
  "features": [
    {
      "type": "Feature",
      "properties": {},
      "geometry": {
        "type": "Polygon",
        "coordinates": [
          [
            [
              78.297319,
              17.430553
            ],
            [
              78.299186,
              17.430907
            ],
            [
              78.334543,
              17.46245
            ],
            [
              78.326345,
              17.474152
            ],
            [
              78.320337,
              17.478566
            ],
            [
              78.309528,
              17.480465
            ],
            [
              78.302116,
              17.477085
            ],
            [
              78.296588,
              17.475047
            ],
            [
              78.28151,
              17.474448
            ],
            [
              78.282404,
              17.469834
            ],
            [
              78.271825,
              17.44081
            ],
            [
              78.277294,
              17.433214
            ],
            [
              78.297319,
              17.430553
            ]
          ]
        ]
      }
    }
  ]
}