{
  "type": "FeatureCollection",
  "features": [
    {
      "type": "Feature",
      "properties": {},
      "geometry": {
        "type": "Polygon",
        "coordinates": [
          [
            [
              78.335354,
              17.481219
            ],
            [
              78.335757,
              17.483582
            ],
            [
              78.336192,
              17.495511
            ],
            [
              78.348419,
              17.494221
            ],
            [
              78.348912,
              17.504891
            ],
            [
              78.343312,
              17.51735
            ],
            [
              78.337554,
              17.524212
            ],
            [
              78.339148,
              17.530008
            ],
            [
              78.336956,
              17.533524
            ],
            [
              78.328585,
              17.526397
            ],
            [
              78.330569,
              17.507022
            ],
            [
              78.328507,
              17.495048
            ],
            [
              78.325595,
              17.494855
            ],
            [
              78.325737,
              17.486729
            ],
            [
              78.335354,
              17.481219
            ]
          ]
        ]
      }
    }
  ]
}