{
  "type": "FeatureCollection",
  "features": [
    {
      "type": "Feature",
      "properties": {},
      "geometry": {
        "type": "Polygon",
        "coordinates": [
          [
            [
              78.398148,
              17.541928
            ],
            [
              78.400675,
              17.544138
            ],
            [
              78.427281,
              17.56014
            ],
            [
              78.423489,
              17.575747
            ],
            [
              78.406387,
              17.592198
            ],
            [
              78.365792,
              17.571257
            ],
            [
              78.333857,
              17.559553
            ],
            [
              78.331571,
              17.540035
            ],
            [
              78.33778,
              17.534912
            ],
            [
              78.340509,
              17.531065
            ],
            [
              78.366467,
              17.529921
            ],
            [
              78.38196,
              17.541041
            ],
            [
              78.398148,
              17.541928
            ]
          ]
        ]
      }
    }
  ]
}