{
  "type": "FeatureCollection",
  "features": [
    {
      "type": "Feature",
      "properties": {},
      "geometry": {
        "type": "Polygon",
        "coordinates": [
          [
            [
              78.29615,
              17.476002
            ],
            [
              78.301341,
              17.477734
            ],
            [
              78.312122,
              17.482184
            ],
            [
              78.31541,
              17.496223
            ],
            [
              78.309109,
              17.504482
            ],
            [
              78.288042,
              17.513545
            ],
            [
              78.289077,
              17.528509
            ],
            [
              78.283083,
              17.54006
            ],
            [
              78.275711,
              17.540044
            ],
            [
              78.268209,
              17.522116
            ],
            [
              78.257862,
              17.506527
            ],
            [
              78.280665,
              17.475572
            ],
            [
              78.29615,
              17.476002
            ]
          ]
        ]
      }
    }
  ]
}