{
  "type": "FeatureCollection",
  "features": [
    {
      "type": "Feature",
      "properties": {},
      "geometry": {
        "type": "Polygon",
        "coordinates": [
          [
            [
              78.371028,
              17.378978
            ],
            [
              78.374273,
              17.3771
            ],
            [
              78.384079,
              17.376695
            ],
            [
              78.399365,
              17.392084
            ],
            [
              78.400643,
              17.396965
            ],
            [
              78.402764,
              17.407339
            ],
            [
              78.392093,
              17.416386
            ],
            [
              78.378761,
              17.424196
            ],
            [
              78.374335,
              17.436786
            ],
            [
              78.369187,
              17.437379
            ],
            [
              78.36395,
              17.438056
            ],
            [
              78.349736,
              17.445747
            ],
            [
              78.335264,
              17.460148
            ],
            [
              78.31785,
              17.445032
            ],
            [
              78.308624,
              17.437065
            ],
            [
              78.300439,
              17.429756
            ],
            [
              78.325111,
              17.409882
            ],
            [
              78.325147,
              17.409994
            ],
            [
              78.331515,
              17.386115
            ],
            [
              78.349287,
              17.386306
            ],
            [
              78.35611,
              17.385496
            ],
            [
              78.371028,
              17.378978
            ]
          ]
        ]
      }
    }
  ]
}