{
  "type": "FeatureCollection",
  "features": [
    {
      "type": "Feature",
      "properties": {},
      "geometry": {
        "type": "Polygon",
        "coordinates": [
          [
            [
              78.323469,
              17.47823
            ],
            [
              78.324664,
              17.477021
            ],
            [
              78.329746,
              17.471511
            ],
            [
              78.335322,
              17.483827
            ],
            [
              78.335581,
              17.490842
            ],
            [
              78.33964,
              17.495091
            ],
            [
              78.335024,
              17.495449
            ],
            [
              78.331583,
              17.495033
            ],
            [
              78.327899,
              17.494698
            ],
            [
              78.323771,
              17.494868
            ],
            [
              78.315866,
              17.495182
            ],
            [
              78.315344,
              17.493339
            ],
            [
              78.31103,
              17.483049
            ],
            [
              78.311646,
              17.480109
            ],
            [
              78.321508,
              17.477463
            ],
            [
              78.323469,
              17.47823
            ]
          ]
        ]
      }
    }
  ]
}