{
  "type": "FeatureCollection",
  "features": [
    {
      "type": "Feature",
      "properties": {},
      "geometry": {
        "type": "Polygon",
        "coordinates": [
          [
            [
              78.29141,
              17.491803
            ],
            [
              78.295942,
              17.491642
            ],
            [
              78.303056,
              17.490875
            ],
            [
              78.315366,
              17.495432
            ],
            [
              78.312145,
              17.501046
            ],
            [
              78.311626,
              17.502166
            ],
            [
              78.31072,
              17.502919
            ],
            [
              78.308343,
              17.504411
            ],
            [
              78.304143,
              17.506772
            ],
            [
              78.299724,
              17.509236
            ],
            [
              78.294802,
              17.511129
            ],
            [
              78.289898,
              17.512975
            ],
            [
              78.284192,
              17.514774
            ],
            [
              78.28042,
              17.517096
            ],
            [
              78.273054,
              17.523401
            ],
            [
              78.269289,
              17.526442
            ],
            [
              78.267455,
              17.527876
            ],
            [
              78.266539,
              17.528602
            ],
            [
              78.265547,
              17.529053
            ],
            [
              78.258766,
              17.530152
            ],
            [
              78.25437,
              17.531912
            ],
            [
              78.256699,
              17.54507
            ],
            [
              78.2438,
              17.5449
            ],
            [
              78.225955,
              17.562994
            ],
            [
              78.190521,
              17.566515
            ],
            [
              78.180963,
              17.551843
            ],
            [
              78.195108,
              17.534391
            ],
            [
              78.237808,
              17.519549
            ],
            [
              78.257422,
              17.505953
            ],
            [
              78.29141,
              17.491803
            ]
          ]
        ]
      }
    }
  ]
}