{
  "type": "FeatureCollection",
  "features": [
    {
      "type": "Feature",
      "properties": {},
      "geometry": {
        "type": "Polygon",
        "coordinates": [
          [
            [
              78.297689,
              17.51037
            ],
            [
              78.300546,
              17.509206
            ],
            [
              78.304275,
              17.506953
            ],
            [
              78.308258,
              17.504769
            ],
            [
              78.311581,
              17.502755
            ],
            [
              78.313269,
              17.500309
            ],
            [
              78.31578,
              17.495689
            ],
            [
              78.327721,
              17.495192
            ],
            [
              78.331027,
              17.505519
            ],
            [
              78.325693,
              17.535735
            ],
            [
              78.301897,
              17.53157
            ],
            [
              78.298133,
              17.53453
            ],
            [
              78.292651,
              17.533146
            ],
            [
              78.283237,
              17.536103
            ],
            [
              78.282551,
              17.530167
            ],
            [
              78.279528,
              17.518464
            ],
            [
              78.283998,
              17.515507
            ],
            [
              78.288165,
              17.513861
            ],
            [
              78.297689,
              17.51037
            ]
          ]
        ]
      }
    }
  ]
}