{
  "type": "FeatureCollection",
  "features": [
    {
      "type": "Feature",
      "properties": {},
      "geometry": {
        "type": "Polygon",
        "coordinates": [
          [
            [
              78.349351,
              17.551122
            ],
            [
              78.351432,
              17.5509
            ],
            [
              78.361024,
              17.551339
            ],
            [
              78.373957,
              17.552435
            ],
            [
              78.377975,
              17.56784
            ],
            [
              78.363208,
              17.570171
            ],
            [
              78.356411,
              17.561713
            ],
            [
              78.344496,
              17.561714
            ],
            [
              78.330147,
              17.559633
            ],
            [
              78.337903,
              17.553558
            ],
            [
              78.349351,
              17.551122
            ]
          ]
        ]
      }
    }
  ]
}