{
  "type": "FeatureCollection",
  "features": [
    {
      "type": "Feature",
      "properties": {},
      "geometry": {
        "type": "Polygon",
        "coordinates": [
          [
            [
              78.361707,
              17.496925
            ],
            [
              78.3671,
              17.496766
            ],
            [
              78.368049,
              17.496893
            ],
            [
              78.369611,
              17.507881
            ],
            [
              78.369705,
              17.510416
            ],
            [
              78.368678,
              17.517429
            ],
            [
              78.3564,
              17.521504
            ],
            [
              78.343718,
              17.525218
            ],
            [
              78.334531,
              17.517997
            ],
            [
              78.331715,
              17.505669
            ],
            [
              78.330365,
              17.502595
            ],
            [
              78.334534,
              17.495726
            ],
            [
              78.342424,
              17.495233
            ],
            [
              78.345405,
              17.494974
            ],
            [
              78.348365,
              17.494432
            ],
            [
              78.34949,
              17.494173
            ],
            [
              78.3505,
              17.494157
            ],
            [
              78.355161,
              17.495252
            ],
            [
              78.361707,
              17.496925
            ]
          ]
        ]
      }
    }
  ]
}