{
  "type": "FeatureCollection",
  "features": [
    {
      "type": "Feature",
      "properties": {},
      "geometry": {
        "type": "Polygon",
        "coordinates": [
          [
            [
              78.36388,
              17.455864
            ],
            [
              78.364286,
              17.456503
            ],
            [
              78.367179,
              17.464336
            ],
            [
              78.378612,
              17.476239
            ],
            [
              78.370963,
              17.481505
            ],
            [
              78.37373,
              17.49613
            ],
            [
              78.361403,
              17.496454
            ],
            [
              78.351509,
              17.493808
            ],
            [
              78.348879,
              17.493999
            ],
            [
              78.345678,
              17.494711
            ],
            [
              78.342735,
              17.495022
            ],
            [
              78.339822,
              17.49513
            ],
            [
              78.335934,
              17.490946
            ],
            [
              78.335823,
              17.483306
            ],
            [
              78.331376,
              17.473546
            ],
            [
              78.330974,
              17.468559
            ],
            [
              78.346772,
              17.463487
            ],
            [
              78.36388,
              17.455864
            ]
          ]
        ]
      }
    }
  ]
}