{
  "type": "FeatureCollection",
  "features": [
    {
      "type": "Feature",
      "properties": {},
      "geometry": {
        "type": "Polygon",
        "coordinates": [
          [
            [
              78.268772,
              17.527345
            ],
            [
              78.279267,
              17.518585
            ],
            [
              78.282958,
              17.535153
            ],
            [
              78.278826,
              17.552659
            ],
            [
              78.272622,
              17.56723
            ],
            [
              78.261582,
              17.569559
            ],
            [
              78.254296,
              17.56609
            ],
            [
              78.257759,
              17.546122
            ],
            [
              78.254844,
              17.531989
            ],
            [
              78.258541,
              17.530449
            ],
            [
              78.2637,
              17.529531
            ],
            [
              78.265132,
              17.529416
            ],
            [
              78.266001,
              17.529158
            ],
            [
              78.267158,
              17.528602
            ],
            [
              78.268772,
              17.527345
            ]
          ]
        ]
      }
    }
  ]
}