{
  "type": "FeatureCollection",
  "features": [
    {
      "type": "Feature",
      "properties": {},
      "geometry": {
        "type": "Polygon",
        "coordinates": [
          [
            [
              78.417095,
              17.480426
            ],
            [
              78.416108,
              17.481493
            ],
            [
              78.415038,
              17.482128
            ],
            [
              78.412841,
              17.483492
            ],
            [
              78.410621,
              17.486359
            ],
            [
              78.407919,
              17.485257
            ],
            [
              78.405414,
              17.487964
            ],
            [
              78.404793,
              17.486378
            ],
            [
              78.404106,
              17.483989
            ],
            [
              78.4065,
              17.482424
            ],
            [
              78.406855,
              17.480922
            ],
            [
              78.408496,
              17.479971
            ],
            [
              78.410403,
              17.48014
            ],
            [
              78.412841,
              17.480097
            ],
            [
              78.414948,
              17.480097
            ],
            [
              78.417095,
              17.480426
            ]
          ]
        ]
      }
    }
  ]
}