{
  "type": "FeatureCollection",
  "features": [
    {
      "type": "Feature",
      "properties": {},
      "geometry": {
        "type": "Polygon",
        "coordinates": [
          [
            [
              78.518382,
              17.382236
            ],
            [
              78.518032,
              17.381184
            ],
            [
              78.517402,
              17.380248
            ],
            [
              78.520515,
              17.3789
            ],
            [
              78.528748,
              17.380209
            ],
            [
              78.541495,
              17.383293
            ],
            [
              78.546055,
              17.383673
            ],
            [
              78.551499,
              17.387052
            ],
            [
              78.552783,
              17.392586
            ],
            [
              78.551676,
              17.393853
            ],
            [
              78.54995,
              17.393853
            ],
            [
              78.545258,
              17.393938
            ],
            [
              78.54154,
              17.400147
            ],
            [
              78.534458,
              17.398246
            ],
            [
              78.521777,
              17.403424
            ],
            [
              78.515938,
              17.405646
            ],
            [
              78.515582,
              17.405197
            ],
            [
              78.515274,
              17.404532
            ],
            [
              78.514518,
              17.402812
            ],
            [
              78.513096,
              17.399588
            ],
            [
              78.511947,
              17.396949
            ],
            [
              78.510975,
              17.394488
            ],
            [
              78.512175,
              17.39368
            ],
            [
              78.513014,
              17.39301
            ],
            [
              78.513125,
              17.392838
            ],
            [
              78.513251,
              17.392684
            ],
            [
              78.513566,
              17.392443
            ],
            [
              78.513853,
              17.391883
            ],
            [
              78.514933,
              17.391921
            ],
            [
              78.516212,
              17.392068
            ],
            [
              78.516801,
              17.386643
            ],
            [
              78.517092,
              17.385442
            ],
            [
              78.517534,
              17.384307
            ],
            [
              78.518382,
              17.382236
            ]
          ]
        ]
      }
    }
  ]
}