{
  "type": "FeatureCollection",
  "features": [
    {
      "type": "Feature",
      "properties": {},
      "geometry": {
        "type": "Polygon",
        "coordinates": [
          [
            [
              78.47475,
              17.384205
            ],
            [
              78.475317,
              17.383006
            ],
            [
              78.475182,
              17.379638
            ],
            [
              78.474798,
              17.375015
            ],
            [
              78.478979,
              17.373681
            ],
            [
              78.484955,
              17.380857
            ],
            [
              78.482147,
              17.38234
            ],
            [
              78.485845,
              17.386773
            ],
            [
              78.484942,
              17.39042
            ],
            [
              78.483496,
              17.393913
            ],
            [
              78.484605,
              17.394352
            ],
            [
              78.485511,
              17.39477
            ],
            [
              78.485277,
              17.395247
            ],
            [
              78.484472,
              17.396551
            ],
            [
              78.483424,
              17.397273
            ],
            [
              78.482422,
              17.398044
            ],
            [
              78.481181,
              17.398737
            ],
            [
              78.479792,
              17.399351
            ],
            [
              78.478016,
              17.400244
            ],
            [
              78.476217,
              17.400919
            ],
            [
              78.474483,
              17.401161
            ],
            [
              78.473436,
              17.401156
            ],
            [
              78.472406,
              17.401049
            ],
            [
              78.47089,
              17.400811
            ],
            [
              78.470555,
              17.400392
            ],
            [
              78.471064,
              17.395852
            ],
            [
              78.47047,
              17.394641
            ],
            [
              78.470342,
              17.393103
            ],
            [
              78.470189,
              17.390369
            ],
            [
              78.47258,
              17.387207
            ],
            [
              78.473846,
              17.385447
            ],
            [
              78.47475,
              17.384205
            ]
          ]
        ]
      }
    }
  ]
}