{
  "type": "FeatureCollection",
  "features": [
    {
      "type": "Feature",
      "properties": {},
      "geometry": {
        "type": "Polygon",
        "coordinates": [
          [
            [
              78.502077,
              17.426748
            ],
            [
              78.502047,
              17.425329
            ],
            [
              78.501911,
              17.4236
            ],
            [
              78.501786,
              17.42277
            ],
            [
              78.501438,
              17.421939
            ],
            [
              78.499761,
              17.41846
            ],
            [
              78.500876,
              17.418168
            ],
            [
              78.502157,
              17.41827
            ],
            [
              78.502929,
              17.417653
            ],
            [
              78.504733,
              17.416414
            ],
            [
              78.505849,
              17.416155
            ],
            [
              78.50692,
              17.416096
            ],
            [
              78.508156,
              17.416248
            ],
            [
              78.509922,
              17.415804
            ],
            [
              78.513043,
              17.414952
            ],
            [
              78.51459,
              17.414535
            ],
            [
              78.516145,
              17.413966
            ],
            [
              78.518442,
              17.413371
            ],
            [
              78.519872,
              17.419212
            ],
            [
              78.523723,
              17.419181
            ],
            [
              78.524799,
              17.422457
            ],
            [
              78.52324,
              17.426053
            ],
            [
              78.52411,
              17.427364
            ],
            [
              78.519461,
              17.42801
            ],
            [
              78.518047,
              17.429759
            ],
            [
              78.516358,
              17.431471
            ],
            [
              78.51402,
              17.432776
            ],
            [
              78.511099,
              17.433871
            ],
            [
              78.510056,
              17.433244
            ],
            [
              78.507807,
              17.433121
            ],
            [
              78.506375,
              17.432996
            ],
            [
              78.505845,
              17.43207
            ],
            [
              78.504998,
              17.430224
            ],
            [
              78.502436,
              17.428454
            ],
            [
              78.502077,
              17.426748
            ]
          ]
        ]
      }
    }
  ]
}