{
  "type": "FeatureCollection",
  "features": [
    {
      "type": "Feature",
      "properties": {},
      "geometry": {
        "type": "Polygon",
        "coordinates": [
          [
            [
              78.457997,
              17.441679
            ],
            [
              78.457613,
              17.439745
            ],
            [
              78.457455,
              17.438807
            ],
            [
              78.45895,
              17.438633
            ],
            [
              78.462866,
              17.437324
            ],
            [
              78.464676,
              17.436572
            ],
            [
              78.466942,
              17.437033
            ],
            [
              78.472871,
              17.437779
            ],
            [
              78.477252,
              17.435313
            ],
            [
              78.483557,
              17.433413
            ],
            [
              78.488319,
              17.432856
            ],
            [
              78.488363,
              17.434136
            ],
            [
              78.48845,
              17.435695
            ],
            [
              78.488583,
              17.437111
            ],
            [
              78.488597,
              17.437903
            ],
            [
              78.48856,
              17.438473
            ],
            [
              78.487838,
              17.440678
            ],
            [
              78.487381,
              17.442927
            ],
            [
              78.48735,
              17.443208
            ],
            [
              78.485618,
              17.443269
            ],
            [
              78.477329,
              17.443412
            ],
            [
              78.472172,
              17.444002
            ],
            [
              78.467329,
              17.444561
            ],
            [
              78.464265,
              17.445015
            ],
            [
              78.462314,
              17.444356
            ],
            [
              78.459859,
              17.443214
            ],
            [
              78.457997,
              17.441679
            ]
          ]
        ]
      }
    }
  ]
}