{
  "type": "FeatureCollection",
  "features": [
    {
      "type": "Feature",
      "properties": {},
      "geometry": {
        "type": "Polygon",
        "coordinates": [
          [
            [
              78.487672,
              17.405526
            ],
            [
              78.491858,
              17.404344
            ],
            [
              78.495238,
              17.403692
            ],
            [
              78.497146,
              17.407834
            ],
            [
              78.497666,
              17.409738
            ],
            [
              78.497779,
              17.410496
            ],
            [
              78.497736,
              17.411263
            ],
            [
              78.497643,
              17.412118
            ],
            [
              78.497459,
              17.412927
            ],
            [
              78.497567,
              17.414162
            ],
            [
              78.498142,
              17.415414
            ],
            [
              78.499235,
              17.4177
            ],
            [
              78.500537,
              17.42072
            ],
            [
              78.501209,
              17.421883
            ],
            [
              78.501449,
              17.42239
            ],
            [
              78.501562,
              17.422942
            ],
            [
              78.501742,
              17.424407
            ],
            [
              78.501833,
              17.425948
            ],
            [
              78.501946,
              17.4275
            ],
            [
              78.502356,
              17.428944
            ],
            [
              78.502009,
              17.429435
            ],
            [
              78.501616,
              17.429833
            ],
            [
              78.501021,
              17.430327
            ],
            [
              78.500667,
              17.430484
            ],
            [
              78.499963,
              17.430547
            ],
            [
              78.499354,
              17.430844
            ],
            [
              78.498828,
              17.431134
            ],
            [
              78.498358,
              17.43151
            ],
            [
              78.498058,
              17.431864
            ],
            [
              78.492582,
              17.431261
            ],
            [
              78.491308,
              17.431478
            ],
            [
              78.490087,
              17.431788
            ],
            [
              78.486532,
              17.42574
            ],
            [
              78.485537,
              17.422539
            ],
            [
              78.478495,
              17.413123
            ],
            [
              78.484425,
              17.410559
            ],
            [
              78.488219,
              17.409606
            ],
            [
              78.487672,
              17.405526
            ]
          ]
        ]
      }
    }
  ]
}