{
  "type": "FeatureCollection",
  "features": [
    {
      "type": "Feature",
      "properties": {},
      "geometry": {
        "type": "Polygon",
        "coordinates": [
          [
            [
              78.504531,
              17.403927
            ],
            [
              78.503729,
              17.402153
            ],
            [
              78.503038,
              17.400539
            ],
            [
              78.502802,
              17.398888
            ],
            [
              78.502463,
              17.397297
            ],
            [
              78.503237,
              17.396104
            ],
            [
              78.501972,
              17.39511
            ],
            [
              78.50305,
              17.394843
            ],
            [
              78.504647,
              17.393929
            ],
            [
              78.504597,
              17.389711
            ],
            [
              78.505938,
              17.390389
            ],
            [
              78.507328,
              17.390775
            ],
            [
              78.509122,
              17.391097
            ],
            [
              78.510918,
              17.391414
            ],
            [
              78.513637,
              17.391788
            ],
            [
              78.513596,
              17.392237
            ],
            [
              78.512911,
              17.392978
            ],
            [
              78.512486,
              17.393375
            ],
            [
              78.511964,
              17.393731
            ],
            [
              78.51082,
              17.394441
            ],
            [
              78.512489,
              17.398559
            ],
            [
              78.513268,
              17.400536
            ],
            [
              78.515395,
              17.404998
            ],
            [
              78.516829,
              17.407861
            ],
            [
              78.518011,
              17.409667
            ],
            [
              78.518433,
              17.413281
            ],
            [
              78.517616,
              17.4135
            ],
            [
              78.516806,
              17.413681
            ],
            [
              78.515874,
              17.413982
            ],
            [
              78.515068,
              17.414249
            ],
            [
              78.514448,
              17.414501
            ],
            [
              78.513832,
              17.414667
            ],
            [
              78.513128,
              17.414881
            ],
            [
              78.512333,
              17.415091
            ],
            [
              78.509817,
              17.415706
            ],
            [
              78.508117,
              17.41614
            ],
            [
              78.506634,
              17.415984
            ],
            [
              78.50567,
              17.41614
            ],
            [
              78.504707,
              17.416336
            ],
            [
              78.502079,
              17.418176
            ],
            [
              78.500645,
              17.418118
            ],
            [
              78.499758,
              17.418369
            ],
            [
              78.499522,
              17.417717
            ],
            [
              78.497788,
              17.414127
            ],
            [
              78.497788,
              17.412625
            ],
            [
              78.498057,
              17.411041
            ],
            [
              78.497689,
              17.408812
            ],
            [
              78.496813,
              17.406813
            ],
            [
              78.504531,
              17.403927
            ]
          ]
        ]
      }
    }
  ]
}