{
  "type": "FeatureCollection",
  "features": [
    {
      "type": "Feature",
      "properties": {},
      "geometry": {
        "type": "Polygon",
        "coordinates": [
          [
            [
              78.492865,
              17.431585
            ],
            [
              78.493636,
              17.43155
            ],
            [
              78.498122,
              17.431992
            ],
            [
              78.498272,
              17.431746
            ],
            [
              78.498497,
              17.431485
            ],
            [
              78.499112,
              17.431114
            ],
            [
              78.499881,
              17.430725
            ],
            [
              78.500578,
              17.430606
            ],
            [
              78.501212,
              17.430338
            ],
            [
              78.501825,
              17.429884
            ],
            [
              78.502196,
              17.429434
            ],
            [
              78.502475,
              17.428775
            ],
            [
              78.504788,
              17.430263
            ],
            [
              78.506242,
              17.433296
            ],
            [
              78.505551,
              17.435134
            ],
            [
              78.505524,
              17.442362
            ],
            [
              78.495758,
              17.442999
            ],
            [
              78.495521,
              17.440356
            ],
            [
              78.495161,
              17.439025
            ],
            [
              78.494884,
              17.438143
            ],
            [
              78.494497,
              17.437769
            ],
            [
              78.494296,
              17.437564
            ],
            [
              78.494203,
              17.437347
            ],
            [
              78.493656,
              17.43557
            ],
            [
              78.493468,
              17.43472
            ],
            [
              78.493408,
              17.433816
            ],
            [
              78.492865,
              17.431585
            ]
          ]
        ]
      }
    }
  ]
}