{
  "type": "FeatureCollection",
  "features": [
    {
      "type": "Feature",
      "properties": {},
      "geometry": {
        "type": "Polygon",
        "coordinates": [
          [
            [
              78.334064,
              17.495509
            ],
            [
              78.334914,
              17.50037
            ],
            [
              78.33372,
              17.504501
            ],
            [
              78.33374,
              17.509201
            ],
            [
              78.330366,
              17.51839
            ],
            [
              78.32123,
              17.524887
            ],
            [
              78.3119,
              17.527835
            ],
            [
              78.301469,
              17.531595
            ],
            [
              78.298477,
              17.533939
            ],
            [
              78.298843,
              17.52492
            ],
            [
              78.29996,
              17.519459
            ],
            [
              78.300023,
              17.517148
            ],
            [
              78.301084,
              17.514069
            ],
            [
              78.301466,
              17.513642
            ],
            [
              78.301905,
              17.512636
            ],
            [
              78.301703,
              17.511802
            ],
            [
              78.301269,
              17.510969
            ],
            [
              78.300507,
              17.509117
            ],
            [
              78.292238,
              17.512296
            ],
            [
              78.284364,
              17.514676
            ],
            [
              78.283341,
              17.512812
            ],
            [
              78.282468,
              17.510748
            ],
            [
              78.281816,
              17.507575
            ],
            [
              78.28224,
              17.499761
            ],
            [
              78.281255,
              17.496645
            ],
            [
              78.28073,
              17.492408
            ],
            [
              78.280857,
              17.476373
            ],
            [
              78.28776,
              17.474935
            ],
            [
              78.303653,
              17.480291
            ],
            [
              78.311168,
              17.482458
            ],
            [
              78.311011,
              17.479744
            ],
            [
              78.30924,
              17.479221
            ],
            [
              78.308933,
              17.477149
            ],
            [
              78.308842,
              17.474721
            ],
            [
              78.309375,
              17.472839
            ],
            [
              78.314423,
              17.47146
            ],
            [
              78.319868,
              17.472331
            ],
            [
              78.319853,
              17.476413
            ],
            [
              78.319797,
              17.479543
            ],
            [
              78.320647,
              17.484643
            ],
            [
              78.333896,
              17.487286
            ],
            [
              78.334,
              17.491541
            ],
            [
              78.334064,
              17.495509
            ]
          ]
        ]
      }
    }
  ]
}