{
  "type": "FeatureCollection",
  "features": [
    {
      "type": "Feature",
      "properties": {},
      "geometry": {
        "type": "Polygon",
        "coordinates": [
          [
            [
              78.330104,
              17.471316
            ],
            [
              78.331858,
              17.469009
            ],
            [
              78.334528,
              17.465238
            ],
            [
              78.340593,
              17.456932
            ],
            [
              78.34682,
              17.451673
            ],
            [
              78.352048,
              17.446163
            ],
            [
              78.364952,
              17.446621
            ],
            [
              78.370598,
              17.452008
            ],
            [
              78.377143,
              17.456614
            ],
            [
              78.383853,
              17.46662
            ],
            [
              78.37141,
              17.47386
            ],
            [
              78.370119,
              17.481019
            ],
            [
              78.350423,
              17.487106
            ],
            [
              78.349811,
              17.479748
            ],
            [
              78.335999,
              17.483087
            ],
            [
              78.336371,
              17.480716
            ],
            [
              78.330104,
              17.471316
            ]
          ]
        ]
      }
    }
  ]
}