{
  "type": "FeatureCollection",
  "features": [
    {
      "type": "Feature",
      "properties": {},
      "geometry": {
        "type": "Polygon",
        "coordinates": [
          [
            [
              78.432304,
              17.425141
            ],
            [
              78.432784,
              17.425109
            ],
            [
              78.439713,
              17.427072
            ],
            [
              78.439644,
              17.430018
            ],
            [
              78.434636,
              17.430083
            ],
            [
              78.433145,
              17.429595
            ],
            [
              78.4314,
              17.429554
            ],
            [
              78.432954,
              17.433932
            ],
            [
              78.434096,
              17.435021
            ],
            [
              78.434161,
              17.435576
            ],
            [
              78.433312,
              17.436398
            ],
            [
              78.428232,
              17.437351
            ],
            [
              78.426485,
              17.438183
            ],
            [
              78.424105,
              17.439253
            ],
            [
              78.423189,
              17.437714
            ],
            [
              78.421198,
              17.431329
            ],
            [
              78.415085,
              17.426614
            ],
            [
              78.418275,
              17.425894
            ],
            [
              78.42661,
              17.423341
            ],
            [
              78.432304,
              17.425141
            ]
          ]
        ]
      }
    }
  ]
}