{
  "type": "FeatureCollection",
  "features": [
    {
      "type": "Feature",
      "properties": {},
      "geometry": {
        "type": "Polygon",
        "coordinates": [
          [
            [
              78.411516,
              17.450401
            ],
            [
              78.411884,
              17.45114
            ],
            [
              78.412298,
              17.451783
            ],
            [
              78.412668,
              17.452547
            ],
            [
              78.412929,
              17.453491
            ],
            [
              78.410752,
              17.454239
            ],
            [
              78.40913,
              17.454795
            ],
            [
              78.408189,
              17.45472
            ],
            [
              78.406464,
              17.454605
            ],
            [
              78.40546,
              17.454462
            ],
            [
              78.404302,
              17.454381
            ],
            [
              78.403272,
              17.454864
            ],
            [
              78.39982,
              17.456348
            ],
            [
              78.398483,
              17.457033
            ],
            [
              78.397243,
              17.457699
            ],
            [
              78.397907,
              17.454905
            ],
            [
              78.396657,
              17.451663
            ],
            [
              78.393805,
              17.44313
            ],
            [
              78.402047,
              17.441788
            ],
            [
              78.404273,
              17.450768
            ],
            [
              78.411516,
              17.450401
            ]
          ]
        ]
      }
    }
  ]
}