{
  "type": "FeatureCollection",
  "features": [
    {
      "type": "Feature",
      "properties": {},
      "geometry": {
        "type": "Polygon",
        "coordinates": [
          [
            [
              72.858398,
              19.317364
            ],
            [
              72.854115,
              19.318634
            ],
            [
              72.849437,
              19.318675
            ],
            [
              72.844802,
              19.318958
            ],
            [
              72.842656,
              19.318837
            ],
            [
              72.840553,
              19.317905
            ],
            [
              72.825617,
              19.310534
            ],
            [
              72.814446,
              19.303648
            ],
            [
              72.787846,
              19.31141
            ],
            [
              72.784685,
              19.294819
            ],
            [
              72.777858,
              19.279639
            ],
            [
              72.782108,
              19.259288
            ],
            [
              72.776891,
              19.218854
            ],
            [
              72.781831,
              19.192872
            ],
            [
              72.781309,
              19.167129
            ],
            [
              72.788098,
              19.148162
            ],
            [
              72.787019,
              19.127755
            ],
            [
              72.816679,
              19.108089
            ],
            [
              72.825278,
              19.097038
            ],
            [
              72.907091,
              19.102754
            ],
            [
              72.909297,
              19.155689
            ],
            [
              72.900414,
              19.173913
            ],
            [
              72.887381,
              19.209491
            ],
            [
              72.879247,
              19.237519
            ],
            [
              72.876465,
              19.246804
            ],
            [
              72.895603,
              19.259148
            ],
            [
              72.897332,
              19.284368
            ],
            [
              72.887345,
              19.302555
            ],
            [
              72.858398,
              19.317364
            ]
          ]
        ]
      }
    }
  ]
}