{
  "type": "FeatureCollection",
  "features": [
    {
      "type": "Feature",
      "properties": {},
      "geometry": {
        "type": "Polygon",
        "coordinates": [
          [
            [
              78.44591,
              17.434216
            ],
            [
              78.448367,
              17.434607
            ],
            [
              78.455569,
              17.436031
            ],
            [
              78.457149,
              17.439971
            ],
            [
              78.454705,
              17.442092
            ],
            [
              78.451368,
              17.443852
            ],
            [
              78.45119,
              17.449052
            ],
            [
              78.449789,
              17.455169
            ],
            [
              78.43592,
              17.457087
            ],
            [
              78.429943,
              17.458095
            ],
            [
              78.428314,
              17.454388
            ],
            [
              78.430244,
              17.454006
            ],
            [
              78.431995,
              17.454332
            ],
            [
              78.432436,
              17.452247
            ],
            [
              78.432993,
              17.449122
            ],
            [
              78.438043,
              17.448122
            ],
            [
              78.439076,
              17.446866
            ],
            [
              78.44591,
              17.434216
            ]
          ]
        ]
      }
    }
  ]
}