{
  "type": "FeatureCollection",
  "features": [
    {
      "type": "Feature",
      "properties": {},
      "geometry": {
        "type": "Polygon",
        "coordinates": [
          [
            [
              78.496026,
              17.500621
            ],
            [
              78.504325,
              17.492052
            ],
            [
              78.511655,
              17.48451
            ],
            [
              78.513948,
              17.48423
            ],
            [
              78.516167,
              17.483374
            ],
            [
              78.516712,
              17.482813
            ],
            [
              78.517092,
              17.481679
            ],
            [
              78.517623,
              17.479767
            ],
            [
              78.521465,
              17.479399
            ],
            [
              78.525561,
              17.477259
            ],
            [
              78.526278,
              17.476684
            ],
            [
              78.526996,
              17.47675
            ],
            [
              78.528151,
              17.477285
            ],
            [
              78.530118,
              17.478208
            ],
            [
              78.531939,
              17.479313
            ],
            [
              78.535706,
              17.481601
            ],
            [
              78.540117,
              17.483226
            ],
            [
              78.544509,
              17.483523
            ],
            [
              78.546679,
              17.483802
            ],
            [
              78.548846,
              17.484143
            ],
            [
              78.547885,
              17.484733
            ],
            [
              78.546899,
              17.48518
            ],
            [
              78.547614,
              17.486422
            ],
            [
              78.54915,
              17.488878
            ],
            [
              78.549961,
              17.490002
            ],
            [
              78.538703,
              17.500894
            ],
            [
              78.530631,
              17.507651
            ],
            [
              78.522275,
              17.508204
            ],
            [
              78.517427,
              17.510409
            ],
            [
              78.511062,
              17.511524
            ],
            [
              78.50123,
              17.508192
            ],
            [
              78.491056,
              17.506331
            ],
            [
              78.496026,
              17.500621
            ]
          ]
        ]
      }
    }
  ]
}