{
  "type": "FeatureCollection",
  "features": [
    {
      "type": "Feature",
      "properties": {},
      "geometry": {
        "type": "Polygon",
        "coordinates": [
          [
            [
              78.389908,
              17.498782
            ],
            [
              78.391121,
              17.498445
            ],
            [
              78.391583,
              17.499459
            ],
            [
              78.391766,
              17.501136
            ],
            [
              78.391954,
              17.502742
            ],
            [
              78.392139,
              17.504182
            ],
            [
              78.392291,
              17.505628
            ],
            [
              78.391864,
              17.508674
            ],
            [
              78.391468,
              17.509328
            ],
            [
              78.390737,
              17.510682
            ],
            [
              78.389359,
              17.511936
            ],
            [
              78.390106,
              17.513313
            ],
            [
              78.389858,
              17.514522
            ],
            [
              78.388775,
              17.514769
            ],
            [
              78.381867,
              17.517526
            ],
            [
              78.375876,
              17.522065
            ],
            [
              78.372257,
              17.52013
            ],
            [
              78.372402,
              17.514335
            ],
            [
              78.375875,
              17.508255
            ],
            [
              78.361539,
              17.507867
            ],
            [
              78.353048,
              17.50878
            ],
            [
              78.34949,
              17.50578
            ],
            [
              78.349367,
              17.502673
            ],
            [
              78.353824,
              17.494812
            ],
            [
              78.372765,
              17.49673
            ],
            [
              78.382499,
              17.4993
            ],
            [
              78.389908,
              17.498782
            ]
          ]
        ]
      }
    }
  ]
}