{
  "type": "FeatureCollection",
  "features": [
    {
      "type": "Feature",
      "properties": {},
      "geometry": {
        "type": "Polygon",
        "coordinates": [
          [
            [
              78.347424,
              17.529575
            ],
            [
              78.347134,
              17.528009
            ],
            [
              78.343868,
              17.516951
            ],
            [
              78.34434,
              17.516951
            ],
            [
              78.344786,
              17.516918
            ],
            [
              78.347112,
              17.51666
            ],
            [
              78.348406,
              17.516485
            ],
            [
              78.349261,
              17.516585
            ],
            [
              78.353552,
              17.516775
            ],
            [
              78.357107,
              17.516875
            ],
            [
              78.36044,
              17.517275
            ],
            [
              78.369874,
              17.515134
            ],
            [
              78.372333,
              17.515435
            ],
            [
              78.37343,
              17.512905
            ],
            [
              78.37385,
              17.511675
            ],
            [
              78.373294,
              17.510117
            ],
            [
              78.37388,
              17.509217
            ],
            [
              78.374524,
              17.508938
            ],
            [
              78.37683,
              17.507978
            ],
            [
              78.377314,
              17.506791
            ],
            [
              78.377441,
              17.497479
            ],
            [
              78.374828,
              17.492453
            ],
            [
              78.379663,
              17.489857
            ],
            [
              78.385577,
              17.486544
            ],
            [
              78.391836,
              17.497902
            ],
            [
              78.38988,
              17.498747
            ],
            [
              78.386214,
              17.506584
            ],
            [
              78.381107,
              17.516929
            ],
            [
              78.38121,
              17.517034
            ],
            [
              78.385847,
              17.528466
            ],
            [
              78.388166,
              17.541863
            ],
            [
              78.395498,
              17.540549
            ],
            [
              78.402709,
              17.548165
            ],
            [
              78.409698,
              17.551656
            ],
            [
              78.410808,
              17.557791
            ],
            [
              78.406592,
              17.560858
            ],
            [
              78.400268,
              17.565618
            ],
            [
              78.387843,
              17.571541
            ],
            [
              78.381519,
              17.565512
            ],
            [
              78.377858,
              17.561282
            ],
            [
              78.367873,
              17.560964
            ],
            [
              78.358367,
              17.560923
            ],
            [
              78.346739,
              17.56133
            ],
            [
              78.335256,
              17.561282
            ],
            [
              78.331842,
              17.560534
            ],
            [
              78.33255,
              17.558525
            ],
            [
              78.342245,
              17.551444
            ],
            [
              78.344059,
              17.546048
            ],
            [
              78.349452,
              17.540892
            ],
            [
              78.3499,
              17.535577
            ],
            [
              78.347424,
              17.529575
            ]
          ]
        ]
      }
    }
  ]
}