{
  "type": "FeatureCollection",
  "features": [
    {
      "type": "Feature",
      "properties": {},
      "geometry": {
        "type": "Polygon",
        "coordinates": [
          [
            [
              78.292292,
              17.41335
            ],
            [
              78.300736,
              17.412461
            ],
            [
              78.312448,
              17.412311
            ],
            [
              78.332047,
              17.40757
            ],
            [
              78.341326,
              17.401688
            ],
            [
              78.350392,
              17.398533
            ],
            [
              78.359214,
              17.40169
            ],
            [
              78.36899,
              17.407408
            ],
            [
              78.385033,
              17.42002
            ],
            [
              78.373903,
              17.428627
            ],
            [
              78.385499,
              17.470927
            ],
            [
              78.381615,
              17.472588
            ],
            [
              78.374443,
              17.471838
            ],
            [
              78.365852,
              17.471668
            ],
            [
              78.357775,
              17.473015
            ],
            [
              78.354942,
              17.474046
            ],
            [
              78.352791,
              17.475446
            ],
            [
              78.350256,
              17.476208
            ],
            [
              78.349432,
              17.477878
            ],
            [
              78.349123,
              17.479549
            ],
            [
              78.341655,
              17.481808
            ],
            [
              78.336144,
              17.482742
            ],
            [
              78.336453,
              17.480581
            ],
            [
              78.334856,
              17.478026
            ],
            [
              78.330633,
              17.470608
            ],
            [
              78.336762,
              17.462551
            ],
            [
              78.326513,
              17.454887
            ],
            [
              78.30756,
              17.445699
            ],
            [
              78.304367,
              17.440393
            ],
            [
              78.300504,
              17.436069
            ],
            [
              78.292292,
              17.41335
            ]
          ]
        ]
      }
    }
  ]
}