{
  "type": "FeatureCollection",
  "features": [
    {
      "type": "Feature",
      "properties": {},
      "geometry": {
        "type": "Polygon",
        "coordinates": [
          [
            [
              78.499218,
              17.417818
            ],
            [
              78.501965,
              17.417638
            ],
            [
              78.50376,
              17.416989
            ],
            [
              78.50561,
              17.416314
            ],
            [
              78.507297,
              17.416054
            ],
            [
              78.508793,
              17.415847
            ],
            [
              78.510425,
              17.415405
            ],
            [
              78.511975,
              17.414731
            ],
            [
              78.512383,
              17.414601
            ],
            [
              78.51456,
              17.414419
            ],
            [
              78.516083,
              17.413978
            ],
            [
              78.517742,
              17.413329
            ],
            [
              78.51864,
              17.413407
            ],
            [
              78.519782,
              17.417516
            ],
            [
              78.518531,
              17.421617
            ],
            [
              78.515947,
              17.425683
            ],
            [
              78.517715,
              17.427145
            ],
            [
              78.510642,
              17.431245
            ],
            [
              78.506617,
              17.430794
            ],
            [
              78.504196,
              17.42986
            ],
            [
              78.502101,
              17.427992
            ],
            [
              78.50202,
              17.424462
            ],
            [
              78.501421,
              17.421919
            ],
            [
              78.499218,
              17.417818
            ]
          ]
        ]
      }
    }
  ]
}