{
  "type": "FeatureCollection",
  "features": [
    {
      "type": "Feature",
      "properties": {},
      "geometry": {
        "type": "Polygon",
        "coordinates": [
          [
            [
              78.495702,
              17.446587
            ],
            [
              78.50538,
              17.442928
            ],
            [
              78.505491,
              17.433922
            ],
            [
              78.507894,
              17.434871
            ],
            [
              78.509748,
              17.43556
            ],
            [
              78.511759,
              17.436108
            ],
            [
              78.516055,
              17.438088
            ],
            [
              78.521518,
              17.440056
            ],
            [
              78.521243,
              17.442045
            ],
            [
              78.522686,
              17.445759
            ],
            [
              78.523439,
              17.450561
            ],
            [
              78.524585,
              17.453147
            ],
            [
              78.525285,
              17.45555
            ],
            [
              78.526905,
              17.458135
            ],
            [
              78.528665,
              17.458711
            ],
            [
              78.530503,
              17.460147
            ],
            [
              78.52829,
              17.462397
            ],
            [
              78.52144,
              17.460912
            ],
            [
              78.51453,
              17.458676
            ],
            [
              78.511558,
              17.457699
            ],
            [
              78.508353,
              17.456969
            ],
            [
              78.506747,
              17.456366
            ],
            [
              78.505045,
              17.45567
            ],
            [
              78.501774,
              17.45438
            ],
            [
              78.499407,
              17.453755
            ],
            [
              78.497952,
              17.453953
            ],
            [
              78.496732,
              17.453639
            ],
            [
              78.495702,
              17.446587
            ]
          ]
        ]
      }
    }
  ]
}