{
  "type": "FeatureCollection",
  "features": [
    {
      "type": "Feature",
      "properties": {},
      "geometry": {
        "type": "Polygon",
        "coordinates": [
          [
            [
              78.567041,
              17.487614
            ],
            [
              78.565431,
              17.483794
            ],
            [
              78.564426,
              17.482189
            ],
            [
              78.564008,
              17.480698
            ],
            [
              78.563692,
              17.477232
            ],
            [
              78.567063,
              17.476645
            ],
            [
              78.569092,
              17.474274
            ],
            [
              78.571656,
              17.473298
            ],
            [
              78.584948,
              17.460159
            ],
            [
              78.59464,
              17.459153
            ],
            [
              78.601933,
              17.458467
            ],
            [
              78.607313,
              17.460732
            ],
            [
              78.613589,
              17.464479
            ],
            [
              78.616667,
              17.468753
            ],
            [
              78.616914,
              17.481096
            ],
            [
              78.605827,
              17.486839
            ],
            [
              78.597644,
              17.492788
            ],
            [
              78.589266,
              17.501861
            ],
            [
              78.585567,
              17.500141
            ],
            [
              78.583554,
              17.499119
            ],
            [
              78.58266,
              17.498621
            ],
            [
              78.581896,
              17.498061
            ],
            [
              78.579748,
              17.496002
            ],
            [
              78.577896,
              17.493924
            ],
            [
              78.572785,
              17.490158
            ],
            [
              78.570782,
              17.489349
            ],
            [
              78.569032,
              17.488961
            ],
            [
              78.567041,
              17.487614
            ]
          ]
        ]
      }
    }
  ]
}