{
  "type": "FeatureCollection",
  "features": [
    {
      "type": "Feature",
      "properties": {},
      "geometry": {
        "type": "Polygon",
        "coordinates": [
          [
            [
              78.377745,
              17.478269
            ],
            [
              78.379086,
              17.477092
            ],
            [
              78.389713,
              17.493831
            ],
            [
              78.391967,
              17.49767
            ],
            [
              78.389927,
              17.498387
            ],
            [
              78.383111,
              17.49941
            ],
            [
              78.378549,
              17.497926
            ],
            [
              78.377583,
              17.495008
            ],
            [
              78.36964,
              17.486306
            ],
            [
              78.377745,
              17.478269
            ]
          ]
        ]
      }
    }
  ]
}