{
  "type": "FeatureCollection",
  "features": [
    {
      "type": "Feature",
      "properties": {},
      "geometry": {
        "type": "Polygon",
        "coordinates": [
          [
            [
              78.364609,
              17.529184
            ],
            [
              78.368308,
              17.530911
            ],
            [
              78.377341,
              17.542282
            ],
            [
              78.371184,
              17.546392
            ],
            [
              78.360908,
              17.55231
            ],
            [
              78.351549,
              17.560941
            ],
            [
              78.336108,
              17.561245
            ],
            [
              78.333633,
              17.558207
            ],
            [
              78.354745,
              17.540941
            ],
            [
              78.355976,
              17.523888
            ],
            [
              78.364609,
              17.529184
            ]
          ]
        ]
      }
    }
  ]
}