{
  "type": "FeatureCollection",
  "features": [
    {
      "type": "Feature",
      "properties": {},
      "geometry": {
        "type": "Polygon",
        "coordinates": [
          [
            [
              78.385137,
              17.54209
            ],
            [
              78.393107,
              17.54099
            ],
            [
              78.399276,
              17.542455
            ],
            [
              78.409,
              17.551556
            ],
            [
              78.411885,
              17.557429
            ],
            [
              78.402981,
              17.564386
            ],
            [
              78.399186,
              17.56615
            ],
            [
              78.382023,
              17.565559
            ],
            [
              78.37366,
              17.569484
            ],
            [
              78.350569,
              17.573274
            ],
            [
              78.346096,
              17.563922
            ],
            [
              78.353987,
              17.559992
            ],
            [
              78.361924,
              17.551875
            ],
            [
              78.371794,
              17.546194
            ],
            [
              78.385137,
              17.54209
            ]
          ]
        ]
      }
    }
  ]
}