{
  "type": "FeatureCollection",
  "features": [
    {
      "type": "Feature",
      "properties": {},
      "geometry": {
        "type": "Polygon",
        "coordinates": [
          [
            [
              78.391715,
              17.469831
            ],
            [
              78.393986,
              17.47339
            ],
            [
              78.39577,
              17.478239
            ],
            [
              78.393445,
              17.482829
            ],
            [
              78.389768,
              17.484274
            ],
            [
              78.381062,
              17.480096
            ],
            [
              78.379548,
              17.476795
            ],
            [
              78.385983,
              17.472049
            ],
            [
              78.391715,
              17.469831
            ]
          ]
        ]
      }
    }
  ]
}