{
  "type": "FeatureCollection",
  "features": [
    {
      "type": "Feature",
      "properties": {},
      "geometry": {
        "type": "Polygon",
        "coordinates": [
          [
            [
              78.396901,
              17.513048
            ],
            [
              78.40024,
              17.514441
            ],
            [
              78.406292,
              17.517425
            ],
            [
              78.405248,
              17.525977
            ],
            [
              78.401702,
              17.53323
            ],
            [
              78.394788,
              17.540448
            ],
            [
              78.388848,
              17.541213
            ],
            [
              78.386523,
              17.531125
            ],
            [
              78.384106,
              17.515497
            ],
            [
              78.387307,
              17.513283
            ],
            [
              78.388312,
              17.511298
            ],
            [
              78.396901,
              17.513048
            ]
          ]
        ]
      }
    }
  ]
}