{
  "type": "FeatureCollection",
  "features": [
    {
      "type": "Feature",
      "properties": {},
      "geometry": {
        "type": "Polygon",
        "coordinates": [
          [
            [
              78.446142,
              17.467395
            ],
            [
              78.445705,
              17.466562
            ],
            [
              78.443555,
              17.464767
            ],
            [
              78.440734,
              17.46246
            ],
            [
              78.441137,
              17.462396
            ],
            [
              78.443287,
              17.462044
            ],
            [
              78.449399,
              17.461878
            ],
            [
              78.449488,
              17.461052
            ],
            [
              78.449985,
              17.458156
            ],
            [
              78.45029,
              17.455944
            ],
            [
              78.450542,
              17.453938
            ],
            [
              78.453565,
              17.453809
            ],
            [
              78.454304,
              17.456853
            ],
            [
              78.455378,
              17.460057
            ],
            [
              78.459879,
              17.457943
            ],
            [
              78.462163,
              17.462941
            ],
            [
              78.466664,
              17.461627
            ],
            [
              78.470762,
              17.462653
            ],
            [
              78.472273,
              17.463197
            ],
            [
              78.472542,
              17.464479
            ],
            [
              78.472777,
              17.466337
            ],
            [
              78.472408,
              17.469029
            ],
            [
              78.473617,
              17.4714
            ],
            [
              78.473852,
              17.474828
            ],
            [
              78.473012,
              17.480851
            ],
            [
              78.471938,
              17.481299
            ],
            [
              78.468579,
              17.479089
            ],
            [
              78.448459,
              17.477295
            ],
            [
              78.446142,
              17.467395
            ]
          ]
        ]
      }
    }
  ]
}