{
  "type": "FeatureCollection",
  "features": [
    {
      "type": "Feature",
      "properties": {},
      "geometry": {
        "type": "Polygon",
        "coordinates": [
          [
            [
              78.311174,
              17.48048
            ],
            [
              78.317109,
              17.480103
            ],
            [
              78.330055,
              17.470861
            ],
            [
              78.334308,
              17.47839
            ],
            [
              78.335998,
              17.480819
            ],
            [
              78.335692,
              17.483358
            ],
            [
              78.34233,
              17.482599
            ],
            [
              78.34955,
              17.479973
            ],
            [
              78.349459,
              17.484992
            ],
            [
              78.347136,
              17.487105
            ],
            [
              78.34414,
              17.489618
            ],
            [
              78.345179,
              17.494953
            ],
            [
              78.343985,
              17.506227
            ],
            [
              78.343704,
              17.517839
            ],
            [
              78.349552,
              17.537418
            ],
            [
              78.349084,
              17.540924
            ],
            [
              78.342924,
              17.54671
            ],
            [
              78.341365,
              17.551295
            ],
            [
              78.333047,
              17.557776
            ],
            [
              78.330876,
              17.560515
            ],
            [
              78.315895,
              17.55687
            ],
            [
              78.296915,
              17.552346
            ],
            [
              78.296996,
              17.549002
            ],
            [
              78.297947,
              17.539907
            ],
            [
              78.298724,
              17.52906
            ],
            [
              78.299295,
              17.523657
            ],
            [
              78.299947,
              17.518934
            ],
            [
              78.303111,
              17.507599
            ],
            [
              78.307222,
              17.505209
            ],
            [
              78.31148,
              17.502499
            ],
            [
              78.315578,
              17.495645
            ],
            [
              78.311174,
              17.48048
            ]
          ]
        ]
      }
    }
  ]
}