{
  "type": "FeatureCollection",
  "features": [
    {
      "type": "Feature",
      "properties": {},
      "geometry": {
        "type": "Polygon",
        "coordinates": [
          [
            [
              78.475179,
              17.443744
            ],
            [
              78.475015,
              17.443291
            ],
            [
              78.481097,
              17.443179
            ],
            [
              78.487698,
              17.442844
            ],
            [
              78.487798,
              17.443515
            ],
            [
              78.487748,
              17.448741
            ],
            [
              78.486219,
              17.451591
            ],
            [
              78.479216,
              17.452758
            ],
            [
              78.476083,
              17.452278
            ],
            [
              78.474224,
              17.447196
            ],
            [
              78.475179,
              17.443744
            ]
          ]
        ]
      }
    }
  ]
}