{
  "type": "FeatureCollection",
  "features": [
    {
      "type": "Feature",
      "properties": {},
      "geometry": {
        "type": "Polygon",
        "coordinates": [
          [
            [
              78.396865,
              17.411189
            ],
            [
              78.400435,
              17.415291
            ],
            [
              78.401165,
              17.4228
            ],
            [
              78.404573,
              17.434875
            ],
            [
              78.40222,
              17.45407
            ],
            [
              78.398326,
              17.467614
            ],
            [
              78.391916,
              17.469471
            ],
            [
              78.383722,
              17.45647
            ],
            [
              78.381613,
              17.452058
            ],
            [
              78.386643,
              17.444086
            ],
            [
              78.382749,
              17.441532
            ],
            [
              78.378773,
              17.428915
            ],
            [
              78.377069,
              17.415369
            ],
            [
              78.372932,
              17.409408
            ],
            [
              78.384615,
              17.407163
            ],
            [
              78.396865,
              17.411189
            ]
          ]
        ]
      }
    }
  ]
}