{
  "type": "FeatureCollection",
  "features": [
    {
      "type": "Feature",
      "properties": {},
      "geometry": {
        "type": "Polygon",
        "coordinates": [
          [
            [
              78.420213,
              17.493887
            ],
            [
              78.424058,
              17.492821
            ],
            [
              78.42427,
              17.491995
            ],
            [
              78.424797,
              17.491272
            ],
            [
              78.426011,
              17.491209
            ],
            [
              78.428976,
              17.491303
            ],
            [
              78.430141,
              17.493828
            ],
            [
              78.431204,
              17.493413
            ],
            [
              78.431908,
              17.494993
            ],
            [
              78.432863,
              17.49714
            ],
            [
              78.433834,
              17.49821
            ],
            [
              78.432316,
              17.499898
            ],
            [
              78.431225,
              17.501742
            ],
            [
              78.430381,
              17.503188
            ],
            [
              78.43069,
              17.505229
            ],
            [
              78.429483,
              17.50585
            ],
            [
              78.42913,
              17.506146
            ],
            [
              78.428798,
              17.506411
            ],
            [
              78.428225,
              17.506898
            ],
            [
              78.42643,
              17.506828
            ],
            [
              78.424814,
              17.506691
            ],
            [
              78.424149,
              17.506672
            ],
            [
              78.423925,
              17.506674
            ],
            [
              78.423713,
              17.506759
            ],
            [
              78.423586,
              17.50671
            ],
            [
              78.423372,
              17.507059
            ],
            [
              78.423112,
              17.507161
            ],
            [
              78.422787,
              17.507259
            ],
            [
              78.422543,
              17.507249
            ],
            [
              78.421544,
              17.507285
            ],
            [
              78.421361,
              17.506676
            ],
            [
              78.421193,
              17.506283
            ],
            [
              78.421116,
              17.50604
            ],
            [
              78.421057,
              17.505784
            ],
            [
              78.420995,
              17.50544
            ],
            [
              78.420734,
              17.5055
            ],
            [
              78.420512,
              17.50498
            ],
            [
              78.4204,
              17.504701
            ],
            [
              78.420325,
              17.504496
            ],
            [
              78.42013,
              17.504058
            ],
            [
              78.41993,
              17.503614
            ],
            [
              78.419872,
              17.503428
            ],
            [
              78.419846,
              17.503281
            ],
            [
              78.419838,
              17.502862
            ],
            [
              78.419929,
              17.5026
            ],
            [
              78.419963,
              17.502513
            ],
            [
              78.419646,
              17.502363
            ],
            [
              78.419034,
              17.502028
            ],
            [
              78.418107,
              17.501512
            ],
            [
              78.417335,
              17.50109
            ],
            [
              78.416628,
              17.500638
            ],
            [
              78.414733,
              17.499761
            ],
            [
              78.413778,
              17.499339
            ],
            [
              78.41299,
              17.498967
            ],
            [
              78.412829,
              17.498911
            ],
            [
              78.412795,
              17.498484
            ],
            [
              78.413868,
              17.497772
            ],
            [
              78.414225,
              17.4975
            ],
            [
              78.414216,
              17.497231
            ],
            [
              78.414321,
              17.497168
            ],
            [
              78.414567,
              17.497018
            ],
            [
              78.416723,
              17.495755
            ],
            [
              78.417404,
              17.495122
            ],
            [
              78.417635,
              17.494601
            ],
            [
              78.420213,
              17.493887
            ]
          ]
        ]
      }
    }
  ]
}