{
  "type": "FeatureCollection",
  "features": [
    {
      "type": "Feature",
      "properties": {},
      "geometry": {
        "type": "Polygon",
        "coordinates": [
          [
            [
              78.397108,
              17.514773
            ],
            [
              78.404879,
              17.517949
            ],
            [
              78.402961,
              17.522665
            ],
            [
              78.404475,
              17.526995
            ],
            [
              78.400741,
              17.52815
            ],
            [
              78.401447,
              17.535152
            ],
            [
              78.400457,
              17.537585
            ],
            [
              78.399122,
              17.539866
            ],
            [
              78.397663,
              17.541334
            ],
            [
              78.395631,
              17.540483
            ],
            [
              78.39375,
              17.540565
            ],
            [
              78.391869,
              17.540927
            ],
            [
              78.388732,
              17.541381
            ],
            [
              78.388221,
              17.539203
            ],
            [
              78.388057,
              17.53667
            ],
            [
              78.387811,
              17.535493
            ],
            [
              78.387421,
              17.534952
            ],
            [
              78.386966,
              17.532978
            ],
            [
              78.386088,
              17.531421
            ],
            [
              78.385133,
              17.529034
            ],
            [
              78.383444,
              17.528782
            ],
            [
              78.382864,
              17.528305
            ],
            [
              78.382717,
              17.527744
            ],
            [
              78.382753,
              17.527098
            ],
            [
              78.381133,
              17.52721
            ],
            [
              78.379749,
              17.526418
            ],
            [
              78.378871,
              17.525106
            ],
            [
              78.378384,
              17.524081
            ],
            [
              78.374973,
              17.523817
            ],
            [
              78.374847,
              17.522998
            ],
            [
              78.374804,
              17.52268
            ],
            [
              78.37486,
              17.522331
            ],
            [
              78.375273,
              17.521611
            ],
            [
              78.37574,
              17.521197
            ],
            [
              78.376507,
              17.520645
            ],
            [
              78.376894,
              17.5204
            ],
            [
              78.377649,
              17.519817
            ],
            [
              78.37839,
              17.51919
            ],
            [
              78.379376,
              17.518342
            ],
            [
              78.38004,
              17.51785
            ],
            [
              78.380627,
              17.517415
            ],
            [
              78.381103,
              17.517089
            ],
            [
              78.381754,
              17.516797
            ],
            [
              78.382723,
              17.516469
            ],
            [
              78.390119,
              17.513834
            ],
            [
              78.393685,
              17.512882
            ],
            [
              78.395182,
              17.512956
            ],
            [
              78.395282,
              17.514685
            ],
            [
              78.397108,
              17.514773
            ]
          ]
        ]
      }
    }
  ]
}