{
  "type": "FeatureCollection",
  "features": [
    {
      "type": "Feature",
      "properties": {},
      "geometry": {
        "type": "Polygon",
        "coordinates": [
          [
            [
              78.408266,
              17.480065
            ],
            [
              78.410339,
              17.479906
            ],
            [
              78.410918,
              17.480162
            ],
            [
              78.411184,
              17.480441
            ],
            [
              78.412735,
              17.480168
            ],
            [
              78.414702,
              17.480066
            ],
            [
              78.41584,
              17.48035
            ],
            [
              78.416357,
              17.479705
            ],
            [
              78.41725,
              17.480404
            ],
            [
              78.417293,
              17.480443
            ],
            [
              78.418674,
              17.479253
            ],
            [
              78.419711,
              17.478418
            ],
            [
              78.420398,
              17.477933
            ],
            [
              78.420962,
              17.477584
            ],
            [
              78.421725,
              17.479413
            ],
            [
              78.422024,
              17.480186
            ],
            [
              78.421881,
              17.48043
            ],
            [
              78.421436,
              17.48075
            ],
            [
              78.4215,
              17.481652
            ],
            [
              78.42107,
              17.481879
            ],
            [
              78.42095,
              17.483172
            ],
            [
              78.421374,
              17.4836
            ],
            [
              78.420879,
              17.484011
            ],
            [
              78.420806,
              17.484602
            ],
            [
              78.420574,
              17.488768
            ],
            [
              78.420349,
              17.493682
            ],
            [
              78.420351,
              17.493812
            ],
            [
              78.419681,
              17.49396
            ],
            [
              78.418466,
              17.494318
            ],
            [
              78.417634,
              17.494479
            ],
            [
              78.417355,
              17.495048
            ],
            [
              78.416781,
              17.495662
            ],
            [
              78.416656,
              17.495735
            ],
            [
              78.416167,
              17.496055
            ],
            [
              78.415632,
              17.496362
            ],
            [
              78.414161,
              17.497196
            ],
            [
              78.414182,
              17.497483
            ],
            [
              78.412755,
              17.498446
            ],
            [
              78.412798,
              17.498877
            ],
            [
              78.412661,
              17.500492
            ],
            [
              78.412707,
              17.502057
            ],
            [
              78.408064,
              17.503207
            ],
            [
              78.40782,
              17.50445
            ],
            [
              78.40776,
              17.505424
            ],
            [
              78.405342,
              17.504451
            ],
            [
              78.405163,
              17.504937
            ],
            [
              78.404965,
              17.505335
            ],
            [
              78.403995,
              17.506222
            ],
            [
              78.403333,
              17.506704
            ],
            [
              78.403044,
              17.506878
            ],
            [
              78.402852,
              17.506929
            ],
            [
              78.396456,
              17.508622
            ],
            [
              78.391957,
              17.509154
            ],
            [
              78.391908,
              17.508732
            ],
            [
              78.391848,
              17.508264
            ],
            [
              78.39176,
              17.507694
            ],
            [
              78.391746,
              17.507487
            ],
            [
              78.39174,
              17.507293
            ],
            [
              78.391751,
              17.507003
            ],
            [
              78.391789,
              17.506752
            ],
            [
              78.391869,
              17.506374
            ],
            [
              78.39193,
              17.506055
            ],
            [
              78.391975,
              17.505697
            ],
            [
              78.392339,
              17.505603
            ],
            [
              78.392327,
              17.504979
            ],
            [
              78.392291,
              17.50464
            ],
            [
              78.392244,
              17.504301
            ],
            [
              78.39205,
              17.502829
            ],
            [
              78.391928,
              17.501922
            ],
            [
              78.391825,
              17.501016
            ],
            [
              78.391705,
              17.500135
            ],
            [
              78.391672,
              17.499739
            ],
            [
              78.391638,
              17.499252
            ],
            [
              78.391888,
              17.498614
            ],
            [
              78.391999,
              17.497961
            ],
            [
              78.392619,
              17.497508
            ],
            [
              78.393116,
              17.497248
            ],
            [
              78.393499,
              17.497009
            ],
            [
              78.393859,
              17.496811
            ],
            [
              78.394267,
              17.496652
            ],
            [
              78.395667,
              17.496276
            ],
            [
              78.396617,
              17.496037
            ],
            [
              78.397094,
              17.4959
            ],
            [
              78.397556,
              17.495759
            ],
            [
              78.398902,
              17.495179
            ],
            [
              78.399648,
              17.494852
            ],
            [
              78.400019,
              17.494656
            ],
            [
              78.400353,
              17.494516
            ],
            [
              78.402137,
              17.493656
            ],
            [
              78.403245,
              17.493145
            ],
            [
              78.403286,
              17.493125
            ],
            [
              78.403237,
              17.492993
            ],
            [
              78.406761,
              17.491261
            ],
            [
              78.403947,
              17.48379
            ],
            [
              78.407273,
              17.480534
            ],
            [
              78.408266,
              17.480065
            ]
          ]
        ]
      }
    }
  ]
}