{
  "type": "FeatureCollection",
  "features": [
    {
      "type": "Feature",
      "properties": {},
      "geometry": {
        "type": "Polygon",
        "coordinates": [
          [
            [
              78.386799,
              17.471397
            ],
            [
              78.387601,
              17.471329
            ],
            [
              78.391448,
              17.469489
            ],
            [
              78.395918,
              17.477288
            ],
            [
              78.394217,
              17.482845
            ],
            [
              78.39929,
              17.48438
            ],
            [
              78.400908,
              17.48606
            ],
            [
              78.403258,
              17.493084
            ],
            [
              78.401205,
              17.494019
            ],
            [
              78.400172,
              17.494499
            ],
            [
              78.399686,
              17.494734
            ],
            [
              78.399157,
              17.494959
            ],
            [
              78.398281,
              17.495352
            ],
            [
              78.397833,
              17.495575
            ],
            [
              78.397384,
              17.495773
            ],
            [
              78.395043,
              17.49634
            ],
            [
              78.392798,
              17.490908
            ],
            [
              78.39228,
              17.489659
            ],
            [
              78.391807,
              17.488423
            ],
            [
              78.390501,
              17.485431
            ],
            [
              78.389873,
              17.484054
            ],
            [
              78.388648,
              17.482575
            ],
            [
              78.388146,
              17.48175
            ],
            [
              78.387588,
              17.480845
            ],
            [
              78.386516,
              17.479099
            ],
            [
              78.385768,
              17.477853
            ],
            [
              78.385567,
              17.476944
            ],
            [
              78.385325,
              17.47591
            ],
            [
              78.385072,
              17.474845
            ],
            [
              78.384639,
              17.473002
            ],
            [
              78.38532,
              17.472511
            ],
            [
              78.385994,
              17.471999
            ],
            [
              78.386799,
              17.471397
            ]
          ]
        ]
      }
    }
  ]
}