{
  "type": "FeatureCollection",
  "features": [
    {
      "type": "Feature",
      "properties": {},
      "geometry": {
        "type": "Polygon",
        "coordinates": [
          [
            [
              78.384567,
              17.472861
            ],
            [
              78.385746,
              17.47787
            ],
            [
              78.388719,
              17.482706
            ],
            [
              78.389144,
              17.483214
            ],
            [
              78.389567,
              17.4837
            ],
            [
              78.389865,
              17.48406
            ],
            [
              78.390147,
              17.484697
            ],
            [
              78.391985,
              17.489143
            ],
            [
              78.392337,
              17.490052
            ],
            [
              78.39268,
              17.490967
            ],
            [
              78.393504,
              17.492938
            ],
            [
              78.395017,
              17.496347
            ],
            [
              78.394645,
              17.496466
            ],
            [
              78.394201,
              17.496566
            ],
            [
              78.39342,
              17.496936
            ],
            [
              78.391994,
              17.497907
            ],
            [
              78.391618,
              17.498108
            ],
            [
              78.391263,
              17.498252
            ],
            [
              78.390115,
              17.498447
            ],
            [
              78.388919,
              17.498605
            ],
            [
              78.387789,
              17.49874
            ],
            [
              78.385408,
              17.499075
            ],
            [
              78.384192,
              17.49924
            ],
            [
              78.38286,
              17.499429
            ],
            [
              78.382263,
              17.499399
            ],
            [
              78.381721,
              17.49931
            ],
            [
              78.381104,
              17.499078
            ],
            [
              78.38045,
              17.498821
            ],
            [
              78.378187,
              17.497621
            ],
            [
              78.378299,
              17.49746
            ],
            [
              78.37783,
              17.496227
            ],
            [
              78.377574,
              17.495177
            ],
            [
              78.374426,
              17.491667
            ],
            [
              78.36932,
              17.486221
            ],
            [
              78.372325,
              17.483746
            ],
            [
              78.371261,
              17.482669
            ],
            [
              78.371046,
              17.482241
            ],
            [
              78.372737,
              17.481509
            ],
            [
              78.376885,
              17.478161
            ],
            [
              78.379596,
              17.476256
            ],
            [
              78.384567,
              17.472861
            ]
          ]
        ]
      }
    }
  ]
}