{
  "type": "FeatureCollection",
  "features": [
    {
      "type": "Feature",
      "properties": {},
      "geometry": {
        "type": "Polygon",
        "coordinates": [
          [
            [
              78.412825,
              17.498942
            ],
            [
              78.413642,
              17.4993
            ],
            [
              78.414441,
              17.4997
            ],
            [
              78.414889,
              17.499869
            ],
            [
              78.415549,
              17.500189
            ],
            [
              78.41594,
              17.500362
            ],
            [
              78.416384,
              17.500561
            ],
            [
              78.416854,
              17.500867
            ],
            [
              78.417109,
              17.501003
            ],
            [
              78.418109,
              17.501561
            ],
            [
              78.419537,
              17.502355
            ],
            [
              78.419906,
              17.502536
            ],
            [
              78.419774,
              17.502859
            ],
            [
              78.419812,
              17.503395
            ],
            [
              78.420029,
              17.503912
            ],
            [
              78.420235,
              17.50436
            ],
            [
              78.420327,
              17.504619
            ],
            [
              78.420727,
              17.505544
            ],
            [
              78.420951,
              17.505477
            ],
            [
              78.42106,
              17.505985
            ],
            [
              78.421266,
              17.506522
            ],
            [
              78.421364,
              17.506819
            ],
            [
              78.421435,
              17.507054
            ],
            [
              78.421511,
              17.507274
            ],
            [
              78.421338,
              17.507289
            ],
            [
              78.421121,
              17.507285
            ],
            [
              78.420931,
              17.507219
            ],
            [
              78.420753,
              17.50724
            ],
            [
              78.420424,
              17.50743
            ],
            [
              78.420279,
              17.507563
            ],
            [
              78.420272,
              17.507679
            ],
            [
              78.42031,
              17.50832
            ],
            [
              78.420254,
              17.509379
            ],
            [
              78.419545,
              17.50929
            ],
            [
              78.417361,
              17.509238
            ],
            [
              78.413,
              17.508825
            ],
            [
              78.411733,
              17.509997
            ],
            [
              78.413746,
              17.513334
            ],
            [
              78.410359,
              17.513978
            ],
            [
              78.408248,
              17.514238
            ],
            [
              78.406869,
              17.51423
            ],
            [
              78.405434,
              17.513903
            ],
            [
              78.403478,
              17.514114
            ],
            [
              78.401816,
              17.512772
            ],
            [
              78.40227,
              17.512259
            ],
            [
              78.402404,
              17.511622
            ],
            [
              78.401674,
              17.510337
            ],
            [
              78.402977,
              17.50702
            ],
            [
              78.404973,
              17.505508
            ],
            [
              78.405386,
              17.504531
            ],
            [
              78.407854,
              17.505554
            ],
            [
              78.4079,
              17.504489
            ],
            [
              78.408031,
              17.503774
            ],
            [
              78.408126,
              17.503262
            ],
            [
              78.409925,
              17.502819
            ],
            [
              78.411351,
              17.502478
            ],
            [
              78.412765,
              17.502094
            ],
            [
              78.412762,
              17.500537
            ],
            [
              78.412825,
              17.498942
            ]
          ]
        ]
      }
    }
  ]
}