{
  "type": "FeatureCollection",
  "features": [
    {
      "type": "Feature",
      "properties": {},
      "geometry": {
        "type": "Polygon",
        "coordinates": [
          [
            [
              78.353408,
              17.494622
            ],
            [
              78.354884,
              17.495028
            ],
            [
              78.358231,
              17.495921
            ],
            [
              78.360366,
              17.496436
            ],
            [
              78.361593,
              17.496729
            ],
            [
              78.361876,
              17.498874
            ],
            [
              78.362084,
              17.500561
            ],
            [
              78.362175,
              17.50127
            ],
            [
              78.362093,
              17.501917
            ],
            [
              78.36207,
              17.502658
            ],
            [
              78.362,
              17.503421
            ],
            [
              78.362037,
              17.504056
            ],
            [
              78.362176,
              17.504698
            ],
            [
              78.362353,
              17.505834
            ],
            [
              78.362692,
              17.506211
            ],
            [
              78.364387,
              17.508377
            ],
            [
              78.365523,
              17.509898
            ],
            [
              78.366413,
              17.511006
            ],
            [
              78.372097,
              17.515995
            ],
            [
              78.371771,
              17.51673
            ],
            [
              78.371526,
              17.517558
            ],
            [
              78.371169,
              17.518769
            ],
            [
              78.370515,
              17.520547
            ],
            [
              78.37534,
              17.521454
            ],
            [
              78.375052,
              17.521813
            ],
            [
              78.374907,
              17.5221
            ],
            [
              78.374763,
              17.522411
            ],
            [
              78.374774,
              17.522916
            ],
            [
              78.374843,
              17.523344
            ],
            [
              78.374898,
              17.523792
            ],
            [
              78.373986,
              17.524539
            ],
            [
              78.373826,
              17.525149
            ],
            [
              78.373787,
              17.525678
            ],
            [
              78.374243,
              17.52643
            ],
            [
              78.374274,
              17.527035
            ],
            [
              78.374039,
              17.527256
            ],
            [
              78.373653,
              17.528285
            ],
            [
              78.373956,
              17.528789
            ],
            [
              78.374503,
              17.52926
            ],
            [
              78.375182,
              17.529843
            ],
            [
              78.37555,
              17.530308
            ],
            [
              78.375715,
              17.53074
            ],
            [
              78.37539,
              17.534483
            ],
            [
              78.37552,
              17.535885
            ],
            [
              78.376495,
              17.536886
            ],
            [
              78.377127,
              17.537264
            ],
            [
              78.377582,
              17.537788
            ],
            [
              78.377745,
              17.538347
            ],
            [
              78.377178,
              17.53974
            ],
            [
              78.377925,
              17.542752
            ],
            [
              78.380843,
              17.549859
            ],
            [
              78.374992,
              17.556897
            ],
            [
              78.375622,
              17.560707
            ],
            [
              78.366947,
              17.561246
            ],
            [
              78.361154,
              17.561608
            ],
            [
              78.357115,
              17.561778
            ],
            [
              78.351855,
              17.561843
            ],
            [
              78.345235,
              17.561721
            ],
            [
              78.340085,
              17.561805
            ],
            [
              78.334898,
              17.561653
            ],
            [
              78.331874,
              17.56103
            ],
            [
              78.33187,
              17.560572
            ],
            [
              78.343798,
              17.528963
            ],
            [
              78.343809,
              17.522094
            ],
            [
              78.343399,
              17.517885
            ],
            [
              78.342861,
              17.51682
            ],
            [
              78.34041,
              17.512161
            ],
            [
              78.339393,
              17.508874
            ],
            [
              78.349826,
              17.502512
            ],
            [
              78.347777,
              17.494513
            ],
            [
              78.348772,
              17.494131
            ],
            [
              78.349752,
              17.493926
            ],
            [
              78.350656,
              17.494019
            ],
            [
              78.35185,
              17.494186
            ],
            [
              78.353408,
              17.494622
            ]
          ]
        ]
      }
    }
  ]
}