{
  "type": "FeatureCollection",
  "features": [
    {
      "type": "Feature",
      "properties": {},
      "geometry": {
        "type": "Polygon",
        "coordinates": [
          [
            [
              78.430449,
              17.462617
            ],
            [
              78.433564,
              17.464548
            ],
            [
              78.435433,
              17.470788
            ],
            [
              78.428504,
              17.473071
            ],
            [
              78.426179,
              17.47419
            ],
            [
              78.422712,
              17.476282
            ],
            [
              78.422158,
              17.47667
            ],
            [
              78.421601,
              17.477048
            ],
            [
              78.421415,
              17.47715
            ],
            [
              78.42128,
              17.477244
            ],
            [
              78.420915,
              17.477501
            ],
            [
              78.420292,
              17.47787
            ],
            [
              78.419844,
              17.47825
            ],
            [
              78.419217,
              17.478698
            ],
            [
              78.418155,
              17.47947
            ],
            [
              78.417234,
              17.480373
            ],
            [
              78.415589,
              17.479105
            ],
            [
              78.414909,
              17.478287
            ],
            [
              78.414449,
              17.477293
            ],
            [
              78.414289,
              17.476884
            ],
            [
              78.413294,
              17.476029
            ],
            [
              78.413321,
              17.474331
            ],
            [
              78.414093,
              17.473255
            ],
            [
              78.415264,
              17.469971
            ],
            [
              78.415964,
              17.467965
            ],
            [
              78.420793,
              17.46596
            ],
            [
              78.425465,
              17.462394
            ],
            [
              78.430449,
              17.462617
            ]
          ]
        ]
      }
    }
  ]
}