{
  "type": "FeatureCollection",
  "features": [
    {
      "type": "Feature",
      "properties": {},
      "geometry": {
        "type": "Polygon",
        "coordinates": [
          [
            [
              78.4113,
              17.439396
            ],
            [
              78.410915,
              17.437655
            ],
            [
              78.410478,
              17.435596
            ],
            [
              78.412405,
              17.43513
            ],
            [
              78.416645,
              17.434051
            ],
            [
              78.41739,
              17.432899
            ],
            [
              78.420885,
              17.431526
            ],
            [
              78.423814,
              17.43084
            ],
            [
              78.425485,
              17.429982
            ],
            [
              78.430418,
              17.429957
            ],
            [
              78.43453,
              17.429982
            ],
            [
              78.437305,
              17.430423
            ],
            [
              78.439053,
              17.430227
            ],
            [
              78.437716,
              17.431992
            ],
            [
              78.436303,
              17.433806
            ],
            [
              78.434324,
              17.435473
            ],
            [
              78.43268,
              17.436282
            ],
            [
              78.431549,
              17.436479
            ],
            [
              78.429185,
              17.436675
            ],
            [
              78.426821,
              17.437827
            ],
            [
              78.424508,
              17.439053
            ],
            [
              78.423378,
              17.43844
            ],
            [
              78.422761,
              17.438611
            ],
            [
              78.419754,
              17.439813
            ],
            [
              78.417313,
              17.440916
            ],
            [
              78.416491,
              17.442828
            ],
            [
              78.413459,
              17.443465
            ],
            [
              78.412457,
              17.441284
            ],
            [
              78.4113,
              17.439396
            ]
          ]
        ]
      }
    }
  ]
}