{
  "type": "FeatureCollection",
  "features": [
    {
      "type": "Feature",
      "properties": {},
      "geometry": {
        "type": "Polygon",
        "coordinates": [
          [
            [
              78.396446,
              17.450942
            ],
            [
              78.396731,
              17.450636
            ],
            [
              78.401155,
              17.448866
            ],
            [
              78.409502,
              17.448049
            ],
            [
              78.416565,
              17.447947
            ],
            [
              78.419246,
              17.448841
            ],
            [
              78.420065,
              17.448807
            ],
            [
              78.420879,
              17.448845
            ],
            [
              78.421278,
              17.449152
            ],
            [
              78.421527,
              17.449302
            ],
            [
              78.421707,
              17.449227
            ],
            [
              78.421768,
              17.449253
            ],
            [
              78.421717,
              17.449392
            ],
            [
              78.421611,
              17.449475
            ],
            [
              78.421084,
              17.451179
            ],
            [
              78.420061,
              17.454311
            ],
            [
              78.419243,
              17.457813
            ],
            [
              78.418356,
              17.459532
            ],
            [
              78.414825,
              17.458723
            ],
            [
              78.411186,
              17.458415
            ],
            [
              78.40299,
              17.459754
            ],
            [
              78.40276,
              17.45836
            ],
            [
              78.401369,
              17.457544
            ],
            [
              78.39955,
              17.455604
            ],
            [
              78.397588,
              17.454617
            ],
            [
              78.396446,
              17.450942
            ]
          ]
        ]
      }
    }
  ]
}