{
  "type": "FeatureCollection",
  "features": [
    {
      "type": "Feature",
      "properties": {},
      "geometry": {
        "type": "Polygon",
        "coordinates": [
          [
            [
              78.499481,
              17.417748
            ],
            [
              78.501792,
              17.417669
            ],
            [
              78.503276,
              17.417251
            ],
            [
              78.504701,
              17.416382
            ],
            [
              78.506371,
              17.416043
            ],
            [
              78.507082,
              17.41608
            ],
            [
              78.50777,
              17.416211
            ],
            [
              78.508296,
              17.416208
            ],
            [
              78.508895,
              17.416041
            ],
            [
              78.510045,
              17.415706
            ],
            [
              78.510954,
              17.415301
            ],
            [
              78.511651,
              17.415035
            ],
            [
              78.512402,
              17.414351
            ],
            [
              78.513007,
              17.4132
            ],
            [
              78.513616,
              17.411936
            ],
            [
              78.514069,
              17.411631
            ],
            [
              78.514005,
              17.411343
            ],
            [
              78.514352,
              17.411262
            ],
            [
              78.515753,
              17.410951
            ],
            [
              78.516294,
              17.41084
            ],
            [
              78.516807,
              17.410687
            ],
            [
              78.517124,
              17.410494
            ],
            [
              78.51748,
              17.40997
            ],
            [
              78.525004,
              17.420974
            ],
            [
              78.52724,
              17.423495
            ],
            [
              78.530898,
              17.426646
            ],
            [
              78.530542,
              17.427373
            ],
            [
              78.527087,
              17.428634
            ],
            [
              78.524953,
              17.430621
            ],
            [
              78.521193,
              17.433918
            ],
            [
              78.518754,
              17.43639
            ],
            [
              78.516823,
              17.43702
            ],
            [
              78.516468,
              17.436584
            ],
            [
              78.514537,
              17.435275
            ],
            [
              78.511996,
              17.434354
            ],
            [
              78.510777,
              17.433772
            ],
            [
              78.509608,
              17.433336
            ],
            [
              78.506518,
              17.433129
            ],
            [
              78.506208,
              17.432836
            ],
            [
              78.505461,
              17.431328
            ],
            [
              78.504675,
              17.429847
            ],
            [
              78.50328,
              17.428985
            ],
            [
              78.502417,
              17.428445
            ],
            [
              78.502162,
              17.427771
            ],
            [
              78.502042,
              17.425934
            ],
            [
              78.502069,
              17.424088
            ],
            [
              78.501732,
              17.422442
            ],
            [
              78.501067,
              17.421041
            ],
            [
              78.500223,
              17.419623
            ],
            [
              78.499481,
              17.417748
            ]
          ]
        ]
      }
    }
  ]
}