{
  "type": "FeatureCollection",
  "features": [
    {
      "type": "Feature",
      "properties": {},
      "geometry": {
        "type": "Polygon",
        "coordinates": [
          [
            [
              78.40495,
              17.405441
            ],
            [
              78.400496,
              17.402669
            ],
            [
              78.400541,
              17.397479
            ],
            [
              78.402882,
              17.397764
            ],
            [
              78.403421,
              17.39429
            ],
            [
              78.407017,
              17.395233
            ],
            [
              78.410612,
              17.39399
            ],
            [
              78.41268,
              17.395834
            ],
            [
              78.414837,
              17.395705
            ],
            [
              78.414747,
              17.392446
            ],
            [
              78.41695,
              17.390859
            ],
            [
              78.423287,
              17.389358
            ],
            [
              78.427287,
              17.390173
            ],
            [
              78.427601,
              17.395491
            ],
            [
              78.42468,
              17.397206
            ],
            [
              78.426882,
              17.403211
            ],
            [
              78.425219,
              17.40707
            ],
            [
              78.417489,
              17.409129
            ],
            [
              78.413219,
              17.409944
            ],
            [
              78.409129,
              17.409601
            ],
            [
              78.407601,
              17.408228
            ],
            [
              78.40495,
              17.405441
            ]
          ]
        ]
      }
    }
  ]
}