{
  "type": "FeatureCollection",
  "features": [
    {
      "type": "Feature",
      "properties": {},
      "geometry": {
        "type": "Polygon",
        "coordinates": [
          [
            [
              78.448342,
              17.465636
            ],
            [
              78.434327,
              17.456635
            ],
            [
              78.416981,
              17.433732
            ],
            [
              78.428637,
              17.412018
            ],
            [
              78.451387,
              17.406204
            ],
            [
              78.46117,
              17.408091
            ],
            [
              78.477197,
              17.410772
            ],
            [
              78.484691,
              17.422092
            ],
            [
              78.487396,
              17.430036
            ],
            [
              78.487396,
              17.442547
            ],
            [
              78.488749,
              17.451185
            ],
            [
              78.471265,
              17.461311
            ],
            [
              78.448342,
              17.465636
            ]
          ]
        ]
      }
    }
  ]
}