{
  "type": "FeatureCollection",
  "features": [
    {
      "type": "Feature",
      "properties": {},
      "geometry": {
        "type": "Polygon",
        "coordinates": [
          [
            [
              78.397215,
              17.496002
            ],
            [
              78.39739,
              17.496413
            ],
            [
              78.397425,
              17.497071
            ],
            [
              78.398193,
              17.499314
            ],
            [
              78.398454,
              17.500368
            ],
            [
              78.398449,
              17.501221
            ],
            [
              78.398278,
              17.501654
            ],
            [
              78.398267,
              17.502184
            ],
            [
              78.399105,
              17.505062
            ],
            [
              78.400201,
              17.507532
            ],
            [
              78.396557,
              17.508629
            ],
            [
              78.397184,
              17.513964
            ],
            [
              78.398608,
              17.51402
            ],
            [
              78.404658,
              17.518128
            ],
            [
              78.40413,
              17.52703
            ],
            [
              78.39985,
              17.532807
            ],
            [
              78.393969,
              17.540623
            ],
            [
              78.390227,
              17.540451
            ],
            [
              78.387109,
              17.535183
            ],
            [
              78.387021,
              17.525252
            ],
            [
              78.390043,
              17.514215
            ],
            [
              78.392034,
              17.508525
            ],
            [
              78.392405,
              17.505802
            ],
            [
              78.392198,
              17.503608
            ],
            [
              78.391869,
              17.501021
            ],
            [
              78.391679,
              17.49934
            ],
            [
              78.391379,
              17.498351
            ],
            [
              78.39398,
              17.496949
            ],
            [
              78.397215,
              17.496002
            ]
          ]
        ]
      }
    }
  ]
}