{
  "type": "FeatureCollection",
  "features": [
    {
      "type": "Feature",
      "properties": {},
      "geometry": {
        "type": "Polygon",
        "coordinates": [
          [
            [
              78.441984,
              17.46361
            ],
            [
              78.44547,
              17.461246
            ],
            [
              78.448524,
              17.460124
            ],
            [
              78.450344,
              17.457906
            ],
            [
              78.450668,
              17.454043
            ],
            [
              78.453945,
              17.45407
            ],
            [
              78.454954,
              17.456903
            ],
            [
              78.45994,
              17.457784
            ],
            [
              78.461873,
              17.462728
            ],
            [
              78.458587,
              17.463743
            ],
            [
              78.453721,
              17.463476
            ],
            [
              78.449463,
              17.465106
            ],
            [
              78.445822,
              17.466736
            ],
            [
              78.441984,
              17.46361
            ]
          ]
        ]
      }
    }
  ]
}