{
  "type": "FeatureCollection",
  "features": [
    {
      "type": "Feature",
      "properties": {},
      "geometry": {
        "type": "Polygon",
        "coordinates": [
          [
            [
              78.455447,
              17.491612
            ],
            [
              78.45479,
              17.487797
            ],
            [
              78.461789,
              17.487018
            ],
            [
              78.466944,
              17.491475
            ],
            [
              78.467592,
              17.494084
            ],
            [
              78.468833,
              17.503645
            ],
            [
              78.478381,
              17.503373
            ],
            [
              78.479189,
              17.50734
            ],
            [
              78.4795,
              17.510144
            ],
            [
              78.479743,
              17.513723
            ],
            [
              78.480867,
              17.51685
            ],
            [
              78.463613,
              17.524933
            ],
            [
              78.453573,
              17.533156
            ],
            [
              78.44405,
              17.534258
            ],
            [
              78.44449,
              17.536606
            ],
            [
              78.442392,
              17.547377
            ],
            [
              78.440696,
              17.561314
            ],
            [
              78.424063,
              17.562132
            ],
            [
              78.420232,
              17.547919
            ],
            [
              78.418113,
              17.541927
            ],
            [
              78.422511,
              17.537164
            ],
            [
              78.425987,
              17.534698
            ],
            [
              78.426908,
              17.532402
            ],
            [
              78.433529,
              17.524109
            ],
            [
              78.431794,
              17.520663
            ],
            [
              78.432448,
              17.520328
            ],
            [
              78.434843,
              17.519284
            ],
            [
              78.435131,
              17.519147
            ],
            [
              78.435585,
              17.518577
            ],
            [
              78.436314,
              17.517761
            ],
            [
              78.437443,
              17.516862
            ],
            [
              78.43691,
              17.516162
            ],
            [
              78.436507,
              17.515781
            ],
            [
              78.435092,
              17.514832
            ],
            [
              78.432996,
              17.51351
            ],
            [
              78.4348,
              17.512092
            ],
            [
              78.439416,
              17.508544
            ],
            [
              78.433102,
              17.502752
            ],
            [
              78.451918,
              17.499043
            ],
            [
              78.455623,
              17.503277
            ],
            [
              78.456907,
              17.502877
            ],
            [
              78.458431,
              17.502134
            ],
            [
              78.459842,
              17.501436
            ],
            [
              78.461203,
              17.50071
            ],
            [
              78.460536,
              17.500417
            ],
            [
              78.460586,
              17.499883
            ],
            [
              78.459971,
              17.499148
            ],
            [
              78.45925,
              17.498895
            ],
            [
              78.458549,
              17.499298
            ],
            [
              78.45828,
              17.498907
            ],
            [
              78.457811,
              17.498666
            ],
            [
              78.457236,
              17.498566
            ],
            [
              78.457032,
              17.49788
            ],
            [
              78.4574,
              17.497551
            ],
            [
              78.4575,
              17.496986
            ],
            [
              78.457136,
              17.496844
            ],
            [
              78.457026,
              17.496641
            ],
            [
              78.457241,
              17.496163
            ],
            [
              78.456391,
              17.495333
            ],
            [
              78.455534,
              17.4948
            ],
            [
              78.45492,
              17.494986
            ],
            [
              78.45477,
              17.494196
            ],
            [
              78.454273,
              17.493875
            ],
            [
              78.454309,
              17.49261
            ],
            [
              78.455447,
              17.491612
            ]
          ]
        ]
      }
    }
  ]
}