{
  "type": "FeatureCollection",
  "features": [
    {
      "type": "Feature",
      "properties": {},
      "geometry": {
        "type": "Polygon",
        "coordinates": [
          [
            [
              78.479425,
              17.435209
            ],
            [
              78.477255,
              17.443468
            ],
            [
              78.480381,
              17.44369
            ],
            [
              78.483439,
              17.443872
            ],
            [
              78.486902,
              17.44601
            ],
            [
              78.487375,
              17.448325
            ],
            [
              78.486179,
              17.45147
            ],
            [
              78.484108,
              17.45147
            ],
            [
              78.477122,
              17.45233
            ],
            [
              78.47568,
              17.451857
            ],
            [
              78.473172,
              17.448564
            ],
            [
              78.460643,
              17.448908
            ],
            [
              78.457038,
              17.448736
            ],
            [
              78.457121,
              17.44763
            ],
            [
              78.461673,
              17.444964
            ],
            [
              78.458158,
              17.441696
            ],
            [
              78.458879,
              17.441309
            ],
            [
              78.45969,
              17.440922
            ],
            [
              78.463296,
              17.439546
            ],
            [
              78.467352,
              17.439632
            ],
            [
              78.469425,
              17.438128
            ],
            [
              78.471859,
              17.437956
            ],
            [
              78.475194,
              17.436236
            ],
            [
              78.479425,
              17.435209
            ]
          ]
        ]
      }
    }
  ]
}