{
  "type": "FeatureCollection",
  "features": [
    {
      "type": "Feature",
      "properties": {},
      "geometry": {
        "type": "Polygon",
        "coordinates": [
          [
            [
              78.394411,
              17.482705
            ],
            [
              78.395984,
              17.483205
            ],
            [
              78.398172,
              17.484154
            ],
            [
              78.400858,
              17.486368
            ],
            [
              78.402748,
              17.493105
            ],
            [
              78.401209,
              17.493807
            ],
            [
              78.398124,
              17.495219
            ],
            [
              78.394943,
              17.496262
            ],
            [
              78.392057,
              17.489157
            ],
            [
              78.390299,
              17.484445
            ],
            [
              78.394411,
              17.482705
            ]
          ]
        ]
      }
    }
  ]
}