{
  "type": "FeatureCollection",
  "features": [
    {
      "type": "Feature",
      "properties": {},
      "geometry": {
        "type": "Polygon",
        "coordinates": [
          [
            [
              78.486318,
              17.426972
            ],
            [
              78.475994,
              17.409655
            ],
            [
              78.475677,
              17.401183
            ],
            [
              78.478969,
              17.397217
            ],
            [
              78.480588,
              17.381759
            ],
            [
              78.48262,
              17.380876
            ],
            [
              78.491246,
              17.374559
            ],
            [
              78.499778,
              17.384736
            ],
            [
              78.51308,
              17.385358
            ],
            [
              78.516312,
              17.381128
            ],
            [
              78.521902,
              17.377694
            ],
            [
              78.528351,
              17.375726
            ],
            [
              78.534884,
              17.380147
            ],
            [
              78.549856,
              17.388365
            ],
            [
              78.561569,
              17.400894
            ],
            [
              78.548369,
              17.414593
            ],
            [
              78.534695,
              17.427075
            ],
            [
              78.531671,
              17.432763
            ],
            [
              78.525989,
              17.432048
            ],
            [
              78.517195,
              17.435423
            ],
            [
              78.486318,
              17.426972
            ]
          ]
        ]
      }
    }
  ]
}