{
  "type": "FeatureCollection",
  "features": [
    {
      "type": "Feature",
      "properties": {},
      "geometry": {
        "type": "Polygon",
        "coordinates": [
          [
            [
              78.434399,
              17.456159
            ],
            [
              78.434573,
              17.455496
            ],
            [
              78.435637,
              17.453051
            ],
            [
              78.436115,
              17.452388
            ],
            [
              78.437766,
              17.449052
            ],
            [
              78.441676,
              17.449073
            ],
            [
              78.441806,
              17.450357
            ],
            [
              78.442805,
              17.450689
            ],
            [
              78.444021,
              17.450399
            ],
            [
              78.447149,
              17.449404
            ],
            [
              78.449799,
              17.448389
            ],
            [
              78.449169,
              17.444597
            ],
            [
              78.450537,
              17.444079
            ],
            [
              78.452383,
              17.443996
            ],
            [
              78.45297,
              17.443934
            ],
            [
              78.452731,
              17.444224
            ],
            [
              78.45221,
              17.447871
            ],
            [
              78.453187,
              17.45073
            ],
            [
              78.453665,
              17.454626
            ],
            [
              78.454143,
              17.456677
            ],
            [
              78.45221,
              17.456905
            ],
            [
              78.449864,
              17.457982
            ],
            [
              78.449777,
              17.455206
            ],
            [
              78.447496,
              17.455579
            ],
            [
              78.441632,
              17.456366
            ],
            [
              78.436311,
              17.456946
            ],
            [
              78.434399,
              17.456159
            ]
          ]
        ]
      }
    }
  ]
}