{
  "type": "FeatureCollection",
  "features": [
    {
      "type": "Feature",
      "properties": {},
      "geometry": {
        "type": "Polygon",
        "coordinates": [
          [
            [
              78.416067,
              17.446556
            ],
            [
              78.416176,
              17.445924
            ],
            [
              78.416241,
              17.445007
            ],
            [
              78.417899,
              17.443572
            ],
            [
              78.417585,
              17.441292
            ],
            [
              78.421177,
              17.439453
            ],
            [
              78.423112,
              17.439005
            ],
            [
              78.423989,
              17.439456
            ],
            [
              78.42423,
              17.443721
            ],
            [
              78.422733,
              17.44702
            ],
            [
              78.421428,
              17.44765
            ],
            [
              78.421553,
              17.448434
            ],
            [
              78.421725,
              17.448794
            ],
            [
              78.421637,
              17.449173
            ],
            [
              78.421206,
              17.449015
            ],
            [
              78.420993,
              17.44887
            ],
            [
              78.420711,
              17.448762
            ],
            [
              78.419332,
              17.448769
            ],
            [
              78.417509,
              17.448093
            ],
            [
              78.416067,
              17.446556
            ]
          ]
        ]
      }
    }
  ]
}