{
  "type": "FeatureCollection",
  "features": [
    {
      "type": "Feature",
      "properties": {},
      "geometry": {
        "type": "Polygon",
        "coordinates": [
          [
            [
              78.439563,
              17.445491
            ],
            [
              78.440542,
              17.443623
            ],
            [
              78.442734,
              17.440554
            ],
            [
              78.444366,
              17.436683
            ],
            [
              78.446044,
              17.434148
            ],
            [
              78.450241,
              17.435126
            ],
            [
              78.450428,
              17.438107
            ],
            [
              78.450985,
              17.44034
            ],
            [
              78.451191,
              17.441808
            ],
            [
              78.451826,
              17.443312
            ],
            [
              78.449075,
              17.444468
            ],
            [
              78.448625,
              17.445749
            ],
            [
              78.447676,
              17.446559
            ],
            [
              78.443433,
              17.446025
            ],
            [
              78.439563,
              17.445491
            ]
          ]
        ]
      }
    }
  ]
}