{
  "type": "FeatureCollection",
  "features": [
    {
      "type": "Feature",
      "properties": {},
      "geometry": {
        "type": "Polygon",
        "coordinates": [
          [
            [
              78.438767,
              17.43036
            ],
            [
              78.439867,
              17.43032
            ],
            [
              78.4427,
              17.430199
            ],
            [
              78.450057,
              17.429819
            ],
            [
              78.446681,
              17.432847
            ],
            [
              78.443828,
              17.436338
            ],
            [
              78.442381,
              17.439865
            ],
            [
              78.440694,
              17.442931
            ],
            [
              78.432848,
              17.444398
            ],
            [
              78.432848,
              17.449198
            ],
            [
              78.431889,
              17.454194
            ],
            [
              78.430045,
              17.453832
            ],
            [
              78.426784,
              17.454471
            ],
            [
              78.422695,
              17.454245
            ],
            [
              78.423154,
              17.448327
            ],
            [
              78.423582,
              17.445799
            ],
            [
              78.424532,
              17.443312
            ],
            [
              78.424271,
              17.441322
            ],
            [
              78.42416,
              17.439415
            ],
            [
              78.426325,
              17.438478
            ],
            [
              78.427311,
              17.437929
            ],
            [
              78.433813,
              17.436439
            ],
            [
              78.434699,
              17.435453
            ],
            [
              78.432645,
              17.432781
            ],
            [
              78.431616,
              17.429842
            ],
            [
              78.435192,
              17.430212
            ],
            [
              78.438767,
              17.43036
            ]
          ]
        ]
      }
    }
  ]
}