{
  "type": "FeatureCollection",
  "features": [
    {
      "type": "Feature",
      "properties": {},
      "geometry": {
        "type": "Polygon",
        "coordinates": [
          [
            [
              78.410874,
              17.442228
            ],
            [
              78.422113,
              17.439046
            ],
            [
              78.422972,
              17.438751
            ],
            [
              78.424017,
              17.439404
            ],
            [
              78.42422,
              17.441915
            ],
            [
              78.424376,
              17.443365
            ],
            [
              78.423976,
              17.4442
            ],
            [
              78.423507,
              17.44561
            ],
            [
              78.422797,
              17.449463
            ],
            [
              78.421667,
              17.449559
            ],
            [
              78.415362,
              17.450037
            ],
            [
              78.406056,
              17.450583
            ],
            [
              78.404562,
              17.450632
            ],
            [
              78.403507,
              17.447204
            ],
            [
              78.405968,
              17.446347
            ],
            [
              78.408312,
              17.444819
            ],
            [
              78.410874,
              17.442228
            ]
          ]
        ]
      }
    }
  ]
}