{
  "type": "FeatureCollection",
  "features": [
    {
      "type": "Feature",
      "properties": {},
      "geometry": {
        "type": "Polygon",
        "coordinates": [
          [
            [
              78.36015,
              17.349715
            ],
            [
              78.363867,
              17.350818
            ],
            [
              78.370937,
              17.350597
            ],
            [
              78.371637,
              17.350712
            ],
            [
              78.3723,
              17.350961
            ],
            [
              78.372903,
              17.351335
            ],
            [
              78.373421,
              17.351821
            ],
            [
              78.373833,
              17.352396
            ],
            [
              78.373995,
              17.352712
            ],
            [
              78.374223,
              17.353385
            ],
            [
              78.374314,
              17.354088
            ],
            [
              78.374267,
              17.354794
            ],
            [
              78.374192,
              17.35514
            ],
            [
              78.37394,
              17.355805
            ],
            [
              78.373767,
              17.356115
            ],
            [
              78.373416,
              17.35658
            ],
            [
              78.373665,
              17.356366
            ],
            [
              78.378861,
              17.354453
            ],
            [
              78.380591,
              17.355504
            ],
            [
              78.385444,
              17.358223
            ],
            [
              78.389615,
              17.360648
            ],
            [
              78.391005,
              17.363741
            ],
            [
              78.39116,
              17.364212
            ],
            [
              78.391232,
              17.364323
            ],
            [
              78.39133,
              17.364378
            ],
            [
              78.391486,
              17.364366
            ],
            [
              78.3916,
              17.364258
            ],
            [
              78.394885,
              17.357796
            ],
            [
              78.394928,
              17.357778
            ],
            [
              78.399466,
              17.360656
            ],
            [
              78.402074,
              17.364563
            ],
            [
              78.401837,
              17.365078
            ],
            [
              78.401853,
              17.365126
            ],
            [
              78.400343,
              17.368245
            ],
            [
              78.393074,
              17.368597
            ],
            [
              78.392918,
              17.368562
            ],
            [
              78.392812,
              17.368598
            ],
            [
              78.392735,
              17.368679
            ],
            [
              78.392669,
              17.368995
            ],
            [
              78.386872,
              17.370042
            ],
            [
              78.383684,
              17.370273
            ],
            [
              78.378426,
              17.369321
            ],
            [
              78.375974,
              17.368271
            ],
            [
              78.375419,
              17.367086
            ],
            [
              78.375271,
              17.366977
            ],
            [
              78.369774,
              17.366274
            ],
            [
              78.369744,
              17.366234
            ],
            [
              78.369546,
              17.366205
            ],
            [
              78.369544,
              17.366051
            ],
            [
              78.369509,
              17.366178
            ],
            [
              78.369419,
              17.366273
            ],
            [
              78.369294,
              17.366314
            ],
            [
              78.369165,
              17.366292
            ],
            [
              78.367117,
              17.36417
            ],
            [
              78.366232,
              17.362043
            ],
            [
              78.362158,
              17.363461
            ],
            [
              78.361504,
              17.363563
            ],
            [
              78.361172,
              17.363568
            ],
            [
              78.360324,
              17.36344
            ],
            [
              78.364227,
              17.377346
            ],
            [
              78.378175,
              17.386772
            ],
            [
              78.381401,
              17.39431
            ],
            [
              78.381469,
              17.394401
            ],
            [
              78.381593,
              17.394452
            ],
            [
              78.381762,
              17.394402
            ],
            [
              78.381885,
              17.394199
            ],
            [
              78.385243,
              17.394392
            ],
            [
              78.391016,
              17.392299
            ],
            [
              78.394935,
              17.392299
            ],
            [
              78.399802,
              17.392062
            ],
            [
              78.402032,
              17.392965
            ],
            [
              78.40541,
              17.392165
            ],
            [
              78.408686,
              17.391824
            ],
            [
              78.409596,
              17.393715
            ],
            [
              78.409768,
              17.39381
            ],
            [
              78.409966,
              17.393724
            ],
            [
              78.413066,
              17.389045
            ],
            [
              78.413102,
              17.388876
            ],
            [
              78.412387,
              17.386257
            ],
            [
              78.41064,
              17.384893
            ],
            [
              78.410633,
              17.384843
            ],
            [
              78.41027,
              17.38456
            ],
            [
              78.410652,
              17.382971
            ],
            [
              78.410625,
              17.382931
            ],
            [
              78.410733,
              17.382464
            ],
            [
              78.410653,
              17.382279
            ],
            [
              78.410551,
              17.382227
            ],
            [
              78.410418,
              17.38223
            ],
            [
              78.406545,
              17.38332
            ],
            [
              78.406503,
              17.3833
            ],
            [
              78.405771,
              17.37358
            ],
            [
              78.406122,
              17.372497
            ],
            [
              78.408373,
              17.372323
            ],
            [
              78.4082,
              17.372277
            ],
            [
              78.408103,
              17.372154
            ],
            [
              78.408096,
              17.371975
            ],
            [
              78.408204,
              17.371831
            ],
            [
              78.410195,
              17.371217
            ],
            [
              78.410092,
              17.370981
            ],
            [
              78.410139,
              17.370801
            ],
            [
              78.410317,
              17.37069
            ],
            [
              78.410539,
              17.370753
            ],
            [
              78.408596,
              17.36715
            ],
            [
              78.408052,
              17.364843
            ],
            [
              78.408079,
              17.364799
            ],
            [
              78.408024,
              17.364566
            ],
            [
              78.408755,
              17.36326
            ],
            [
              78.408742,
              17.36321
            ],
            [
              78.410163,
              17.360757
            ],
            [
              78.410151,
              17.360706
            ],
            [
              78.410202,
              17.360687
            ],
            [
              78.410145,
              17.358358
            ],
            [
              78.416188,
              17.354145
            ],
            [
              78.417938,
              17.353031
            ],
            [
              78.417988,
              17.353042
            ],
            [
              78.418383,
              17.35279
            ],
            [
              78.419599,
              17.353286
            ],
            [
              78.420597,
              17.354151
            ],
            [
              78.420648,
              17.354147
            ],
            [
              78.421623,
              17.354992
            ],
            [
              78.421627,
              17.355042
            ],
            [
              78.426151,
              17.35918
            ],
            [
              78.427787,
              17.360915
            ],
            [
              78.429001,
              17.366847
            ],
            [
              78.429516,
              17.371881
            ],
            [
              78.429699,
              17.371771
            ],
            [
              78.42992,
              17.371842
            ],
            [
              78.431696,
              17.373893
            ],
            [
              78.43799,
              17.372112
            ],
            [
              78.446141,
              17.362414
            ],
            [
              78.448829,
              17.359829
            ],
            [
              78.44899,
              17.359804
            ],
            [
              78.453168,
              17.360459
            ],
            [
              78.455554,
              17.362787
            ],
            [
              78.454785,
              17.355348
            ],
            [
              78.447906,
              17.350703
            ],
            [
              78.43718,
              17.350764
            ],
            [
              78.436491,
              17.350702
            ],
            [
              78.435829,
              17.35051
            ],
            [
              78.435512,
              17.350366
            ],
            [
              78.434932,
              17.349995
            ],
            [
              78.434431,
              17.349518
            ],
            [
              78.434216,
              17.349245
            ],
            [
              78.433872,
              17.348646
            ],
            [
              78.433648,
              17.347994
            ],
            [
              78.433564,
              17.347444
            ],
            [
              78.433393,
              17.35051
            ],
            [
              78.428364,
              17.352301
            ],
            [
              78.428318,
              17.35228
            ],
            [
              78.428028,
              17.352382
            ],
            [
              78.423774,
              17.352715
            ],
            [
              78.420324,
              17.351993
            ],
            [
              78.418606,
              17.351276
            ],
            [
              78.417722,
              17.34685
            ],
            [
              78.417668,
              17.346761
            ],
            [
              78.417109,
              17.343027
            ],
            [
              78.417135,
              17.34299
            ],
            [
              78.418027,
              17.342743
            ],
            [
              78.417443,
              17.342779
            ],
            [
              78.417088,
              17.342753
            ],
            [
              78.416395,
              17.342595
            ],
            [
              78.415746,
              17.342305
            ],
            [
              78.415166,
              17.341893
            ],
            [
              78.414909,
              17.341645
            ],
            [
              78.414474,
              17.341082
            ],
            [
              78.413715,
              17.339588
            ],
            [
              78.413442,
              17.338821
            ],
            [
              78.397805,
              17.338529
            ],
            [
              78.397772,
              17.338564
            ],
            [
              78.397468,
              17.338563
            ],
            [
              78.396318,
              17.339281
            ],
            [
              78.396269,
              17.33927
            ],
            [
              78.392319,
              17.341801
            ],
            [
              78.390248,
              17.3342
            ],
            [
              78.390065,
              17.334148
            ],
            [
              78.389915,
              17.334154
            ],
            [
              78.38988,
              17.334191
            ],
            [
              78.385537,
              17.334353
            ],
            [
              78.381716,
              17.334821
            ],
            [
              78.377877,
              17.334763
            ],
            [
              78.3744,
              17.334763
            ],
            [
              78.374365,
              17.334727
            ],
            [
              78.374076,
              17.334727
            ],
            [
              78.373655,
              17.33458
            ],
            [
              78.373609,
              17.334602
            ],
            [
              78.370023,
              17.333353
            ],
            [
              78.3697,
              17.333868
            ],
            [
              78.369358,
              17.334256
            ],
            [
              78.361478,
              17.347098
            ],
            [
              78.36015,
              17.349715
            ]
          ]
        ]
      }
    }
  ]
}