{
  "type": "FeatureCollection",
  "features": [
    {
      "type": "Feature",
      "properties": {},
      "geometry": {
        "type": "Polygon",
        "coordinates": [
          [
            [
              78.352088,
              17.412253
            ],
            [
              78.37484,
              17.401262
            ],
            [
              78.375018,
              17.401277
            ],
            [
              78.375136,
              17.401381
            ],
            [
              78.375174,
              17.401556
            ],
            [
              78.375111,
              17.401699
            ],
            [
              78.373882,
              17.402347
            ],
            [
              78.374949,
              17.402619
            ],
            [
              78.376905,
              17.40272
            ],
            [
              78.380921,
              17.402381
            ],
            [
              78.383444,
              17.402076
            ],
            [
              78.385257,
              17.401737
            ],
            [
              78.387017,
              17.400816
            ],
            [
              78.390343,
              17.400482
            ],
            [
              78.393761,
              17.400221
            ],
            [
              78.398433,
              17.40141
            ],
            [
              78.398571,
              17.401495
            ],
            [
              78.400384,
              17.403638
            ],
            [
              78.400571,
              17.403933
            ],
            [
              78.400853,
              17.404567
            ],
            [
              78.401009,
              17.405241
            ],
            [
              78.401038,
              17.405587
            ],
            [
              78.400995,
              17.40628
            ],
            [
              78.40082,
              17.406954
            ],
            [
              78.400509,
              17.407598
            ],
            [
              78.402629,
              17.406332
            ],
            [
              78.402692,
              17.406239
            ],
            [
              78.402705,
              17.406128
            ],
            [
              78.402665,
              17.406024
            ],
            [
              78.402573,
              17.405944
            ],
            [
              78.40257,
              17.405942
            ],
            [
              78.402568,
              17.405939
            ],
            [
              78.402566,
              17.405936
            ],
            [
              78.402565,
              17.405935
            ],
            [
              78.402565,
              17.405934
            ],
            [
              78.402564,
              17.405933
            ],
            [
              78.402563,
              17.40593
            ],
            [
              78.402562,
              17.405927
            ],
            [
              78.402561,
              17.405923
            ],
            [
              78.402561,
              17.40592
            ],
            [
              78.402561,
              17.405916
            ],
            [
              78.402561,
              17.405913
            ],
            [
              78.402561,
              17.405909
            ],
            [
              78.402562,
              17.405906
            ],
            [
              78.402564,
              17.405902
            ],
            [
              78.402565,
              17.405899
            ],
            [
              78.402567,
              17.405896
            ],
            [
              78.402569,
              17.405893
            ],
            [
              78.402572,
              17.405891
            ],
            [
              78.402575,
              17.405889
            ],
            [
              78.402577,
              17.405887
            ],
            [
              78.402581,
              17.405885
            ],
            [
              78.402584,
              17.405884
            ],
            [
              78.402587,
              17.405882
            ],
            [
              78.402591,
              17.405882
            ],
            [
              78.402594,
              17.405881
            ],
            [
              78.402598,
              17.405881
            ],
            [
              78.402601,
              17.405882
            ],
            [
              78.402605,
              17.405882
            ],
            [
              78.402608,
              17.405883
            ],
            [
              78.402611,
              17.405884
            ],
            [
              78.402788,
              17.405965
            ],
            [
              78.40845,
              17.402588
            ],
            [
              78.408451,
              17.402588
            ],
            [
              78.408453,
              17.402587
            ],
            [
              78.408456,
              17.402586
            ],
            [
              78.412503,
              17.401027
            ],
            [
              78.413916,
              17.399752
            ],
            [
              78.415074,
              17.398707
            ],
            [
              78.415069,
              17.398657
            ],
            [
              78.414771,
              17.398681
            ],
            [
              78.414215,
              17.398728
            ],
            [
              78.413912,
              17.398754
            ],
            [
              78.410572,
              17.399296
            ],
            [
              78.410568,
              17.399297
            ],
            [
              78.410565,
              17.399297
            ],
            [
              78.410561,
              17.399297
            ],
            [
              78.410558,
              17.399296
            ],
            [
              78.410554,
              17.399295
            ],
            [
              78.410551,
              17.399294
            ],
            [
              78.410548,
              17.399292
            ],
            [
              78.410545,
              17.39929
            ],
            [
              78.410542,
              17.399288
            ],
            [
              78.41054,
              17.399286
            ],
            [
              78.410539,
              17.399285
            ],
            [
              78.410538,
              17.399283
            ],
            [
              78.410536,
              17.39928
            ],
            [
              78.410534,
              17.399277
            ],
            [
              78.410532,
              17.399274
            ],
            [
              78.409893,
              17.397612
            ],
            [
              78.409893,
              17.397611
            ],
            [
              78.409217,
              17.395677
            ],
            [
              78.409217,
              17.395675
            ],
            [
              78.409216,
              17.395674
            ],
            [
              78.409216,
              17.395673
            ],
            [
              78.409215,
              17.395669
            ],
            [
              78.409215,
              17.395666
            ],
            [
              78.409215,
              17.395662
            ],
            [
              78.409216,
              17.395658
            ],
            [
              78.409567,
              17.39385
            ],
            [
              78.409568,
              17.393843
            ],
            [
              78.409508,
              17.393706
            ],
            [
              78.409507,
              17.393702
            ],
            [
              78.409506,
              17.393699
            ],
            [
              78.409505,
              17.393695
            ],
            [
              78.409505,
              17.393692
            ],
            [
              78.409505,
              17.393688
            ],
            [
              78.409506,
              17.393685
            ],
            [
              78.409506,
              17.393681
            ],
            [
              78.409508,
              17.393678
            ],
            [
              78.409509,
              17.393675
            ],
            [
              78.409511,
              17.393672
            ],
            [
              78.409513,
              17.393669
            ],
            [
              78.409515,
              17.393666
            ],
            [
              78.409518,
              17.393664
            ],
            [
              78.409521,
              17.393662
            ],
            [
              78.409524,
              17.39366
            ],
            [
              78.409525,
              17.393659
            ],
            [
              78.409525,
              17.393658
            ],
            [
              78.409412,
              17.393414
            ],
            [
              78.408664,
              17.391862
            ],
            [
              78.405416,
              17.3922
            ],
            [
              78.402041,
              17.393
            ],
            [
              78.402037,
              17.393001
            ],
            [
              78.402035,
              17.393001
            ],
            [
              78.402034,
              17.393001
            ],
            [
              78.402033,
              17.393001
            ],
            [
              78.40203,
              17.393001
            ],
            [
              78.402026,
              17.393
            ],
            [
              78.402022,
              17.393
            ],
            [
              78.402019,
              17.392998
            ],
            [
              78.399796,
              17.392098
            ],
            [
              78.394937,
              17.392335
            ],
            [
              78.394936,
              17.392335
            ],
            [
              78.394935,
              17.392335
            ],
            [
              78.391022,
              17.392335
            ],
            [
              78.385256,
              17.394426
            ],
            [
              78.385252,
              17.394427
            ],
            [
              78.385251,
              17.394427
            ],
            [
              78.385249,
              17.394428
            ],
            [
              78.385245,
              17.394428
            ],
            [
              78.385241,
              17.394428
            ],
            [
              78.381904,
              17.394236
            ],
            [
              78.381859,
              17.39431
            ],
            [
              78.381838,
              17.394372
            ],
            [
              78.381803,
              17.394403
            ],
            [
              78.381793,
              17.39442
            ],
            [
              78.381791,
              17.394423
            ],
            [
              78.381789,
              17.394426
            ],
            [
              78.381787,
              17.394428
            ],
            [
              78.381784,
              17.39443
            ],
            [
              78.381781,
              17.394432
            ],
            [
              78.381778,
              17.394434
            ],
            [
              78.381775,
              17.394435
            ],
            [
              78.381772,
              17.394436
            ],
            [
              78.381762,
              17.394439
            ],
            [
              78.38174,
              17.394459
            ],
            [
              78.381614,
              17.394489
            ],
            [
              78.381604,
              17.394486
            ],
            [
              78.381603,
              17.394486
            ],
            [
              78.381599,
              17.394487
            ],
            [
              78.381596,
              17.394487
            ],
            [
              78.381593,
              17.394488
            ],
            [
              78.381589,
              17.394487
            ],
            [
              78.381586,
              17.394487
            ],
            [
              78.381582,
              17.394486
            ],
            [
              78.381579,
              17.394485
            ],
            [
              78.381517,
              17.394459
            ],
            [
              78.381468,
              17.394444
            ],
            [
              78.381461,
              17.394436
            ],
            [
              78.381455,
              17.394434
            ],
            [
              78.381452,
              17.394432
            ],
            [
              78.381448,
              17.39443
            ],
            [
              78.381445,
              17.394428
            ],
            [
              78.381443,
              17.394425
            ],
            [
              78.38144,
              17.394422
            ],
            [
              78.381372,
              17.394332
            ],
            [
              78.38137,
              17.394328
            ],
            [
              78.381368,
              17.394325
            ],
            [
              78.378146,
              17.386796
            ],
            [
              78.364207,
              17.377376
            ],
            [
              78.364204,
              17.377374
            ],
            [
              78.364201,
              17.377371
            ],
            [
              78.364199,
              17.377368
            ],
            [
              78.364197,
              17.377366
            ],
            [
              78.364197,
              17.377365
            ],
            [
              78.364195,
              17.377362
            ],
            [
              78.364193,
              17.377359
            ],
            [
              78.364192,
              17.377356
            ],
            [
              78.36029,
              17.36345
            ],
            [
              78.360283,
              17.363427
            ],
            [
              78.346368,
              17.37483
            ],
            [
              78.315816,
              17.382259
            ],
            [
              78.311889,
              17.395249
            ],
            [
              78.315959,
              17.41406
            ],
            [
              78.33883,
              17.417872
            ],
            [
              78.352088,
              17.412253
            ]
          ]
        ]
      }
    }
  ]
}