{
  "type": "FeatureCollection",
  "features": [
    {
      "type": "Feature",
      "properties": {},
      "geometry": {
        "type": "Polygon",
        "coordinates": [
          [
            [
              78.432199,
              17.410844
            ],
            [
              78.432203,
              17.410843
            ],
            [
              78.432206,
              17.410843
            ],
            [
              78.432209,
              17.410843
            ],
            [
              78.432212,
              17.410843
            ],
            [
              78.432216,
              17.410844
            ],
            [
              78.434556,
              17.411358
            ],
            [
              78.43649,
              17.410706
            ],
            [
              78.438021,
              17.408505
            ],
            [
              78.4381,
              17.408276
            ],
            [
              78.438026,
              17.408203
            ],
            [
              78.437404,
              17.407638
            ],
            [
              78.435589,
              17.405989
            ],
            [
              78.435587,
              17.405987
            ],
            [
              78.435587,
              17.405986
            ],
            [
              78.435586,
              17.405986
            ],
            [
              78.435584,
              17.405983
            ],
            [
              78.435582,
              17.405979
            ],
            [
              78.43525,
              17.405375
            ],
            [
              78.435248,
              17.405372
            ],
            [
              78.435247,
              17.405369
            ],
            [
              78.435246,
              17.405366
            ],
            [
              78.435245,
              17.405363
            ],
            [
              78.435245,
              17.405359
            ],
            [
              78.435245,
              17.405357
            ],
            [
              78.435245,
              17.405356
            ],
            [
              78.435246,
              17.405352
            ],
            [
              78.435246,
              17.405349
            ],
            [
              78.437086,
              17.39816
            ],
            [
              78.437087,
              17.398157
            ],
            [
              78.437088,
              17.398153
            ],
            [
              78.43709,
              17.39815
            ],
            [
              78.437091,
              17.398149
            ],
            [
              78.437091,
              17.398148
            ],
            [
              78.437092,
              17.398147
            ],
            [
              78.437094,
              17.398144
            ],
            [
              78.437097,
              17.398142
            ],
            [
              78.4371,
              17.39814
            ],
            [
              78.437103,
              17.398138
            ],
            [
              78.437106,
              17.398136
            ],
            [
              78.43711,
              17.398135
            ],
            [
              78.437113,
              17.398134
            ],
            [
              78.437117,
              17.398133
            ],
            [
              78.43712,
              17.398133
            ],
            [
              78.442934,
              17.398105
            ],
            [
              78.442935,
              17.398105
            ],
            [
              78.442937,
              17.398105
            ],
            [
              78.442941,
              17.398106
            ],
            [
              78.442944,
              17.398106
            ],
            [
              78.442947,
              17.398108
            ],
            [
              78.442951,
              17.398109
            ],
            [
              78.442954,
              17.398111
            ],
            [
              78.442956,
              17.398113
            ],
            [
              78.442959,
              17.398115
            ],
            [
              78.442961,
              17.398118
            ],
            [
              78.442963,
              17.39812
            ],
            [
              78.442965,
              17.398123
            ],
            [
              78.442967,
              17.398126
            ],
            [
              78.442968,
              17.398129
            ],
            [
              78.443027,
              17.398302
            ],
            [
              78.443195,
              17.398387
            ],
            [
              78.445126,
              17.398323
            ],
            [
              78.445129,
              17.398323
            ],
            [
              78.445293,
              17.398329
            ],
            [
              78.444744,
              17.398194
            ],
            [
              78.444419,
              17.398066
            ],
            [
              78.443813,
              17.397719
            ],
            [
              78.443285,
              17.397262
            ],
            [
              78.442855,
              17.396712
            ],
            [
              78.442539,
              17.39609
            ],
            [
              78.442348,
              17.395417
            ],
            [
              78.442291,
              17.394721
            ],
            [
              78.442375,
              17.393993
            ],
            [
              78.442092,
              17.394127
            ],
            [
              78.436634,
              17.394785
            ],
            [
              78.433332,
              17.395247
            ],
            [
              78.431333,
              17.395686
            ],
            [
              78.431309,
              17.395728
            ],
            [
              78.431092,
              17.395775
            ],
            [
              78.427871,
              17.395774
            ],
            [
              78.427275,
              17.394708
            ],
            [
              78.427274,
              17.394707
            ],
            [
              78.427272,
              17.394706
            ],
            [
              78.42727,
              17.394704
            ],
            [
              78.42714,
              17.394592
            ],
            [
              78.426975,
              17.39459
            ],
            [
              78.425329,
              17.395399
            ],
            [
              78.425326,
              17.3954
            ],
            [
              78.425322,
              17.395402
            ],
            [
              78.425319,
              17.395402
            ],
            [
              78.425315,
              17.395403
            ],
            [
              78.425311,
              17.395403
            ],
            [
              78.425262,
              17.3954
            ],
            [
              78.424719,
              17.395392
            ],
            [
              78.424562,
              17.395451
            ],
            [
              78.424554,
              17.395461
            ],
            [
              78.424494,
              17.395577
            ],
            [
              78.424489,
              17.395601
            ],
            [
              78.424524,
              17.395759
            ],
            [
              78.424525,
              17.395762
            ],
            [
              78.424525,
              17.395766
            ],
            [
              78.424525,
              17.395769
            ],
            [
              78.424525,
              17.39577
            ],
            [
              78.423809,
              17.403366
            ],
            [
              78.423809,
              17.403367
            ],
            [
              78.423808,
              17.40337
            ],
            [
              78.423807,
              17.403374
            ],
            [
              78.423806,
              17.403377
            ],
            [
              78.423804,
              17.403381
            ],
            [
              78.423802,
              17.403384
            ],
            [
              78.423739,
              17.403473
            ],
            [
              78.423296,
              17.404147
            ],
            [
              78.423294,
              17.404151
            ],
            [
              78.423329,
              17.404305
            ],
            [
              78.42343,
              17.404393
            ],
            [
              78.423586,
              17.404404
            ],
            [
              78.423709,
              17.404327
            ],
            [
              78.423712,
              17.404325
            ],
            [
              78.423715,
              17.404324
            ],
            [
              78.423719,
              17.404323
            ],
            [
              78.423722,
              17.404322
            ],
            [
              78.423725,
              17.404322
            ],
            [
              78.423725,
              17.404321
            ],
            [
              78.423726,
              17.404321
            ],
            [
              78.423729,
              17.404321
            ],
            [
              78.423733,
              17.404322
            ],
            [
              78.423736,
              17.404322
            ],
            [
              78.42374,
              17.404323
            ],
            [
              78.423743,
              17.404324
            ],
            [
              78.423746,
              17.404326
            ],
            [
              78.423749,
              17.404328
            ],
            [
              78.423752,
              17.40433
            ],
            [
              78.423754,
              17.404333
            ],
            [
              78.423757,
              17.404335
            ],
            [
              78.423759,
              17.404338
            ],
            [
              78.42376,
              17.404341
            ],
            [
              78.423762,
              17.404344
            ],
            [
              78.423763,
              17.404348
            ],
            [
              78.423764,
              17.404351
            ],
            [
              78.423764,
              17.404355
            ],
            [
              78.423764,
              17.404358
            ],
            [
              78.423764,
              17.404362
            ],
            [
              78.423763,
              17.404365
            ],
            [
              78.423763,
              17.404366
            ],
            [
              78.423762,
              17.404369
            ],
            [
              78.423761,
              17.404372
            ],
            [
              78.42376,
              17.404375
            ],
            [
              78.423758,
              17.404378
            ],
            [
              78.423756,
              17.404381
            ],
            [
              78.422065,
              17.406349
            ],
            [
              78.424699,
              17.414074
            ],
            [
              78.425182,
              17.414011
            ],
            [
              78.432193,
              17.410846
            ],
            [
              78.432196,
              17.410845
            ],
            [
              78.432198,
              17.410844
            ],
            [
              78.432199,
              17.410844
            ]
          ]
        ]
      }
    }
  ]
}