{
  "type": "FeatureCollection",
  "features": [
    {
      "type": "Feature",
      "properties": {},
      "geometry": {
        "type": "Polygon",
        "coordinates": [
          [
            [
              78.499314,
              17.338765
            ],
            [
              78.510233,
              17.327677
            ],
            [
              78.522412,
              17.318446
            ],
            [
              78.527538,
              17.308797
            ],
            [
              78.531265,
              17.310816
            ],
            [
              78.535613,
              17.309936
            ],
            [
              78.536532,
              17.309586
            ],
            [
              78.539517,
              17.307394
            ],
            [
              78.54319,
              17.304588
            ],
            [
              78.550354,
              17.299458
            ],
            [
              78.55807,
              17.309933
            ],
            [
              78.564646,
              17.310597
            ],
            [
              78.561858,
              17.315179
            ],
            [
              78.559329,
              17.321679
            ],
            [
              78.555565,
              17.327814
            ],
            [
              78.553315,
              17.330013
            ],
            [
              78.552721,
              17.332103
            ],
            [
              78.552238,
              17.334831
            ],
            [
              78.549046,
              17.334442
            ],
            [
              78.544778,
              17.334123
            ],
            [
              78.536147,
              17.337034
            ],
            [
              78.533667,
              17.336714
            ],
            [
              78.524954,
              17.337546
            ],
            [
              78.523111,
              17.33793
            ],
            [
              78.509563,
              17.341394
            ],
            [
              78.50648,
              17.342322
            ],
            [
              78.499314,
              17.338765
            ]
          ]
        ]
      }
    }
  ]
}