{
  "type": "FeatureCollection",
  "features": [
    {
      "type": "Feature",
      "properties": {},
      "geometry": {
        "type": "Polygon",
        "coordinates": [
          [
            [
              78.53828,
              17.368615
            ],
            [
              78.541737,
              17.367081
            ],
            [
              78.543588,
              17.364897
            ],
            [
              78.54461,
              17.361783
            ],
            [
              78.545341,
              17.357647
            ],
            [
              78.546753,
              17.353092
            ],
            [
              78.551817,
              17.354207
            ],
            [
              78.556005,
              17.355323
            ],
            [
              78.556394,
              17.355834
            ],
            [
              78.557125,
              17.358204
            ],
            [
              78.55766,
              17.360761
            ],
            [
              78.557222,
              17.363224
            ],
            [
              78.557027,
              17.364757
            ],
            [
              78.557125,
              17.36578
            ],
            [
              78.557125,
              17.368568
            ],
            [
              78.557465,
              17.371543
            ],
            [
              78.557563,
              17.373727
            ],
            [
              78.55766,
              17.37619
            ],
            [
              78.557271,
              17.37619
            ],
            [
              78.553765,
              17.375121
            ],
            [
              78.551866,
              17.374284
            ],
            [
              78.546607,
              17.372611
            ],
            [
              78.54276,
              17.371821
            ],
            [
              78.540179,
              17.370055
            ],
            [
              78.53828,
              17.368615
            ]
          ]
        ]
      }
    }
  ]
}