{
  "type": "FeatureCollection",
  "features": [
    {
      "type": "Feature",
      "properties": {},
      "geometry": {
        "type": "Polygon",
        "coordinates": [
          [
            [
              78.614398,
              17.289177
            ],
            [
              78.669235,
              17.271359
            ],
            [
              78.688643,
              17.307115
            ],
            [
              78.685577,
              17.307922
            ],
            [
              78.661074,
              17.31486
            ],
            [
              78.643575,
              17.306556
            ],
            [
              78.616418,
              17.294536
            ],
            [
              78.614398,
              17.289177
            ]
          ]
        ]
      }
    }
  ]
}