{
  "type": "FeatureCollection",
  "features": [
    {
      "type": "Feature",
      "properties": {},
      "geometry": {
        "type": "Polygon",
        "coordinates": [
          [
            [
              78.498526,
              17.375069
            ],
            [
              78.498641,
              17.374501
            ],
            [
              78.500945,
              17.364114
            ],
            [
              78.504538,
              17.351803
            ],
            [
              78.508363,
              17.341851
            ],
            [
              78.524737,
              17.33769
            ],
            [
              78.534222,
              17.336904
            ],
            [
              78.536283,
              17.337185
            ],
            [
              78.544647,
              17.334374
            ],
            [
              78.547946,
              17.334486
            ],
            [
              78.552832,
              17.335163
            ],
            [
              78.555421,
              17.329656
            ],
            [
              78.561606,
              17.338087
            ],
            [
              78.553481,
              17.342639
            ],
            [
              78.549237,
              17.345051
            ],
            [
              78.544762,
              17.346062
            ],
            [
              78.541995,
              17.347804
            ],
            [
              78.531688,
              17.353424
            ],
            [
              78.531747,
              17.354324
            ],
            [
              78.534693,
              17.367592
            ],
            [
              78.531806,
              17.367761
            ],
            [
              78.529685,
              17.372147
            ],
            [
              78.527211,
              17.372428
            ],
            [
              78.522263,
              17.373046
            ],
            [
              78.519847,
              17.37389
            ],
            [
              78.513663,
              17.375238
            ],
            [
              78.510483,
              17.376362
            ],
            [
              78.50907,
              17.376643
            ],
            [
              78.507538,
              17.377936
            ],
            [
              78.505359,
              17.377767
            ],
            [
              78.502298,
              17.373719
            ],
            [
              78.498526,
              17.375069
            ]
          ]
        ]
      }
    }
  ]
}