{
  "type": "FeatureCollection",
  "features": [
    {
      "type": "Feature",
      "properties": {},
      "geometry": {
        "type": "Polygon",
        "coordinates": [
          [
            [
              78.558196,
              17.378486
            ],
            [
              78.558059,
              17.374671
            ],
            [
              78.557796,
              17.368127
            ],
            [
              78.557927,
              17.362883
            ],
            [
              78.558191,
              17.358561
            ],
            [
              78.559026,
              17.358771
            ],
            [
              78.559979,
              17.35936
            ],
            [
              78.567604,
              17.358706
            ],
            [
              78.572843,
              17.354392
            ],
            [
              78.589971,
              17.36154
            ],
            [
              78.593053,
              17.366656
            ],
            [
              78.588613,
              17.381338
            ],
            [
              78.574504,
              17.382052
            ],
            [
              78.558196,
              17.378486
            ]
          ]
        ]
      }
    }
  ]
}