{
  "type": "FeatureCollection",
  "features": [
    {
      "type": "Feature",
      "properties": {},
      "geometry": {
        "type": "Polygon",
        "coordinates": [
          [
            [
              78.534973,
              17.368335
            ],
            [
              78.533403,
              17.360773
            ],
            [
              78.531863,
              17.353567
            ],
            [
              78.532036,
              17.353661
            ],
            [
              78.541441,
              17.348404
            ],
            [
              78.544812,
              17.3463
            ],
            [
              78.548755,
              17.345429
            ],
            [
              78.562603,
              17.338612
            ],
            [
              78.561973,
              17.315328
            ],
            [
              78.568384,
              17.307724
            ],
            [
              78.560807,
              17.301418
            ],
            [
              78.556338,
              17.284908
            ],
            [
              78.563396,
              17.279417
            ],
            [
              78.554886,
              17.273667
            ],
            [
              78.53874,
              17.271114
            ],
            [
              78.537894,
              17.268968
            ],
            [
              78.531876,
              17.233543
            ],
            [
              78.534212,
              17.220932
            ],
            [
              78.538689,
              17.213518
            ],
            [
              78.580044,
              17.22668
            ],
            [
              78.58471,
              17.219625
            ],
            [
              78.604547,
              17.209594
            ],
            [
              78.630017,
              17.194178
            ],
            [
              78.643579,
              17.18232
            ],
            [
              78.657709,
              17.178637
            ],
            [
              78.659914,
              17.195494
            ],
            [
              78.651984,
              17.203095
            ],
            [
              78.639747,
              17.19919
            ],
            [
              78.627701,
              17.207545
            ],
            [
              78.617985,
              17.216783
            ],
            [
              78.598904,
              17.223312
            ],
            [
              78.587427,
              17.250425
            ],
            [
              78.599664,
              17.27062
            ],
            [
              78.611198,
              17.290321
            ],
            [
              78.597302,
              17.298396
            ],
            [
              78.593091,
              17.302599
            ],
            [
              78.586969,
              17.303878
            ],
            [
              78.596966,
              17.324939
            ],
            [
              78.590503,
              17.331019
            ],
            [
              78.599045,
              17.335134
            ],
            [
              78.604989,
              17.329055
            ],
            [
              78.606357,
              17.330991
            ],
            [
              78.610319,
              17.334279
            ],
            [
              78.613952,
              17.337296
            ],
            [
              78.616028,
              17.338151
            ],
            [
              78.623717,
              17.340313
            ],
            [
              78.599909,
              17.363998
            ],
            [
              78.572857,
              17.353953
            ],
            [
              78.56741,
              17.358605
            ],
            [
              78.560599,
              17.359167
            ],
            [
              78.556903,
              17.35489
            ],
            [
              78.546985,
              17.351723
            ],
            [
              78.545816,
              17.354326
            ],
            [
              78.542109,
              17.36493
            ],
            [
              78.541034,
              17.366593
            ],
            [
              78.539185,
              17.367725
            ],
            [
              78.534973,
              17.368335
            ]
          ]
        ]
      }
    }
  ]
}