{
  "type": "FeatureCollection",
  "features": [
    {
      "type": "Feature",
      "properties": {},
      "geometry": {
        "type": "Polygon",
        "coordinates": [
          [
            [
              78.531088,
              17.376371
            ],
            [
              78.530055,
              17.37493
            ],
            [
              78.530637,
              17.372208
            ],
            [
              78.531918,
              17.369154
            ],
            [
              78.537969,
              17.369376
            ],
            [
              78.541228,
              17.371653
            ],
            [
              78.546581,
              17.373485
            ],
            [
              78.555542,
              17.376207
            ],
            [
              78.557333,
              17.377648
            ],
            [
              78.557334,
              17.382036
            ],
            [
              78.551107,
              17.37998
            ],
            [
              78.545055,
              17.382869
            ],
            [
              78.537955,
              17.381202
            ],
            [
              78.531088,
              17.376371
            ]
          ]
        ]
      }
    }
  ]
}