{
  "type": "FeatureCollection",
  "features": [
    {
      "type": "Feature",
      "properties": {},
      "geometry": {
        "type": "Polygon",
        "coordinates": [
          [
            [
              78.504942,
              17.31381
            ],
            [
              78.504433,
              17.308208
            ],
            [
              78.513743,
              17.30522
            ],
            [
              78.522506,
              17.303465
            ],
            [
              78.52274,
              17.305668
            ],
            [
              78.519807,
              17.316349
            ],
            [
              78.517929,
              17.31859
            ],
            [
              78.504942,
              17.31381
            ]
          ]
        ]
      }
    }
  ]
}