{
  "type": "FeatureCollection",
  "features": [
    {
      "type": "Feature",
      "properties": {},
      "geometry": {
        "type": "Polygon",
        "coordinates": [
          [
            [
              78.474901,
              17.223418
            ],
            [
              78.4609,
              17.203848
            ],
            [
              78.469705,
              17.173989
            ],
            [
              78.474307,
              17.135215
            ],
            [
              78.424773,
              17.139958
            ],
            [
              78.423232,
              17.128787
            ],
            [
              78.435949,
              17.125034
            ],
            [
              78.469829,
              17.124417
            ],
            [
              78.469713,
              17.084512
            ],
            [
              78.469576,
              17.05536
            ],
            [
              78.482284,
              17.053557
            ],
            [
              78.493838,
              17.056725
            ],
            [
              78.489293,
              17.068862
            ],
            [
              78.486369,
              17.081043
            ],
            [
              78.479618,
              17.087751
            ],
            [
              78.480233,
              17.09784
            ],
            [
              78.48739,
              17.157314
            ],
            [
              78.485519,
              17.177032
            ],
            [
              78.479841,
              17.197302
            ],
            [
              78.489388,
              17.215281
            ],
            [
              78.482597,
              17.213557
            ],
            [
              78.474901,
              17.223418
            ]
          ]
        ]
      }
    }
  ]
}