{
  "type": "FeatureCollection",
  "features": [
    {
      "type": "Feature",
      "properties": {},
      "geometry": {
        "type": "Polygon",
        "coordinates": [
          [
            [
              78.628421,
              17.343259
            ],
            [
              78.6237,
              17.340012
            ],
            [
              78.61464,
              17.337361
            ],
            [
              78.607941,
              17.332026
            ],
            [
              78.604886,
              17.328547
            ],
            [
              78.598986,
              17.33469
            ],
            [
              78.59135,
              17.330954
            ],
            [
              78.594127,
              17.32797
            ],
            [
              78.597702,
              17.325186
            ],
            [
              78.587532,
              17.304125
            ],
            [
              78.593498,
              17.302954
            ],
            [
              78.598075,
              17.298428
            ],
            [
              78.611594,
              17.290499
            ],
            [
              78.616635,
              17.296319
            ],
            [
              78.661625,
              17.316222
            ],
            [
              78.676075,
              17.312627
            ],
            [
              78.689923,
              17.307725
            ],
            [
              78.701491,
              17.323127
            ],
            [
              78.687526,
              17.321062
            ],
            [
              78.653907,
              17.320499
            ],
            [
              78.606969,
              17.328381
            ],
            [
              78.612627,
              17.332424
            ],
            [
              78.615647,
              17.335804
            ],
            [
              78.619535,
              17.337262
            ],
            [
              78.62436,
              17.338521
            ],
            [
              78.631327,
              17.335605
            ],
            [
              78.633271,
              17.339051
            ],
            [
              78.632819,
              17.342828
            ],
            [
              78.628421,
              17.343259
            ]
          ]
        ]
      }
    }
  ]
}