{
  "type": "FeatureCollection",
  "features": [
    {
      "type": "Feature",
      "properties": {},
      "geometry": {
        "type": "Polygon",
        "coordinates": [
          [
            [
              78.516184,
              17.322682
            ],
            [
              78.521698,
              17.313152
            ],
            [
              78.52418,
              17.301257
            ],
            [
              78.534446,
              17.289104
            ],
            [
              78.535017,
              17.284662
            ],
            [
              78.53739,
              17.273957
            ],
            [
              78.53853,
              17.271785
            ],
            [
              78.554778,
              17.274129
            ],
            [
              78.56267,
              17.279478
            ],
            [
              78.555252,
              17.285471
            ],
            [
              78.558578,
              17.299351
            ],
            [
              78.550308,
              17.299079
            ],
            [
              78.541856,
              17.305159
            ],
            [
              78.536057,
              17.309518
            ],
            [
              78.531396,
              17.310702
            ],
            [
              78.52731,
              17.30843
            ],
            [
              78.52217,
              17.318331
            ],
            [
              78.516184,
              17.322682
            ]
          ]
        ]
      }
    }
  ]
}