{
  "type": "FeatureCollection",
  "features": [
    {
      "type": "Feature",
      "properties": {},
      "geometry": {
        "type": "Polygon",
        "coordinates": [
          [
            [
              78.556177,
              17.469643
            ],
            [
              78.563827,
              17.465514
            ],
            [
              78.570994,
              17.46164
            ],
            [
              78.569243,
              17.454198
            ],
            [
              78.565288,
              17.451752
            ],
            [
              78.588166,
              17.448345
            ],
            [
              78.599188,
              17.448554
            ],
            [
              78.60447,
              17.448554
            ],
            [
              78.610649,
              17.448947
            ],
            [
              78.653155,
              17.451214
            ],
            [
              78.659763,
              17.456631
            ],
            [
              78.653349,
              17.46274
            ],
            [
              78.641084,
              17.480524
            ],
            [
              78.620846,
              17.483777
            ],
            [
              78.617419,
              17.47662
            ],
            [
              78.602587,
              17.473872
            ],
            [
              78.599159,
              17.475816
            ],
            [
              78.571944,
              17.492317
            ],
            [
              78.571436,
              17.492113
            ],
            [
              78.571209,
              17.491719
            ],
            [
              78.5674,
              17.484593
            ],
            [
              78.565406,
              17.480895
            ],
            [
              78.563866,
              17.478071
            ],
            [
              78.556177,
              17.469643
            ]
          ]
        ]
      }
    }
  ]
}