{
  "type": "FeatureCollection",
  "features": [
    {
      "type": "Feature",
      "properties": {},
      "geometry": {
        "type": "Polygon",
        "coordinates": [
          [
            [
              78.528218,
              17.477382
            ],
            [
              78.532323,
              17.464968
            ],
            [
              78.539519,
              17.458851
            ],
            [
              78.549417,
              17.456596
            ],
            [
              78.565213,
              17.451817
            ],
            [
              78.56918,
              17.454237
            ],
            [
              78.570887,
              17.461586
            ],
            [
              78.555019,
              17.470166
            ],
            [
              78.536972,
              17.476304
            ],
            [
              78.532925,
              17.479778
            ],
            [
              78.528218,
              17.477382
            ]
          ]
        ]
      }
    }
  ]
}