{
  "type": "FeatureCollection",
  "features": [
    {
      "type": "Feature",
      "properties": {},
      "geometry": {
        "type": "Polygon",
        "coordinates": [
          [
            [
              78.54974,
              17.515377
            ],
            [
              78.5405,
              17.52282
            ],
            [
              78.537843,
              17.501956
            ],
            [
              78.553211,
              17.498021
            ],
            [
              78.560834,
              17.495792
            ],
            [
              78.565468,
              17.494456
            ],
            [
              78.566915,
              17.494026
            ],
            [
              78.56842,
              17.493604
            ],
            [
              78.569337,
              17.493162
            ],
            [
              78.570039,
              17.492801
            ],
            [
              78.571387,
              17.492148
            ],
            [
              78.571945,
              17.492379
            ],
            [
              78.587592,
              17.48297
            ],
            [
              78.594955,
              17.478528
            ],
            [
              78.602623,
              17.473984
            ],
            [
              78.617355,
              17.476727
            ],
            [
              78.621005,
              17.484301
            ],
            [
              78.61751,
              17.500256
            ],
            [
              78.600207,
              17.510362
            ],
            [
              78.584129,
              17.528036
            ],
            [
              78.556226,
              17.527565
            ],
            [
              78.54974,
              17.515377
            ]
          ]
        ]
      }
    }
  ]
}