{
  "type": "FeatureCollection",
  "features": [
    {
      "type": "Feature",
      "properties": {},
      "geometry": {
        "type": "Polygon",
        "coordinates": [
          [
            [
              78.53788,
              17.50187
            ],
            [
              78.522352,
              17.489297
            ],
            [
              78.5373,
              17.476381
            ],
            [
              78.556378,
              17.470061
            ],
            [
              78.563838,
              17.478132
            ],
            [
              78.571378,
              17.492108
            ],
            [
              78.568498,
              17.493503
            ],
            [
              78.552567,
              17.498106
            ],
            [
              78.53788,
              17.50187
            ]
          ]
        ]
      }
    }
  ]
}