{
  "type": "FeatureCollection",
  "features": [
    {
      "type": "Feature",
      "properties": {},
      "geometry": {
        "type": "Polygon",
        "coordinates": [
          [
            [
              78.284439,
              17.514372
            ],
            [
              78.285545,
              17.516099
            ],
            [
              78.283342,
              17.520419
            ],
            [
              78.285368,
              17.522512
            ],
            [
              78.287057,
              17.52525
            ],
            [
              78.287009,
              17.526523
            ],
            [
              78.279368,
              17.532079
            ],
            [
              78.278536,
              17.538632
            ],
            [
              78.280221,
              17.541081
            ],
            [
              78.279889,
              17.545393
            ],
            [
              78.277663,
              17.550219
            ],
            [
              78.213114,
              17.56056
            ],
            [
              78.196916,
              17.554008
            ],
            [
              78.193526,
              17.540955
            ],
            [
              78.281162,
              17.498037
            ],
            [
              78.281683,
              17.509318
            ],
            [
              78.282972,
              17.51276
            ],
            [
              78.283231,
              17.51394
            ],
            [
              78.284439,
              17.514372
            ]
          ]
        ]
      }
    }
  ]
}