{
  "type": "FeatureCollection",
  "features": [
    {
      "type": "Feature",
      "properties": {},
      "geometry": {
        "type": "Polygon",
        "coordinates": [
          [
            [
              78.423754,
              17.475769
            ],
            [
              78.427719,
              17.473552
            ],
            [
              78.427758,
              17.47438
            ],
            [
              78.427973,
              17.476373
            ],
            [
              78.428127,
              17.47822
            ],
            [
              78.428619,
              17.479188
            ],
            [
              78.428711,
              17.480097
            ],
            [
              78.42865,
              17.480889
            ],
            [
              78.427605,
              17.48124
            ],
            [
              78.427512,
              17.482325
            ],
            [
              78.427451,
              17.483879
            ],
            [
              78.426959,
              17.484524
            ],
            [
              78.426252,
              17.48558
            ],
            [
              78.426283,
              17.486195
            ],
            [
              78.426652,
              17.486752
            ],
            [
              78.426221,
              17.487485
            ],
            [
              78.424961,
              17.487133
            ],
            [
              78.424469,
              17.487515
            ],
            [
              78.424313,
              17.487851
            ],
            [
              78.42416,
              17.488408
            ],
            [
              78.423575,
              17.489258
            ],
            [
              78.425082,
              17.490167
            ],
            [
              78.425112,
              17.490578
            ],
            [
              78.424252,
              17.492102
            ],
            [
              78.424344,
              17.49342
            ],
            [
              78.423497,
              17.495036
            ],
            [
              78.422106,
              17.495728
            ],
            [
              78.421407,
              17.496351
            ],
            [
              78.420774,
              17.497174
            ],
            [
              78.420473,
              17.497977
            ],
            [
              78.41973,
              17.498196
            ],
            [
              78.417569,
              17.498167
            ],
            [
              78.417369,
              17.497698
            ],
            [
              78.41615,
              17.498379
            ],
            [
              78.415349,
              17.498882
            ],
            [
              78.415156,
              17.498675
            ],
            [
              78.414962,
              17.498447
            ],
            [
              78.414712,
              17.498056
            ],
            [
              78.414433,
              17.497659
            ],
            [
              78.413892,
              17.496868
            ],
            [
              78.412008,
              17.49509
            ],
            [
              78.407623,
              17.490732
            ],
            [
              78.409608,
              17.48814
            ],
            [
              78.411779,
              17.485053
            ],
            [
              78.412877,
              17.483643
            ],
            [
              78.415357,
              17.482172
            ],
            [
              78.416414,
              17.481416
            ],
            [
              78.418258,
              17.479569
            ],
            [
              78.421227,
              17.47744
            ],
            [
              78.423754,
              17.475769
            ]
          ]
        ]
      }
    }
  ]
}