{
  "type": "FeatureCollection",
  "features": [
    {
      "type": "Feature",
      "properties": {},
      "geometry": {
        "type": "Polygon",
        "coordinates": [
          [
            [
              78.414159,
              17.499532
            ],
            [
              78.414391,
              17.499126
            ],
            [
              78.415176,
              17.498949
            ],
            [
              78.415355,
              17.498889
            ],
            [
              78.41626,
              17.498517
            ],
            [
              78.417197,
              17.497913
            ],
            [
              78.41748,
              17.498184
            ],
            [
              78.418417,
              17.499032
            ],
            [
              78.418852,
              17.499428
            ],
            [
              78.419922,
              17.500412
            ],
            [
              78.418907,
              17.501987
            ],
            [
              78.418037,
              17.503719
            ],
            [
              78.417564,
              17.503719
            ],
            [
              78.416592,
              17.504171
            ],
            [
              78.413816,
              17.504927
            ],
            [
              78.411206,
              17.505361
            ],
            [
              78.410767,
              17.503518
            ],
            [
              78.411107,
              17.503289
            ],
            [
              78.410607,
              17.50191
            ],
            [
              78.412136,
              17.501723
            ],
            [
              78.413665,
              17.50197
            ],
            [
              78.41374,
              17.501292
            ],
            [
              78.414353,
              17.500536
            ],
            [
              78.414159,
              17.499532
            ]
          ]
        ]
      }
    }
  ]
}