{
  "type": "FeatureCollection",
  "features": [
    {
      "type": "Feature",
      "properties": {},
      "geometry": {
        "type": "Polygon",
        "coordinates": [
          [
            [
              78.393765,
              17.54075
            ],
            [
              78.394042,
              17.531772
            ],
            [
              78.394664,
              17.528013
            ],
            [
              78.394829,
              17.525256
            ],
            [
              78.396381,
              17.522397
            ],
            [
              78.396088,
              17.515376
            ],
            [
              78.396673,
              17.513139
            ],
            [
              78.400129,
              17.513652
            ],
            [
              78.401736,
              17.510688
            ],
            [
              78.401617,
              17.506971
            ],
            [
              78.401796,
              17.504846
            ],
            [
              78.401713,
              17.504804
            ],
            [
              78.401714,
              17.503246
            ],
            [
              78.401497,
              17.503211
            ],
            [
              78.401115,
              17.503136
            ],
            [
              78.401289,
              17.501974
            ],
            [
              78.40161,
              17.501183
            ],
            [
              78.401594,
              17.500901
            ],
            [
              78.40151,
              17.499339
            ],
            [
              78.401988,
              17.49937
            ],
            [
              78.401974,
              17.498579
            ],
            [
              78.399767,
              17.49482
            ],
            [
              78.404104,
              17.492821
            ],
            [
              78.406398,
              17.496738
            ],
            [
              78.409466,
              17.49797
            ],
            [
              78.410667,
              17.49695
            ],
            [
              78.412612,
              17.497979
            ],
            [
              78.412803,
              17.498405
            ],
            [
              78.414197,
              17.497416
            ],
            [
              78.414664,
              17.498079
            ],
            [
              78.414888,
              17.49846
            ],
            [
              78.414979,
              17.498622
            ],
            [
              78.415187,
              17.498933
            ],
            [
              78.414373,
              17.49911
            ],
            [
              78.41413,
              17.49953
            ],
            [
              78.414321,
              17.500533
            ],
            [
              78.413617,
              17.501218
            ],
            [
              78.413587,
              17.501902
            ],
            [
              78.412159,
              17.501684
            ],
            [
              78.410281,
              17.501912
            ],
            [
              78.408296,
              17.502242
            ],
            [
              78.407781,
              17.507027
            ],
            [
              78.408224,
              17.507563
            ],
            [
              78.409741,
              17.50813
            ],
            [
              78.410591,
              17.508736
            ],
            [
              78.410837,
              17.510255
            ],
            [
              78.411652,
              17.510991
            ],
            [
              78.413105,
              17.513295
            ],
            [
              78.405275,
              17.518281
            ],
            [
              78.405275,
              17.528965
            ],
            [
              78.400803,
              17.529213
            ],
            [
              78.399256,
              17.537101
            ],
            [
              78.396651,
              17.540892
            ],
            [
              78.395692,
              17.540499
            ],
            [
              78.393765,
              17.54075
            ]
          ]
        ]
      }
    }
  ]
}