{
  "type": "FeatureCollection",
  "features": [
    {
      "type": "Feature",
      "properties": {},
      "geometry": {
        "type": "Polygon",
        "coordinates": [
          [
            [
              78.394887,
              17.496473
            ],
            [
              78.397372,
              17.495857
            ],
            [
              78.399688,
              17.494827
            ],
            [
              78.401931,
              17.49859
            ],
            [
              78.401947,
              17.499316
            ],
            [
              78.401386,
              17.499311
            ],
            [
              78.401546,
              17.500887
            ],
            [
              78.401182,
              17.502083
            ],
            [
              78.401076,
              17.503262
            ],
            [
              78.401675,
              17.503262
            ],
            [
              78.401643,
              17.504826
            ],
            [
              78.399287,
              17.504998
            ],
            [
              78.395876,
              17.505497
            ],
            [
              78.393243,
              17.505594
            ],
            [
              78.393531,
              17.496963
            ],
            [
              78.391763,
              17.498033
            ],
            [
              78.390981,
              17.498447
            ],
            [
              78.389745,
              17.4988
            ],
            [
              78.389026,
              17.498514
            ],
            [
              78.386289,
              17.498996
            ],
            [
              78.379063,
              17.489721
            ],
            [
              78.377256,
              17.486427
            ],
            [
              78.375874,
              17.480497
            ],
            [
              78.378159,
              17.476999
            ],
            [
              78.382729,
              17.47411
            ],
            [
              78.38437,
              17.473073
            ],
            [
              78.385586,
              17.477602
            ],
            [
              78.390028,
              17.48452
            ],
            [
              78.394887,
              17.496473
            ]
          ]
        ]
      }
    }
  ]
}