{
  "type": "FeatureCollection",
  "features": [
    {
      "type": "Feature",
      "properties": {},
      "geometry": {
        "type": "Polygon",
        "coordinates": [
          [
            [
              78.475512,
              17.401102
            ],
            [
              78.481047,
              17.398578
            ],
            [
              78.485922,
              17.394857
            ],
            [
              78.488289,
              17.39572
            ],
            [
              78.490587,
              17.395421
            ],
            [
              78.49473,
              17.399674
            ],
            [
              78.49473,
              17.401368
            ],
            [
              78.495914,
              17.40479
            ],
            [
              78.49661,
              17.407215
            ],
            [
              78.478471,
              17.413428
            ],
            [
              78.475129,
              17.409109
            ],
            [
              78.476417,
              17.406019
            ],
            [
              78.475512,
              17.401102
            ]
          ]
        ]
      }
    }
  ]
}