{
  "type": "FeatureCollection",
  "features": [
    {
      "type": "Feature",
      "properties": {},
      "geometry": {
        "type": "Polygon",
        "coordinates": [
          [
            [
              78.500967,
              17.375375
            ],
            [
              78.50395,
              17.374372
            ],
            [
              78.515069,
              17.376216
            ],
            [
              78.518255,
              17.382071
            ],
            [
              78.516289,
              17.391776
            ],
            [
              78.513781,
              17.391711
            ],
            [
              78.511509,
              17.393264
            ],
            [
              78.504628,
              17.394331
            ],
            [
              78.50395,
              17.395172
            ],
            [
              78.501476,
              17.39391
            ],
            [
              78.501612,
              17.391484
            ],
            [
              78.499103,
              17.388994
            ],
            [
              78.493341,
              17.384433
            ],
            [
              78.492425,
              17.38385
            ],
            [
              78.500967,
              17.375375
            ]
          ]
        ]
      }
    }
  ]
}