{
  "type": "FeatureCollection",
  "features": [
    {
      "type": "Feature",
      "properties": {},
      "geometry": {
        "type": "Polygon",
        "coordinates": [
          [
            [
              78.468914,
              17.371479
            ],
            [
              78.470072,
              17.37097
            ],
            [
              78.470906,
              17.370948
            ],
            [
              78.473038,
              17.371236
            ],
            [
              78.475703,
              17.372098
            ],
            [
              78.476931,
              17.373359
            ],
            [
              78.479711,
              17.373491
            ],
            [
              78.480522,
              17.374707
            ],
            [
              78.483743,
              17.380236
            ],
            [
              78.48511,
              17.380501
            ],
            [
              78.491018,
              17.380589
            ],
            [
              78.49169,
              17.380744
            ],
            [
              78.493103,
              17.381319
            ],
            [
              78.493775,
              17.382137
            ],
            [
              78.492153,
              17.38384
            ],
            [
              78.492176,
              17.384216
            ],
            [
              78.490462,
              17.383928
            ],
            [
              78.478506,
              17.385255
            ],
            [
              78.475239,
              17.383508
            ],
            [
              78.474984,
              17.383685
            ],
            [
              78.474521,
              17.38426
            ],
            [
              78.473247,
              17.383597
            ],
            [
              78.472111,
              17.381474
            ],
            [
              78.47137,
              17.379462
            ],
            [
              78.471254,
              17.377626
            ],
            [
              78.470049,
              17.376631
            ],
            [
              78.468752,
              17.374332
            ],
            [
              78.468914,
              17.371479
            ]
          ]
        ]
      }
    }
  ]
}