{
  "type": "FeatureCollection",
  "features": [
    {
      "type": "Feature",
      "properties": {},
      "geometry": {
        "type": "Polygon",
        "coordinates": [
          [
            [
              78.487543,
              17.449956
            ],
            [
              78.488492,
              17.443669
            ],
            [
              78.502961,
              17.443066
            ],
            [
              78.511139,
              17.438136
            ],
            [
              78.514092,
              17.435319
            ],
            [
              78.523688,
              17.438889
            ],
            [
              78.527075,
              17.441221
            ],
            [
              78.531106,
              17.452838
            ],
            [
              78.532821,
              17.462368
            ],
            [
              78.528104,
              17.462613
            ],
            [
              78.508724,
              17.457133
            ],
            [
              78.501938,
              17.457617
            ],
            [
              78.497239,
              17.458018
            ],
            [
              78.484868,
              17.458169
            ],
            [
              78.486383,
              17.453929
            ],
            [
              78.487543,
              17.449956
            ]
          ]
        ]
      }
    }
  ]
}