{
  "type": "FeatureCollection",
  "features": [
    {
      "type": "Feature",
      "properties": {},
      "geometry": {
        "type": "Polygon",
        "coordinates": [
          [
            [
              78.47841,
              17.413511
            ],
            [
              78.496871,
              17.407335
            ],
            [
              78.497858,
              17.410738
            ],
            [
              78.498176,
              17.415417
            ],
            [
              78.500533,
              17.420658
            ],
            [
              78.498735,
              17.421382
            ],
            [
              78.494387,
              17.42356
            ],
            [
              78.48926,
              17.425809
            ],
            [
              78.485916,
              17.422315
            ],
            [
              78.479609,
              17.417876
            ],
            [
              78.47841,
              17.413511
            ]
          ]
        ]
      }
    }
  ]
}