{
  "type": "FeatureCollection",
  "features": [
    {
      "type": "Feature",
      "properties": {},
      "geometry": {
        "type": "Polygon",
        "coordinates": [
          [
            [
              78.361515,
              17.496748
            ],
            [
              78.362878,
              17.496736
            ],
            [
              78.366265,
              17.496766
            ],
            [
              78.3657,
              17.500923
            ],
            [
              78.350726,
              17.498421
            ],
            [
              78.353446,
              17.494623
            ],
            [
              78.361515,
              17.496748
            ]
          ]
        ]
      }
    }
  ]
}