{
  "type": "FeatureCollection",
  "features": [
    {
      "type": "Feature",
      "properties": {},
      "geometry": {
        "type": "Polygon",
        "coordinates": [
          [
            [
              78.373634,
              17.543947
            ],
            [
              78.375559,
              17.545375
            ],
            [
              78.379302,
              17.566787
            ],
            [
              78.350291,
              17.57172
            ],
            [
              78.331408,
              17.559482
            ],
            [
              78.332242,
              17.538561
            ],
            [
              78.332951,
              17.526935
            ],
            [
              78.343718,
              17.522696
            ],
            [
              78.361155,
              17.519437
            ],
            [
              78.364755,
              17.540683
            ],
            [
              78.373634,
              17.543947
            ]
          ]
        ]
      }
    }
  ]
}