{
  "type": "FeatureCollection",
  "features": [
    {
      "type": "Feature",
      "properties": {},
      "geometry": {
        "type": "Polygon",
        "coordinates": [
          [
            [
              78.401232,
              17.435396
            ],
            [
              78.402155,
              17.436278
            ],
            [
              78.40393,
              17.450542
            ],
            [
              78.396447,
              17.451745
            ],
            [
              78.393545,
              17.45179
            ],
            [
              78.387966,
              17.452223
            ],
            [
              78.384457,
              17.452708
            ],
            [
              78.38278,
              17.452736
            ],
            [
              78.381576,
              17.451984
            ],
            [
              78.385016,
              17.469624
            ],
            [
              78.348835,
              17.479939
            ],
            [
              78.342498,
              17.482425
            ],
            [
              78.335477,
              17.483885
            ],
            [
              78.329701,
              17.471561
            ],
            [
              78.341041,
              17.456307
            ],
            [
              78.352125,
              17.445658
            ],
            [
              78.359075,
              17.441731
            ],
            [
              78.364521,
              17.438521
            ],
            [
              78.367556,
              17.44117
            ],
            [
              78.374189,
              17.437965
            ],
            [
              78.378975,
              17.438045
            ],
            [
              78.388378,
              17.43178
            ],
            [
              78.395354,
              17.434987
            ],
            [
              78.399132,
              17.43283
            ],
            [
              78.401232,
              17.435396
            ]
          ]
        ]
      }
    }
  ]
}