{
  "type": "FeatureCollection",
  "features": [
    {
      "type": "Feature",
      "properties": {},
      "geometry": {
        "type": "Polygon",
        "coordinates": [
          [
            [
              78.370787,
              17.473714
            ],
            [
              78.371299,
              17.476441
            ],
            [
              78.3685,
              17.488009
            ],
            [
              78.372097,
              17.496778
            ],
            [
              78.366368,
              17.496652
            ],
            [
              78.361499,
              17.496634
            ],
            [
              78.353418,
              17.494555
            ],
            [
              78.350637,
              17.498429
            ],
            [
              78.363253,
              17.500604
            ],
            [
              78.362323,
              17.506806
            ],
            [
              78.360457,
              17.518487
            ],
            [
              78.343122,
              17.522469
            ],
            [
              78.334451,
              17.518909
            ],
            [
              78.33315,
              17.506672
            ],
            [
              78.335233,
              17.502338
            ],
            [
              78.335247,
              17.495758
            ],
            [
              78.335532,
              17.48395
            ],
            [
              78.342689,
              17.482418
            ],
            [
              78.348872,
              17.479959
            ],
            [
              78.370787,
              17.473714
            ]
          ]
        ]
      }
    }
  ]
}