{
  "type": "FeatureCollection",
  "features": [
    {
      "type": "Feature",
      "properties": {},
      "geometry": {
        "type": "Polygon",
        "coordinates": [
          [
            [
              78.291761,
              17.461369
            ],
            [
              78.292516,
              17.461583
            ],
            [
              78.301011,
              17.469834
            ],
            [
              78.309226,
              17.472507
            ],
            [
              78.308848,
              17.477194
            ],
            [
              78.310946,
              17.480159
            ],
            [
              78.310962,
              17.481696
            ],
            [
              78.296153,
              17.478338
            ],
            [
              78.282761,
              17.484332
            ],
            [
              78.280329,
              17.484387
            ],
            [
              78.278069,
              17.470464
            ],
            [
              78.281951,
              17.46516
            ],
            [
              78.291761,
              17.461369
            ]
          ]
        ]
      }
    }
  ]
}