{
  "type": "FeatureCollection",
  "features": [
    {
      "type": "Feature",
      "properties": {},
      "geometry": {
        "type": "Polygon",
        "coordinates": [
          [
            [
              78.272179,
              17.524596
            ],
            [
              78.277641,
              17.528492
            ],
            [
              78.281046,
              17.551908
            ],
            [
              78.272242,
              17.567967
            ],
            [
              78.261009,
              17.571742
            ],
            [
              78.251174,
              17.564076
            ],
            [
              78.243508,
              17.537658
            ],
            [
              78.259606,
              17.52074
            ],
            [
              78.272179,
              17.524596
            ]
          ]
        ]
      }
    }
  ]
}