{
  "type": "FeatureCollection",
  "features": [
    {
      "type": "Feature",
      "properties": {},
      "geometry": {
        "type": "Polygon",
        "coordinates": [
          [
            [
              78.32849,
              17.47205
            ],
            [
              78.329594,
              17.471712
            ],
            [
              78.335463,
              17.48396
            ],
            [
              78.33503,
              17.495419
            ],
            [
              78.335086,
              17.50232
            ],
            [
              78.332652,
              17.506234
            ],
            [
              78.331669,
              17.538718
            ],
            [
              78.318944,
              17.539742
            ],
            [
              78.308609,
              17.529389
            ],
            [
              78.302625,
              17.514479
            ],
            [
              78.300358,
              17.509135
            ],
            [
              78.311513,
              17.502782
            ],
            [
              78.316016,
              17.494903
            ],
            [
              78.314173,
              17.489343
            ],
            [
              78.311007,
              17.480125
            ],
            [
              78.308871,
              17.477177
            ],
            [
              78.309254,
              17.472538
            ],
            [
              78.319548,
              17.472109
            ],
            [
              78.32849,
              17.47205
            ]
          ]
        ]
      }
    }
  ]
}