{
  "type": "FeatureCollection",
  "features": [
    {
      "type": "Feature",
      "properties": {},
      "geometry": {
        "type": "Polygon",
        "coordinates": [
          [
            [
              78.356307,
              17.419916
            ],
            [
              78.362243,
              17.418173
            ],
            [
              78.371752,
              17.418462
            ],
            [
              78.374858,
              17.428914
            ],
            [
              78.375603,
              17.435806
            ],
            [
              78.372158,
              17.43888
            ],
            [
              78.364514,
              17.438334
            ],
            [
              78.352187,
              17.445087
            ],
            [
              78.346254,
              17.450965
            ],
            [
              78.325214,
              17.448346
            ],
            [
              78.320036,
              17.426086
            ],
            [
              78.330986,
              17.426378
            ],
            [
              78.340715,
              17.425653
            ],
            [
              78.356307,
              17.419916
            ]
          ]
        ]
      }
    }
  ]
}