{
  "type": "FeatureCollection",
  "features": [
    {
      "type": "Feature",
      "properties": {},
      "geometry": {
        "type": "Polygon",
        "coordinates": [
          [
            [
              78.310947,
              17.481712
            ],
            [
              78.311985,
              17.483494
            ],
            [
              78.316002,
              17.494893
            ],
            [
              78.311481,
              17.502723
            ],
            [
              78.300323,
              17.509141
            ],
            [
              78.308568,
              17.529385
            ],
            [
              78.302785,
              17.536823
            ],
            [
              78.297357,
              17.54253
            ],
            [
              78.281871,
              17.541901
            ],
            [
              78.278903,
              17.537111
            ],
            [
              78.277655,
              17.528492
            ],
            [
              78.272252,
              17.524644
            ],
            [
              78.264243,
              17.518009
            ],
            [
              78.267233,
              17.50321
            ],
            [
              78.282445,
              17.501503
            ],
            [
              78.29213,
              17.494256
            ],
            [
              78.296149,
              17.478344
            ],
            [
              78.310947,
              17.481712
            ]
          ]
        ]
      }
    }
  ]
}