{
  "type": "FeatureCollection",
  "features": [
    {
      "type": "Feature",
      "properties": {},
      "geometry": {
        "type": "Polygon",
        "coordinates": [
          [
            [
              78.317215,
              17.496661
            ],
            [
              78.317803,
              17.501923
            ],
            [
              78.318315,
              17.506132
            ],
            [
              78.318393,
              17.508502
            ],
            [
              78.318069,
              17.510901
            ],
            [
              78.318214,
              17.512164
            ],
            [
              78.320029,
              17.520336
            ],
            [
              78.321203,
              17.524816
            ],
            [
              78.320616,
              17.539262
            ],
            [
              78.297206,
              17.552508
            ],
            [
              78.278046,
              17.549496
            ],
            [
              78.279233,
              17.532104
            ],
            [
              78.279618,
              17.517982
            ],
            [
              78.280092,
              17.50454
            ],
            [
              78.281149,
              17.501179
            ],
            [
              78.291952,
              17.501849
            ],
            [
              78.291732,
              17.491005
            ],
            [
              78.280734,
              17.484402
            ],
            [
              78.280733,
              17.475915
            ],
            [
              78.287301,
              17.473761
            ],
            [
              78.294341,
              17.476437
            ],
            [
              78.304276,
              17.4806
            ],
            [
              78.310704,
              17.481516
            ],
            [
              78.313326,
              17.486907
            ],
            [
              78.314941,
              17.492949
            ],
            [
              78.31561,
              17.49335
            ],
            [
              78.315925,
              17.494849
            ],
            [
              78.317215,
              17.496661
            ]
          ]
        ]
      }
    }
  ]
}