{
  "type": "FeatureCollection",
  "features": [
    {
      "type": "Feature",
      "properties": {},
      "geometry": {
        "type": "Polygon",
        "coordinates": [
          [
            [
              78.445857,
              17.466817
            ],
            [
              78.442186,
              17.463579
            ],
            [
              78.442976,
              17.462035
            ],
            [
              78.44641,
              17.461169
            ],
            [
              78.449134,
              17.460152
            ],
            [
              78.45016,
              17.458495
            ],
            [
              78.450712,
              17.456462
            ],
            [
              78.450634,
              17.454127
            ],
            [
              78.454778,
              17.453939
            ],
            [
              78.45991,
              17.457968
            ],
            [
              78.461686,
              17.462788
            ],
            [
              78.459357,
              17.463729
            ],
            [
              78.453594,
              17.463654
            ],
            [
              78.445857,
              17.466817
            ]
          ]
        ]
      }
    }
  ]
}