{
  "type": "FeatureCollection",
  "features": [
    {
      "type": "Feature",
      "properties": {},
      "geometry": {
        "type": "Polygon",
        "coordinates": [
          [
            [
              78.363209,
              17.438383
            ],
            [
              78.361487,
              17.434754
            ],
            [
              78.358904,
              17.42736
            ],
            [
              78.356751,
              17.419759
            ],
            [
              78.354598,
              17.421129
            ],
            [
              78.348785,
              17.422841
            ],
            [
              78.342111,
              17.425032
            ],
            [
              78.338738,
              17.425443
            ],
            [
              78.335508,
              17.426333
            ],
            [
              78.3307,
              17.426264
            ],
            [
              78.329839,
              17.41928
            ],
            [
              78.328619,
              17.414761
            ],
            [
              78.326251,
              17.410447
            ],
            [
              78.337446,
              17.404078
            ],
            [
              78.341537,
              17.401887
            ],
            [
              78.350077,
              17.398394
            ],
            [
              78.352229,
              17.400243
            ],
            [
              78.358975,
              17.401408
            ],
            [
              78.365865,
              17.401202
            ],
            [
              78.369238,
              17.406749
            ],
            [
              78.372327,
              17.408863
            ],
            [
              78.367949,
              17.412972
            ],
            [
              78.370748,
              17.418244
            ],
            [
              78.371681,
              17.420983
            ],
            [
              78.371896,
              17.427351
            ],
            [
              78.372471,
              17.430159
            ],
            [
              78.366901,
              17.435711
            ],
            [
              78.363209,
              17.438383
            ]
          ]
        ]
      }
    }
  ]
}