{
  "type": "FeatureCollection",
  "features": [
    {
      "type": "Feature",
      "properties": {},
      "geometry": {
        "type": "Polygon",
        "coordinates": [
          [
            [
              78.502118,
              17.42896
            ],
            [
              78.502199,
              17.428249
            ],
            [
              78.502199,
              17.426273
            ],
            [
              78.501735,
              17.422083
            ],
            [
              78.499423,
              17.41804
            ],
            [
              78.502546,
              17.417759
            ],
            [
              78.504471,
              17.41672
            ],
            [
              78.506269,
              17.416224
            ],
            [
              78.508206,
              17.416396
            ],
            [
              78.509339,
              17.416156
            ],
            [
              78.511239,
              17.415403
            ],
            [
              78.512231,
              17.414691
            ],
            [
              78.513276,
              17.412963
            ],
            [
              78.514408,
              17.411645
            ],
            [
              78.516875,
              17.411062
            ],
            [
              78.518097,
              17.410673
            ],
            [
              78.519219,
              17.410781
            ],
            [
              78.522361,
              17.414688
            ],
            [
              78.528537,
              17.423817
            ],
            [
              78.531286,
              17.427121
            ],
            [
              78.517363,
              17.437476
            ],
            [
              78.505831,
              17.433525
            ],
            [
              78.502118,
              17.42896
            ]
          ]
        ]
      }
    }
  ]
}