{
  "type": "FeatureCollection",
  "features": [
    {
      "type": "Feature",
      "properties": {},
      "geometry": {
        "type": "Polygon",
        "coordinates": [
          [
            [
              78.457381,
              17.439066
            ],
            [
              78.483132,
              17.430192
            ],
            [
              78.491895,
              17.431547
            ],
            [
              78.497965,
              17.432247
            ],
            [
              78.501147,
              17.430799
            ],
            [
              78.500658,
              17.43589
            ],
            [
              78.49821,
              17.443363
            ],
            [
              78.49165,
              17.447053
            ],
            [
              78.487684,
              17.451536
            ],
            [
              78.482691,
              17.453451
            ],
            [
              78.457038,
              17.449528
            ],
            [
              78.457381,
              17.439066
            ]
          ]
        ]
      }
    }
  ]
}