{
  "type": "FeatureCollection",
  "features": [
    {
      "type": "Feature",
      "properties": {},
      "geometry": {
        "type": "Polygon",
        "coordinates": [
          [
            [
              78.486118,
              17.428793
            ],
            [
              78.474388,
              17.410037
            ],
            [
              78.477394,
              17.406691
            ],
            [
              78.481317,
              17.40478
            ],
            [
              78.485533,
              17.404859
            ],
            [
              78.490292,
              17.403465
            ],
            [
              78.495009,
              17.405895
            ],
            [
              78.496512,
              17.407169
            ],
            [
              78.497388,
              17.411153
            ],
            [
              78.496971,
              17.414259
            ],
            [
              78.499601,
              17.418916
            ],
            [
              78.501604,
              17.42254
            ],
            [
              78.501897,
              17.425727
            ],
            [
              78.502064,
              17.429231
            ],
            [
              78.501229,
              17.430386
            ],
            [
              78.49981,
              17.430386
            ],
            [
              78.49743,
              17.432019
            ],
            [
              78.492797,
              17.431262
            ],
            [
              78.486118,
              17.428793
            ]
          ]
        ]
      }
    }
  ]
}