{
  "type": "FeatureCollection",
  "features": [
    {
      "type": "Feature",
      "properties": {},
      "geometry": {
        "type": "Polygon",
        "coordinates": [
          [
            [
              78.481526,
              17.404343
            ],
            [
              78.483354,
              17.402599
            ],
            [
              78.486925,
              17.400895
            ],
            [
              78.489125,
              17.400697
            ],
            [
              78.492738,
              17.399073
            ],
            [
              78.495727,
              17.397131
            ],
            [
              78.498717,
              17.395229
            ],
            [
              78.502994,
              17.394912
            ],
            [
              78.505859,
              17.39091
            ],
            [
              78.511465,
              17.391386
            ],
            [
              78.519936,
              17.392574
            ],
            [
              78.529768,
              17.396607
            ],
            [
              78.528688,
              17.401203
            ],
            [
              78.516688,
              17.406909
            ],
            [
              78.515775,
              17.40683
            ],
            [
              78.513615,
              17.405007
            ],
            [
              78.509338,
              17.401401
            ],
            [
              78.496632,
              17.406354
            ],
            [
              78.490155,
              17.402947
            ],
            [
              78.489573,
              17.402947
            ],
            [
              78.485463,
              17.404492
            ],
            [
              78.481526,
              17.404343
            ]
          ]
        ]
      }
    }
  ]
}