{
  "type": "FeatureCollection",
  "features": [
    {
      "type": "Feature",
      "properties": {},
      "geometry": {
        "type": "Polygon",
        "coordinates": [
          [
            [
              78.418945,
              17.570661
            ],
            [
              78.420002,
              17.569264
            ],
            [
              78.420922,
              17.5679
            ],
            [
              78.43206,
              17.570726
            ],
            [
              78.433439,
              17.586689
            ],
            [
              78.423732,
              17.592923
            ],
            [
              78.413478,
              17.588001
            ],
            [
              78.41169,
              17.576993
            ],
            [
              78.418945,
              17.570661
            ]
          ]
        ]
      }
    }
  ]
}