{
  "type": "FeatureCollection",
  "features": [
    {
      "type": "Feature",
      "properties": {},
      "geometry": {
        "type": "Polygon",
        "coordinates": [
          [
            [
              78.416412,
              17.527394
            ],
            [
              78.416114,
              17.524879
            ],
            [
              78.415279,
              17.515282
            ],
            [
              78.42004,
              17.512455
            ],
            [
              78.417618,
              17.510703
            ],
            [
              78.417456,
              17.509832
            ],
            [
              78.42443,
              17.511425
            ],
            [
              78.428032,
              17.509605
            ],
            [
              78.431348,
              17.507589
            ],
            [
              78.440673,
              17.509714
            ],
            [
              78.44748,
              17.511187
            ],
            [
              78.446185,
              17.518196
            ],
            [
              78.443638,
              17.521939
            ],
            [
              78.439796,
              17.526399
            ],
            [
              78.436748,
              17.529823
            ],
            [
              78.434326,
              17.535875
            ],
            [
              78.429942,
              17.534044
            ],
            [
              78.416412,
              17.527394
            ]
          ]
        ]
      }
    }
  ]
}