{
  "type": "FeatureCollection",
  "features": [
    {
      "type": "Feature",
      "properties": {},
      "geometry": {
        "type": "Polygon",
        "coordinates": [
          [
            [
              78.473001,
              17.35384
            ],
            [
              78.472216,
              17.353974
            ],
            [
              78.471268,
              17.354016
            ],
            [
              78.470859,
              17.354016
            ],
            [
              78.468109,
              17.354232
            ],
            [
              78.465402,
              17.354267
            ],
            [
              78.467494,
              17.350182
            ],
            [
              78.468971,
              17.348445
            ],
            [
              78.470811,
              17.347694
            ],
            [
              78.471451,
              17.348523
            ],
            [
              78.471742,
              17.348834
            ],
            [
              78.472157,
              17.34956
            ],
            [
              78.472349,
              17.350154
            ],
            [
              78.472536,
              17.351285
            ],
            [
              78.47268,
              17.352485
            ],
            [
              78.473001,
              17.35384
            ]
          ]
        ]
      }
    }
  ]
}