{
  "type": "FeatureCollection",
  "features": [
    {
      "type": "Feature",
      "properties": {},
      "geometry": {
        "type": "Polygon",
        "coordinates": [
          [
            [
              78.488609,
              17.339567
            ],
            [
              78.481783,
              17.337501
            ],
            [
              78.480856,
              17.336298
            ],
            [
              78.481498,
              17.335843
            ],
            [
              78.485602,
              17.32694
            ],
            [
              78.491842,
              17.318674
            ],
            [
              78.498785,
              17.321249
            ],
            [
              78.493461,
              17.33464
            ],
            [
              78.498266,
              17.337819
            ],
            [
              78.502238,
              17.340929
            ],
            [
              78.501215,
              17.342201
            ],
            [
              78.49741,
              17.342541
            ],
            [
              78.49075,
              17.341724
            ],
            [
              78.488609,
              17.339567
            ]
          ]
        ]
      }
    }
  ]
}