{
  "type": "FeatureCollection",
  "features": [
    {
      "type": "Feature",
      "properties": {},
      "geometry": {
        "type": "Polygon",
        "coordinates": [
          [
            [
              78.474006,
              17.271454
            ],
            [
              78.474849,
              17.275033
            ],
            [
              78.472332,
              17.285551
            ],
            [
              78.473861,
              17.291604
            ],
            [
              78.473837,
              17.29305
            ],
            [
              78.477772,
              17.29552
            ],
            [
              78.475686,
              17.30025
            ],
            [
              78.474903,
              17.302882
            ],
            [
              78.474242,
              17.305385
            ],
            [
              78.474735,
              17.306494
            ],
            [
              78.475093,
              17.307717
            ],
            [
              78.47615,
              17.309884
            ],
            [
              78.478506,
              17.314436
            ],
            [
              78.479354,
              17.3169
            ],
            [
              78.479863,
              17.319401
            ],
            [
              78.480449,
              17.322236
            ],
            [
              78.479661,
              17.324556
            ],
            [
              78.476514,
              17.326229
            ],
            [
              78.475704,
              17.326764
            ],
            [
              78.47405,
              17.325759
            ],
            [
              78.470927,
              17.323701
            ],
            [
              78.469697,
              17.322935
            ],
            [
              78.468446,
              17.32217
            ],
            [
              78.467385,
              17.319495
            ],
            [
              78.466546,
              17.316907
            ],
            [
              78.466134,
              17.315768
            ],
            [
              78.463427,
              17.314404
            ],
            [
              78.461597,
              17.31452
            ],
            [
              78.459252,
              17.314781
            ],
            [
              78.455031,
              17.315378
            ],
            [
              78.458627,
              17.287929
            ],
            [
              78.458798,
              17.287929
            ],
            [
              78.461374,
              17.282604
            ],
            [
              78.474006,
              17.271454
            ]
          ]
        ]
      }
    }
  ]
}