{
  "type": "FeatureCollection",
  "features": [
    {
      "type": "Feature",
      "properties": {},
      "geometry": {
        "type": "Polygon",
        "coordinates": [
          [
            [
              78.491657,
              17.377338
            ],
            [
              78.487306,
              17.377534
            ],
            [
              78.477233,
              17.370798
            ],
            [
              78.476077,
              17.368484
            ],
            [
              78.475456,
              17.36539
            ],
            [
              78.47521,
              17.363862
            ],
            [
              78.47484,
              17.361537
            ],
            [
              78.479587,
              17.360386
            ],
            [
              78.480426,
              17.36392
            ],
            [
              78.481456,
              17.36372
            ],
            [
              78.482943,
              17.363442
            ],
            [
              78.483815,
              17.362606
            ],
            [
              78.484497,
              17.361946
            ],
            [
              78.484678,
              17.361368
            ],
            [
              78.484835,
              17.360937
            ],
            [
              78.488677,
              17.361478
            ],
            [
              78.491931,
              17.361297
            ],
            [
              78.48967,
              17.367968
            ],
            [
              78.495665,
              17.376535
            ],
            [
              78.494192,
              17.376927
            ],
            [
              78.491657,
              17.377338
            ]
          ]
        ]
      }
    }
  ]
}