{
  "type": "FeatureCollection",
  "features": [
    {
      "type": "Feature",
      "properties": {},
      "geometry": {
        "type": "Polygon",
        "coordinates": [
          [
            [
              78.546181,
              17.342237
            ],
            [
              78.544365,
              17.342909
            ],
            [
              78.53519,
              17.343715
            ],
            [
              78.533712,
              17.343956
            ],
            [
              78.53159,
              17.337611
            ],
            [
              78.531851,
              17.335767
            ],
            [
              78.531992,
              17.334827
            ],
            [
              78.532123,
              17.333901
            ],
            [
              78.532377,
              17.332168
            ],
            [
              78.532506,
              17.331326
            ],
            [
              78.532622,
              17.330468
            ],
            [
              78.546457,
              17.327033
            ],
            [
              78.559411,
              17.322105
            ],
            [
              78.553102,
              17.330315
            ],
            [
              78.551432,
              17.335655
            ],
            [
              78.548629,
              17.338652
            ],
            [
              78.547848,
              17.341517
            ],
            [
              78.546181,
              17.342237
            ]
          ]
        ]
      }
    }
  ]
}