{
  "type": "FeatureCollection",
  "features": [
    {
      "type": "Feature",
      "properties": {},
      "geometry": {
        "type": "Polygon",
        "coordinates": [
          [
            [
              78.456306,
              17.363541
            ],
            [
              78.449973,
              17.358295
            ],
            [
              78.443218,
              17.359117
            ],
            [
              78.441449,
              17.356867
            ],
            [
              78.436163,
              17.356354
            ],
            [
              78.433159,
              17.355481
            ],
            [
              78.418347,
              17.349181
            ],
            [
              78.41796,
              17.344322
            ],
            [
              78.428249,
              17.338302
            ],
            [
              78.426088,
              17.329118
            ],
            [
              78.426249,
              17.325272
            ],
            [
              78.431113,
              17.322331
            ],
            [
              78.433439,
              17.322355
            ],
            [
              78.434918,
              17.327247
            ],
            [
              78.43953,
              17.332857
            ],
            [
              78.448566,
              17.336621
            ],
            [
              78.450107,
              17.337244
            ],
            [
              78.450626,
              17.338771
            ],
            [
              78.450477,
              17.34276
            ],
            [
              78.451541,
              17.346681
            ],
            [
              78.451672,
              17.348986
            ],
            [
              78.454574,
              17.356329
            ],
            [
              78.456306,
              17.363541
            ]
          ]
        ]
      }
    }
  ]
}