{
  "type": "FeatureCollection",
  "features": [
    {
      "type": "Feature",
      "properties": {},
      "geometry": {
        "type": "Polygon",
        "coordinates": [
          [
            [
              78.508421,
              17.372127
            ],
            [
              78.514605,
              17.375873
            ],
            [
              78.514573,
              17.376744
            ],
            [
              78.509514,
              17.376365
            ],
            [
              78.506708,
              17.378269
            ],
            [
              78.504927,
              17.379791
            ],
            [
              78.503198,
              17.381809
            ],
            [
              78.500194,
              17.381236
            ],
            [
              78.497566,
              17.378482
            ],
            [
              78.497662,
              17.376687
            ],
            [
              78.498113,
              17.37467
            ],
            [
              78.498971,
              17.373646
            ],
            [
              78.499754,
              17.372008
            ],
            [
              78.500184,
              17.371097
            ],
            [
              78.50087,
              17.370482
            ],
            [
              78.501525,
              17.369868
            ],
            [
              78.501814,
              17.369151
            ],
            [
              78.501814,
              17.367953
            ],
            [
              78.503113,
              17.367871
            ],
            [
              78.506503,
              17.367656
            ],
            [
              78.508091,
              17.369315
            ],
            [
              78.508327,
              17.370626
            ],
            [
              78.508421,
              17.372127
            ]
          ]
        ]
      }
    }
  ]
}