{
  "type": "FeatureCollection",
  "features": [
    {
      "type": "Feature",
      "properties": {},
      "geometry": {
        "type": "Polygon",
        "coordinates": [
          [
            [
              78.479752,
              17.360763
            ],
            [
              78.479671,
              17.360512
            ],
            [
              78.479699,
              17.360407
            ],
            [
              78.48131,
              17.359769
            ],
            [
              78.482982,
              17.359184
            ],
            [
              78.484289,
              17.358849
            ],
            [
              78.484328,
              17.359197
            ],
            [
              78.484105,
              17.359785
            ],
            [
              78.48481,
              17.360542
            ],
            [
              78.484817,
              17.360877
            ],
            [
              78.48447,
              17.361949
            ],
            [
              78.482926,
              17.363399
            ],
            [
              78.480464,
              17.363852
            ],
            [
              78.48012,
              17.362527
            ],
            [
              78.479752,
              17.360763
            ]
          ]
        ]
      }
    }
  ]
}