{
  "type": "FeatureCollection",
  "features": [
    {
      "type": "Feature",
      "properties": {},
      "geometry": {
        "type": "Polygon",
        "coordinates": [
          [
            [
              78.456255,
              17.334054
            ],
            [
              78.455952,
              17.333582
            ],
            [
              78.456252,
              17.332682
            ],
            [
              78.467709,
              17.331803
            ],
            [
              78.467617,
              17.336635
            ],
            [
              78.462145,
              17.339017
            ],
            [
              78.456485,
              17.339961
            ],
            [
              78.456255,
              17.334054
            ]
          ]
        ]
      }
    }
  ]
}