{
  "type": "FeatureCollection",
  "features": [
    {
      "type": "Feature",
      "properties": {},
      "geometry": {
        "type": "Polygon",
        "coordinates": [
          [
            [
              78.452012,
              17.283454
            ],
            [
              78.453267,
              17.283063
            ],
            [
              78.453923,
              17.283398
            ],
            [
              78.454138,
              17.28455
            ],
            [
              78.455047,
              17.285254
            ],
            [
              78.453967,
              17.28832
            ],
            [
              78.452577,
              17.289712
            ],
            [
              78.449996,
              17.293507
            ],
            [
              78.450376,
              17.298857
            ],
            [
              78.450346,
              17.30297
            ],
            [
              78.451283,
              17.305335
            ],
            [
              78.450714,
              17.307308
            ],
            [
              78.450057,
              17.308492
            ],
            [
              78.449107,
              17.31058
            ],
            [
              78.448716,
              17.31334
            ],
            [
              78.44895,
              17.314691
            ],
            [
              78.449081,
              17.31614
            ],
            [
              78.44644,
              17.314942
            ],
            [
              78.444129,
              17.314194
            ],
            [
              78.442207,
              17.313677
            ],
            [
              78.440817,
              17.313
            ],
            [
              78.438855,
              17.312226
            ],
            [
              78.437878,
              17.311585
            ],
            [
              78.436856,
              17.310638
            ],
            [
              78.432665,
              17.307996
            ],
            [
              78.427626,
              17.305914
            ],
            [
              78.426165,
              17.305121
            ],
            [
              78.424898,
              17.303983
            ],
            [
              78.424775,
              17.297507
            ],
            [
              78.426668,
              17.290373
            ],
            [
              78.431338,
              17.286854
            ],
            [
              78.438619,
              17.282215
            ],
            [
              78.440796,
              17.282201
            ],
            [
              78.443117,
              17.282424
            ],
            [
              78.445101,
              17.283024
            ],
            [
              78.44675,
              17.28287
            ],
            [
              78.448685,
              17.2833
            ],
            [
              78.452012,
              17.283454
            ]
          ]
        ]
      }
    }
  ]
}