{
  "type": "FeatureCollection",
  "features": [
    {
      "type": "Feature",
      "properties": {},
      "geometry": {
        "type": "Polygon",
        "coordinates": [
          [
            [
              78.446325,
              17.519421
            ],
            [
              78.447204,
              17.515283
            ],
            [
              78.447663,
              17.512527
            ],
            [
              78.447816,
              17.511789
            ],
            [
              78.451992,
              17.499119
            ],
            [
              78.452344,
              17.496136
            ],
            [
              78.464676,
              17.490592
            ],
            [
              78.476358,
              17.498696
            ],
            [
              78.473614,
              17.500593
            ],
            [
              78.470545,
              17.502353
            ],
            [
              78.46782,
              17.504118
            ],
            [
              78.467224,
              17.505625
            ],
            [
              78.465801,
              17.506941
            ],
            [
              78.469761,
              17.513805
            ],
            [
              78.471668,
              17.520758
            ],
            [
              78.461079,
              17.525135
            ],
            [
              78.452341,
              17.524271
            ],
            [
              78.451865,
              17.523246
            ],
            [
              78.450625,
              17.52224
            ],
            [
              78.447524,
              17.520289
            ],
            [
              78.446325,
              17.519421
            ]
          ]
        ]
      }
    }
  ]
}