{
  "type": "FeatureCollection",
  "features": [
    {
      "type": "Feature",
      "properties": {},
      "geometry": {
        "type": "Polygon",
        "coordinates": [
          [
            [
              78.473753,
              17.476132
            ],
            [
              78.474366,
              17.475338
            ],
            [
              78.475639,
              17.471822
            ],
            [
              78.476577,
              17.470288
            ],
            [
              78.478299,
              17.469118
            ],
            [
              78.480662,
              17.468981
            ],
            [
              78.481402,
              17.468242
            ],
            [
              78.482542,
              17.466516
            ],
            [
              78.483949,
              17.464023
            ],
            [
              78.483681,
              17.462872
            ],
            [
              78.483882,
              17.461402
            ],
            [
              78.484954,
              17.456543
            ],
            [
              78.487702,
              17.456415
            ],
            [
              78.497754,
              17.45616
            ],
            [
              78.500167,
              17.462233
            ],
            [
              78.501842,
              17.463639
            ],
            [
              78.506466,
              17.467411
            ],
            [
              78.509348,
              17.470991
            ],
            [
              78.510219,
              17.474123
            ],
            [
              78.511224,
              17.474379
            ],
            [
              78.514843,
              17.474315
            ],
            [
              78.517591,
              17.474698
            ],
            [
              78.521478,
              17.47521
            ],
            [
              78.519802,
              17.478853
            ],
            [
              78.516384,
              17.482816
            ],
            [
              78.511559,
              17.484606
            ],
            [
              78.502378,
              17.481282
            ],
            [
              78.498388,
              17.477875
            ],
            [
              78.488624,
              17.479919
            ],
            [
              78.484696,
              17.475162
            ],
            [
              78.477716,
              17.475785
            ],
            [
              78.473753,
              17.476132
            ]
          ]
        ]
      }
    }
  ]
}