{
  "type": "FeatureCollection",
  "features": [
    {
      "type": "Feature",
      "properties": {},
      "geometry": {
        "type": "Polygon",
        "coordinates": [
          [
            [
              78.537241,
              17.423414
            ],
            [
              78.546516,
              17.414875
            ],
            [
              78.550346,
              17.421555
            ],
            [
              78.551842,
              17.424324
            ],
            [
              78.550304,
              17.427098
            ],
            [
              78.546686,
              17.428073
            ],
            [
              78.543011,
              17.429189
            ],
            [
              78.537574,
              17.433051
            ],
            [
              78.537878,
              17.433302
            ],
            [
              78.543025,
              17.434248
            ],
            [
              78.542376,
              17.434875
            ],
            [
              78.54191,
              17.435118
            ],
            [
              78.54008,
              17.435445
            ],
            [
              78.538173,
              17.435807
            ],
            [
              78.535997,
              17.436108
            ],
            [
              78.534863,
              17.436532
            ],
            [
              78.534074,
              17.437108
            ],
            [
              78.532705,
              17.438108
            ],
            [
              78.529783,
              17.440131
            ],
            [
              78.526706,
              17.441677
            ],
            [
              78.524404,
              17.44036
            ],
            [
              78.516745,
              17.438807
            ],
            [
              78.520376,
              17.434358
            ],
            [
              78.53132,
              17.426785
            ],
            [
              78.537241,
              17.423414
            ]
          ]
        ]
      }
    }
  ]
}