{
  "type": "FeatureCollection",
  "features": [
    {
      "type": "Feature",
      "properties": {},
      "geometry": {
        "type": "Polygon",
        "coordinates": [
          [
            [
              78.54981,
              17.483734
            ],
            [
              78.55538,
              17.481168
            ],
            [
              78.560779,
              17.478331
            ],
            [
              78.563872,
              17.477187
            ],
            [
              78.566884,
              17.476982
            ],
            [
              78.566904,
              17.476735
            ],
            [
              78.567358,
              17.476462
            ],
            [
              78.568506,
              17.474554
            ],
            [
              78.569568,
              17.47388
            ],
            [
              78.570711,
              17.47359
            ],
            [
              78.57068,
              17.473198
            ],
            [
              78.570742,
              17.472228
            ],
            [
              78.575804,
              17.464365
            ],
            [
              78.578714,
              17.458705
            ],
            [
              78.579564,
              17.457309
            ],
            [
              78.580046,
              17.455763
            ],
            [
              78.59551,
              17.452277
            ],
            [
              78.605274,
              17.456856
            ],
            [
              78.617356,
              17.463486
            ],
            [
              78.622817,
              17.478957
            ],
            [
              78.613874,
              17.500255
            ],
            [
              78.595834,
              17.509094
            ],
            [
              78.570562,
              17.515263
            ],
            [
              78.57246,
              17.505616
            ],
            [
              78.572119,
              17.502927
            ],
            [
              78.569222,
              17.501041
            ],
            [
              78.567677,
              17.497788
            ],
            [
              78.566894,
              17.494587
            ],
            [
              78.562144,
              17.495375
            ],
            [
              78.55684,
              17.496929
            ],
            [
              78.54981,
              17.483734
            ]
          ]
        ]
      }
    }
  ]
}