{
  "type": "FeatureCollection",
  "features": [
    {
      "type": "Feature",
      "properties": {},
      "geometry": {
        "type": "Polygon",
        "coordinates": [
          [
            [
              78.581056,
              17.394857
            ],
            [
              78.581311,
              17.393774
            ],
            [
              78.585559,
              17.388546
            ],
            [
              78.597522,
              17.388279
            ],
            [
              78.599646,
              17.393294
            ],
            [
              78.598975,
              17.399055
            ],
            [
              78.600888,
              17.408702
            ],
            [
              78.596739,
              17.408176
            ],
            [
              78.596683,
              17.41383
            ],
            [
              78.598249,
              17.41735
            ],
            [
              78.600541,
              17.424498
            ],
            [
              78.601668,
              17.42954
            ],
            [
              78.59872,
              17.440084
            ],
            [
              78.590163,
              17.443785
            ],
            [
              78.585617,
              17.436766
            ],
            [
              78.582058,
              17.432909
            ],
            [
              78.580316,
              17.43071
            ],
            [
              78.579811,
              17.430084
            ],
            [
              78.579625,
              17.429785
            ],
            [
              78.581332,
              17.426735
            ],
            [
              78.576014,
              17.424675
            ],
            [
              78.576237,
              17.423595
            ],
            [
              78.57586,
              17.422698
            ],
            [
              78.574999,
              17.421287
            ],
            [
              78.574585,
              17.419362
            ],
            [
              78.573886,
              17.413321
            ],
            [
              78.576992,
              17.411978
            ],
            [
              78.576796,
              17.409054
            ],
            [
              78.57718,
              17.404871
            ],
            [
              78.581056,
              17.394857
            ]
          ]
        ]
      }
    }
  ]
}