{
  "type": "FeatureCollection",
  "features": [
    {
      "type": "Feature",
      "properties": {},
      "geometry": {
        "type": "Polygon",
        "coordinates": [
          [
            [
              78.531887,
              17.479654
            ],
            [
              78.529904,
              17.481202
            ],
            [
              78.527754,
              17.483464
            ],
            [
              78.527378,
              17.486479
            ],
            [
              78.530794,
              17.489722
            ],
            [
              78.534045,
              17.494667
            ],
            [
              78.536949,
              17.494734
            ],
            [
              78.539745,
              17.494885
            ],
            [
              78.544579,
              17.495425
            ],
            [
              78.545077,
              17.504913
            ],
            [
              78.544964,
              17.505763
            ],
            [
              78.544123,
              17.505893
            ],
            [
              78.54388,
              17.509528
            ],
            [
              78.541095,
              17.509248
            ],
            [
              78.540276,
              17.511366
            ],
            [
              78.539939,
              17.513593
            ],
            [
              78.540076,
              17.516265
            ],
            [
              78.54013,
              17.517529
            ],
            [
              78.540475,
              17.518753
            ],
            [
              78.541239,
              17.520849
            ],
            [
              78.541549,
              17.523727
            ],
            [
              78.542407,
              17.527112
            ],
            [
              78.533758,
              17.525542
            ],
            [
              78.52436,
              17.526679
            ],
            [
              78.522828,
              17.527105
            ],
            [
              78.522777,
              17.526664
            ],
            [
              78.522477,
              17.5224
            ],
            [
              78.520803,
              17.522097
            ],
            [
              78.516039,
              17.521317
            ],
            [
              78.510862,
              17.521718
            ],
            [
              78.509641,
              17.522884
            ],
            [
              78.507976,
              17.524345
            ],
            [
              78.506309,
              17.525877
            ],
            [
              78.502764,
              17.528721
            ],
            [
              78.501717,
              17.5293
            ],
            [
              78.499465,
              17.529781
            ],
            [
              78.496015,
              17.528022
            ],
            [
              78.493184,
              17.51967
            ],
            [
              78.486858,
              17.50766
            ],
            [
              78.483025,
              17.502658
            ],
            [
              78.473538,
              17.487503
            ],
            [
              78.473607,
              17.476219
            ],
            [
              78.484644,
              17.475234
            ],
            [
              78.488535,
              17.480081
            ],
            [
              78.498493,
              17.478123
            ],
            [
              78.501279,
              17.480573
            ],
            [
              78.502405,
              17.481481
            ],
            [
              78.504598,
              17.482459
            ],
            [
              78.511527,
              17.485075
            ],
            [
              78.516835,
              17.482943
            ],
            [
              78.522687,
              17.475766
            ],
            [
              78.531887,
              17.479654
            ]
          ]
        ]
      }
    }
  ]
}