{
  "type": "FeatureCollection",
  "features": [
    {
      "type": "Feature",
      "properties": {},
      "geometry": {
        "type": "Polygon",
        "coordinates": [
          [
            [
              78.547212,
              17.4434
            ],
            [
              78.549272,
              17.445729
            ],
            [
              78.556572,
              17.446914
            ],
            [
              78.568823,
              17.451159
            ],
            [
              78.561227,
              17.453643
            ],
            [
              78.554559,
              17.455128
            ],
            [
              78.539834,
              17.459475
            ],
            [
              78.543476,
              17.466683
            ],
            [
              78.544095,
              17.46754
            ],
            [
              78.544274,
              17.468075
            ],
            [
              78.5444,
              17.468645
            ],
            [
              78.539058,
              17.469115
            ],
            [
              78.532789,
              17.463065
            ],
            [
              78.529346,
              17.458941
            ],
            [
              78.533051,
              17.45146
            ],
            [
              78.53444,
              17.450136
            ],
            [
              78.540469,
              17.447335
            ],
            [
              78.547212,
              17.4434
            ]
          ]
        ]
      }
    }
  ]
}