{
  "type": "FeatureCollection",
  "features": [
    {
      "type": "Feature",
      "properties": {},
      "geometry": {
        "type": "Polygon",
        "coordinates": [
          [
            [
              78.474166,
              17.361505
            ],
            [
              78.473191,
              17.354257
            ],
            [
              78.472771,
              17.352583
            ],
            [
              78.472594,
              17.350804
            ],
            [
              78.472254,
              17.349581
            ],
            [
              78.471831,
              17.348837
            ],
            [
              78.470833,
              17.347628
            ],
            [
              78.470545,
              17.347638
            ],
            [
              78.468843,
              17.342948
            ],
            [
              78.46673,
              17.337833
            ],
            [
              78.468421,
              17.336393
            ],
            [
              78.47005,
              17.34035
            ],
            [
              78.477998,
              17.340989
            ],
            [
              78.479143,
              17.347498
            ],
            [
              78.474166,
              17.361505
            ]
          ]
        ]
      }
    }
  ]
}