{
  "type": "FeatureCollection",
  "features": [
    {
      "type": "Feature",
      "properties": {},
      "geometry": {
        "type": "Polygon",
        "coordinates": [
          [
            [
              78.579424,
              17.332259
            ],
            [
              78.579846,
              17.322802
            ],
            [
              78.585451,
              17.320311
            ],
            [
              78.594848,
              17.322157
            ],
            [
              78.601961,
              17.316565
            ],
            [
              78.602245,
              17.322645
            ],
            [
              78.614162,
              17.320418
            ],
            [
              78.632735,
              17.343386
            ],
            [
              78.608806,
              17.344109
            ],
            [
              78.592602,
              17.342152
            ],
            [
              78.588377,
              17.341129
            ],
            [
              78.579424,
              17.332259
            ]
          ]
        ]
      }
    }
  ]
}