{
  "type": "FeatureCollection",
  "features": [
    {
      "type": "Feature",
      "properties": {},
      "geometry": {
        "type": "Polygon",
        "coordinates": [
          [
            [
              78.556498,
              17.336029
            ],
            [
              78.552961,
              17.332392
            ],
            [
              78.552911,
              17.33236
            ],
            [
              78.552997,
              17.332299
            ],
            [
              78.553358,
              17.330209
            ],
            [
              78.555686,
              17.327742
            ],
            [
              78.558265,
              17.323704
            ],
            [
              78.561372,
              17.32241
            ],
            [
              78.565203,
              17.321109
            ],
            [
              78.574351,
              17.325316
            ],
            [
              78.579563,
              17.326465
            ],
            [
              78.579431,
              17.328649
            ],
            [
              78.579243,
              17.332302
            ],
            [
              78.58247,
              17.335382
            ],
            [
              78.580136,
              17.335654
            ],
            [
              78.576647,
              17.336214
            ],
            [
              78.567163,
              17.33861
            ],
            [
              78.564305,
              17.340324
            ],
            [
              78.561072,
              17.340994
            ],
            [
              78.558065,
              17.341068
            ],
            [
              78.556498,
              17.336029
            ]
          ]
        ]
      }
    }
  ]
}