{
  "type": "FeatureCollection",
  "features": [
    {
      "type": "Feature",
      "properties": {},
      "geometry": {
        "type": "Polygon",
        "coordinates": [
          [
            [
              78.514963,
              17.348058
            ],
            [
              78.515411,
              17.345119
            ],
            [
              78.515794,
              17.342486
            ],
            [
              78.518765,
              17.341691
            ],
            [
              78.522503,
              17.340187
            ],
            [
              78.529144,
              17.338145
            ],
            [
              78.531272,
              17.337769
            ],
            [
              78.531576,
              17.337771
            ],
            [
              78.531913,
              17.33891
            ],
            [
              78.532048,
              17.340146
            ],
            [
              78.531373,
              17.34208
            ],
            [
              78.531722,
              17.343971
            ],
            [
              78.531875,
              17.344784
            ],
            [
              78.531737,
              17.345574
            ],
            [
              78.53135,
              17.34849
            ],
            [
              78.528482,
              17.348372
            ],
            [
              78.525617,
              17.348396
            ],
            [
              78.525019,
              17.348397
            ],
            [
              78.524463,
              17.348401
            ],
            [
              78.524075,
              17.348404
            ],
            [
              78.52369,
              17.348404
            ],
            [
              78.523374,
              17.348409
            ],
            [
              78.523049,
              17.348408
            ],
            [
              78.522381,
              17.348412
            ],
            [
              78.521679,
              17.348413
            ],
            [
              78.521058,
              17.348416
            ],
            [
              78.520049,
              17.34842
            ],
            [
              78.519048,
              17.348425
            ],
            [
              78.518424,
              17.348429
            ],
            [
              78.517861,
              17.348429
            ],
            [
              78.51741,
              17.348435
            ],
            [
              78.517077,
              17.348436
            ],
            [
              78.516643,
              17.348395
            ],
            [
              78.515967,
              17.34833
            ],
            [
              78.515487,
              17.348281
            ],
            [
              78.514898,
              17.348226
            ],
            [
              78.514963,
              17.348058
            ]
          ]
        ]
      }
    }
  ]
}