{
  "type": "FeatureCollection",
  "features": [
    {
      "type": "Feature",
      "properties": {},
      "geometry": {
        "type": "Polygon",
        "coordinates": [
          [
            [
              78.504488,
              17.346059
            ],
            [
              78.50845,
              17.345118
            ],
            [
              78.512326,
              17.346764
            ],
            [
              78.514838,
              17.348229
            ],
            [
              78.517062,
              17.348441
            ],
            [
              78.527831,
              17.348391
            ],
            [
              78.5285,
              17.350172
            ],
            [
              78.528118,
              17.352117
            ],
            [
              78.527029,
              17.353758
            ],
            [
              78.526445,
              17.354784
            ],
            [
              78.524393,
              17.354537
            ],
            [
              78.524301,
              17.35871
            ],
            [
              78.515708,
              17.360324
            ],
            [
              78.508986,
              17.362067
            ],
            [
              78.500167,
              17.358884
            ],
            [
              78.498193,
              17.357881
            ],
            [
              78.504488,
              17.346059
            ]
          ]
        ]
      }
    }
  ]
}