{
  "type": "FeatureCollection",
  "features": [
    {
      "type": "Feature",
      "properties": {},
      "geometry": {
        "type": "Polygon",
        "coordinates": [
          [
            [
              78.466528,
              17.363644
            ],
            [
              78.470254,
              17.362305
            ],
            [
              78.474808,
              17.361556
            ],
            [
              78.475464,
              17.365759
            ],
            [
              78.476106,
              17.368792
            ],
            [
              78.475167,
              17.368649
            ],
            [
              78.474349,
              17.36856
            ],
            [
              78.472727,
              17.368508
            ],
            [
              78.46864,
              17.368003
            ],
            [
              78.467923,
              17.366396
            ],
            [
              78.466528,
              17.363644
            ]
          ]
        ]
      }
    }
  ]
}