{
  "type": "FeatureCollection",
  "features": [
    {
      "type": "Feature",
      "properties": {},
      "geometry": {
        "type": "Polygon",
        "coordinates": [
          [
            [
              78.543743,
              17.362004
            ],
            [
              78.542704,
              17.364283
            ],
            [
              78.542704,
              17.364019
            ],
            [
              78.54215,
              17.365737
            ],
            [
              78.538583,
              17.368087
            ],
            [
              78.533608,
              17.368207
            ],
            [
              78.524878,
              17.368248
            ],
            [
              78.521392,
              17.368417
            ],
            [
              78.518559,
              17.368447
            ],
            [
              78.521521,
              17.365208
            ],
            [
              78.523321,
              17.360748
            ],
            [
              78.524383,
              17.359162
            ],
            [
              78.526367,
              17.35808
            ],
            [
              78.529788,
              17.356514
            ],
            [
              78.53257,
              17.353981
            ],
            [
              78.535071,
              17.3529
            ],
            [
              78.538285,
              17.351313
            ],
            [
              78.540766,
              17.350441
            ],
            [
              78.545699,
              17.353814
            ],
            [
              78.543743,
              17.362004
            ]
          ]
        ]
      }
    }
  ]
}