{
  "type": "FeatureCollection",
  "features": [
    {
      "type": "Feature",
      "properties": {},
      "geometry": {
        "type": "Polygon",
        "coordinates": [
          [
            [
              78.552346,
              17.345669
            ],
            [
              78.553342,
              17.345011
            ],
            [
              78.553799,
              17.344651
            ],
            [
              78.554449,
              17.344266
            ],
            [
              78.554889,
              17.343997
            ],
            [
              78.555368,
              17.343598
            ],
            [
              78.555751,
              17.343327
            ],
            [
              78.556146,
              17.34305
            ],
            [
              78.557227,
              17.342403
            ],
            [
              78.557835,
              17.343908
            ],
            [
              78.562854,
              17.351253
            ],
            [
              78.562515,
              17.351337
            ],
            [
              78.562348,
              17.351378
            ],
            [
              78.562114,
              17.351433
            ],
            [
              78.561655,
              17.351552
            ],
            [
              78.561574,
              17.351571
            ],
            [
              78.56149,
              17.351591
            ],
            [
              78.561324,
              17.351634
            ],
            [
              78.561152,
              17.351676
            ],
            [
              78.561063,
              17.351698
            ],
            [
              78.560977,
              17.351718
            ],
            [
              78.560683,
              17.35179
            ],
            [
              78.560426,
              17.351852
            ],
            [
              78.559278,
              17.352132
            ],
            [
              78.558703,
              17.352272
            ],
            [
              78.558397,
              17.352346
            ],
            [
              78.558247,
              17.352382
            ],
            [
              78.558172,
              17.352401
            ],
            [
              78.558144,
              17.352408
            ],
            [
              78.558091,
              17.352421
            ],
            [
              78.557848,
              17.352479
            ],
            [
              78.557718,
              17.352511
            ],
            [
              78.557614,
              17.352537
            ],
            [
              78.55728,
              17.352618
            ],
            [
              78.557111,
              17.352659
            ],
            [
              78.556963,
              17.352696
            ],
            [
              78.55639,
              17.352833
            ],
            [
              78.556091,
              17.352908
            ],
            [
              78.555949,
              17.352943
            ],
            [
              78.555783,
              17.352972
            ],
            [
              78.555681,
              17.352967
            ],
            [
              78.55558,
              17.35295
            ],
            [
              78.555086,
              17.352884
            ],
            [
              78.554815,
              17.352848
            ],
            [
              78.554699,
              17.352833
            ],
            [
              78.554587,
              17.352816
            ],
            [
              78.553447,
              17.352661
            ],
            [
              78.551673,
              17.352545
            ],
            [
              78.550785,
              17.352489
            ],
            [
              78.550326,
              17.352464
            ],
            [
              78.550106,
              17.35245
            ],
            [
              78.549982,
              17.352445
            ],
            [
              78.549869,
              17.352439
            ],
            [
              78.548249,
              17.35224
            ],
            [
              78.546627,
              17.352021
            ],
            [
              78.546671,
              17.351942
            ],
            [
              78.547693,
              17.350261
            ],
            [
              78.54895,
              17.348637
            ],
            [
              78.549716,
              17.34762
            ],
            [
              78.55048,
              17.346933
            ],
            [
              78.551403,
              17.34628
            ],
            [
              78.552346,
              17.345669
            ]
          ]
        ]
      }
    }
  ]
}