{
  "type": "FeatureCollection",
  "features": [
    {
      "type": "Feature",
      "properties": {},
      "geometry": {
        "type": "Polygon",
        "coordinates": [
          [
            [
              78.484488,
              17.352995
            ],
            [
              78.486333,
              17.351806
            ],
            [
              78.486846,
              17.351497
            ],
            [
              78.48986,
              17.351955
            ],
            [
              78.490107,
              17.353678
            ],
            [
              78.489383,
              17.3541
            ],
            [
              78.488438,
              17.355352
            ],
            [
              78.48797,
              17.356619
            ],
            [
              78.486608,
              17.357042
            ],
            [
              78.484769,
              17.357432
            ],
            [
              78.483322,
              17.35692
            ],
            [
              78.482913,
              17.356018
            ],
            [
              78.4831,
              17.355222
            ],
            [
              78.483705,
              17.353637
            ],
            [
              78.484488,
              17.352995
            ]
          ]
        ]
      }
    }
  ]
}