{
  "type": "FeatureCollection",
  "features": [
    {
      "type": "Feature",
      "properties": {},
      "geometry": {
        "type": "Polygon",
        "coordinates": [
          [
            [
              78.561154,
              17.370392
            ],
            [
              78.557679,
              17.370824
            ],
            [
              78.554405,
              17.370392
            ],
            [
              78.550313,
              17.371822
            ],
            [
              78.545869,
              17.372398
            ],
            [
              78.543124,
              17.371906
            ],
            [
              78.539674,
              17.369851
            ],
            [
              78.538567,
              17.368277
            ],
            [
              78.542067,
              17.366354
            ],
            [
              78.544006,
              17.362509
            ],
            [
              78.544371,
              17.361188
            ],
            [
              78.544762,
              17.359277
            ],
            [
              78.546582,
              17.352027
            ],
            [
              78.549793,
              17.352438
            ],
            [
              78.553424,
              17.352662
            ],
            [
              78.555785,
              17.352985
            ],
            [
              78.565008,
              17.350739
            ],
            [
              78.572049,
              17.343026
            ],
            [
              78.581359,
              17.335937
            ],
            [
              78.583295,
              17.346655
            ],
            [
              78.572811,
              17.353724
            ],
            [
              78.567559,
              17.359291
            ],
            [
              78.568173,
              17.360584
            ],
            [
              78.569035,
              17.362815
            ],
            [
              78.564569,
              17.36634
            ],
            [
              78.561154,
              17.370392
            ]
          ]
        ]
      }
    }
  ]
}