{
  "type": "FeatureCollection",
  "features": [
    {
      "type": "Feature",
      "properties": {},
      "geometry": {
        "type": "Polygon",
        "coordinates": [
          [
            [
              78.475343,
              17.326762
            ],
            [
              78.473004,
              17.328556
            ],
            [
              78.469768,
              17.330927
            ],
            [
              78.462419,
              17.331306
            ],
            [
              78.459955,
              17.33011
            ],
            [
              78.456803,
              17.328157
            ],
            [
              78.45603,
              17.324888
            ],
            [
              78.45461,
              17.322018
            ],
            [
              78.451625,
              17.321022
            ],
            [
              78.449707,
              17.316482
            ],
            [
              78.457724,
              17.315107
            ],
            [
              78.46309,
              17.314509
            ],
            [
              78.465877,
              17.31584
            ],
            [
              78.468313,
              17.322278
            ],
            [
              78.470798,
              17.323792
            ],
            [
              78.475343,
              17.326762
            ]
          ]
        ]
      }
    }
  ]
}