{
  "type": "FeatureCollection",
  "features": [
    {
      "type": "Feature",
      "properties": {},
      "geometry": {
        "type": "Polygon",
        "coordinates": [
          [
            [
              78.529665,
              17.368342
            ],
            [
              78.531406,
              17.368315
            ],
            [
              78.537831,
              17.368337
            ],
            [
              78.539174,
              17.373902
            ],
            [
              78.531558,
              17.376295
            ],
            [
              78.516387,
              17.379363
            ],
            [
              78.511817,
              17.383908
            ],
            [
              78.512706,
              17.381801
            ],
            [
              78.515082,
              17.375864
            ],
            [
              78.508782,
              17.372115
            ],
            [
              78.514345,
              17.369932
            ],
            [
              78.51486,
              17.369885
            ],
            [
              78.515269,
              17.369755
            ],
            [
              78.517089,
              17.36931
            ],
            [
              78.517486,
              17.368896
            ],
            [
              78.518192,
              17.368699
            ],
            [
              78.518606,
              17.368617
            ],
            [
              78.520968,
              17.368489
            ],
            [
              78.524855,
              17.368305
            ],
            [
              78.527009,
              17.368344
            ],
            [
              78.528753,
              17.368333
            ],
            [
              78.529665,
              17.368342
            ]
          ]
        ]
      }
    }
  ]
}