{
  "type": "FeatureCollection",
  "features": [
    {
      "type": "Feature",
      "properties": {},
      "geometry": {
        "type": "Polygon",
        "coordinates": [
          [
            [
              78.64121,
              17.467199
            ],
            [
              78.650255,
              17.468388
            ],
            [
              78.652138,
              17.470424
            ],
            [
              78.654016,
              17.476777
            ],
            [
              78.655889,
              17.481571
            ],
            [
              78.6604,
              17.487915
            ],
            [
              78.662019,
              17.492102
            ],
            [
              78.660263,
              17.495211
            ],
            [
              78.657502,
              17.499277
            ],
            [
              78.655869,
              17.502384
            ],
            [
              78.652344,
              17.50751
            ],
            [
              78.649837,
              17.511211
            ],
            [
              78.646959,
              17.512052
            ],
            [
              78.643579,
              17.513254
            ],
            [
              78.640699,
              17.511348
            ],
            [
              78.635811,
              17.510159
            ],
            [
              78.632299,
              17.50801
            ],
            [
              78.628035,
              17.506694
            ],
            [
              78.624774,
              17.503824
            ],
            [
              78.619512,
              17.50083
            ],
            [
              78.613002,
              17.498554
            ],
            [
              78.609126,
              17.49664
            ],
            [
              78.601722,
              17.491383
            ],
            [
              78.599968,
              17.488036
            ],
            [
              78.59758,
              17.485047
            ],
            [
              78.598832,
              17.483254
            ],
            [
              78.601346,
              17.477756
            ],
            [
              78.602102,
              17.47453
            ],
            [
              78.607849,
              17.470574
            ],
            [
              78.609227,
              17.468899
            ],
            [
              78.615619,
              17.465067
            ],
            [
              78.620756,
              17.463861
            ],
            [
              78.633929,
              17.467325
            ],
            [
              78.64121,
              17.467199
            ]
          ]
        ]
      }
    }
  ]
}