{
  "type": "FeatureCollection",
  "features": [
    {
      "type": "Feature",
      "properties": {},
      "geometry": {
        "type": "Polygon",
        "coordinates": [
          [
            [
              78.54611,
              17.497061
            ],
            [
              78.551504,
              17.502311
            ],
            [
              78.55354,
              17.501016
            ],
            [
              78.556936,
              17.504257
            ],
            [
              78.561234,
              17.502817
            ],
            [
              78.565684,
              17.502455
            ],
            [
              78.56591,
              17.504108
            ],
            [
              78.565156,
              17.506051
            ],
            [
              78.572369,
              17.505556
            ],
            [
              78.571428,
              17.50989
            ],
            [
              78.570763,
              17.514107
            ],
            [
              78.567714,
              17.51446
            ],
            [
              78.569932,
              17.515649
            ],
            [
              78.568548,
              17.516696
            ],
            [
              78.564702,
              17.51878
            ],
            [
              78.562741,
              17.520648
            ],
            [
              78.56033,
              17.523448
            ],
            [
              78.555884,
              17.525315
            ],
            [
              78.553098,
              17.526032
            ],
            [
              78.547294,
              17.527616
            ],
            [
              78.542246,
              17.527256
            ],
            [
              78.535388,
              17.525891
            ],
            [
              78.534261,
              17.523591
            ],
            [
              78.53328,
              17.51849
            ],
            [
              78.532829,
              17.5154
            ],
            [
              78.533126,
              17.513244
            ],
            [
              78.533351,
              17.509867
            ],
            [
              78.532977,
              17.506849
            ],
            [
              78.535083,
              17.504117
            ],
            [
              78.538395,
              17.502102
            ],
            [
              78.53884,
              17.501492
            ],
            [
              78.539443,
              17.500714
            ],
            [
              78.541074,
              17.498888
            ],
            [
              78.542245,
              17.497332
            ],
            [
              78.543273,
              17.496486
            ],
            [
              78.54611,
              17.497061
            ]
          ]
        ]
      }
    }
  ]
}