{
  "type": "FeatureCollection",
  "features": [
    {
      "type": "Feature",
      "properties": {},
      "geometry": {
        "type": "Polygon",
        "coordinates": [
          [
            [
              78.597629,
              17.492598
            ],
            [
              78.600852,
              17.492498
            ],
            [
              78.603875,
              17.49442
            ],
            [
              78.605588,
              17.496441
            ],
            [
              78.606193,
              17.497884
            ],
            [
              78.612541,
              17.498937
            ],
            [
              78.620508,
              17.502489
            ],
            [
              78.621315,
              17.505182
            ],
            [
              78.620306,
              17.508932
            ],
            [
              78.617885,
              17.512969
            ],
            [
              78.614356,
              17.51614
            ],
            [
              78.613045,
              17.519503
            ],
            [
              78.609517,
              17.523342
            ],
            [
              78.606798,
              17.525067
            ],
            [
              78.602369,
              17.527174
            ],
            [
              78.598043,
              17.5288
            ],
            [
              78.594421,
              17.528702
            ],
            [
              78.590404,
              17.528215
            ],
            [
              78.585583,
              17.525715
            ],
            [
              78.582374,
              17.523313
            ],
            [
              78.578253,
              17.521013
            ],
            [
              78.573423,
              17.517659
            ],
            [
              78.571133,
              17.515473
            ],
            [
              78.571318,
              17.511287
            ],
            [
              78.572658,
              17.505383
            ],
            [
              78.570393,
              17.504105
            ],
            [
              78.568869,
              17.500448
            ],
            [
              78.577094,
              17.49424
            ],
            [
              78.584635,
              17.491062
            ],
            [
              78.590575,
              17.490385
            ],
            [
              78.597629,
              17.492598
            ]
          ]
        ]
      }
    }
  ]
}