{
  "type": "FeatureCollection",
  "features": [
    {
      "type": "Feature",
      "properties": {},
      "geometry": {
        "type": "Polygon",
        "coordinates": [
          [
            [
              78.575557,
              17.448105
            ],
            [
              78.584852,
              17.446801
            ],
            [
              78.591559,
              17.448704
            ],
            [
              78.60041,
              17.450607
            ],
            [
              78.602695,
              17.452513
            ],
            [
              78.603551,
              17.456734
            ],
            [
              78.604271,
              17.459866
            ],
            [
              78.603987,
              17.464224
            ],
            [
              78.60327,
              17.468036
            ],
            [
              78.60155,
              17.471844
            ],
            [
              78.600552,
              17.473069
            ],
            [
              78.59827,
              17.477427
            ],
            [
              78.594844,
              17.478787
            ],
            [
              78.588984,
              17.480533
            ],
            [
              78.588514,
              17.484355
            ],
            [
              78.588357,
              17.486078
            ],
            [
              78.58655,
              17.489374
            ],
            [
              78.584542,
              17.491058
            ],
            [
              78.5836,
              17.491452
            ],
            [
              78.582811,
              17.491791
            ],
            [
              78.58011,
              17.491092
            ],
            [
              78.576735,
              17.491689
            ],
            [
              78.573753,
              17.491239
            ],
            [
              78.57281,
              17.489817
            ],
            [
              78.569434,
              17.488918
            ],
            [
              78.56559,
              17.487419
            ],
            [
              78.563317,
              17.486667
            ],
            [
              78.561043,
              17.485766
            ],
            [
              78.555301,
              17.485871
            ],
            [
              78.552675,
              17.484753
            ],
            [
              78.552065,
              17.48265
            ],
            [
              78.55461,
              17.481535
            ],
            [
              78.553034,
              17.478348
            ],
            [
              78.55168,
              17.475889
            ],
            [
              78.553433,
              17.47548
            ],
            [
              78.551914,
              17.46857
            ],
            [
              78.550904,
              17.465781
            ],
            [
              78.551611,
              17.461363
            ],
            [
              78.550862,
              17.456679
            ],
            [
              78.555936,
              17.455673
            ],
            [
              78.564171,
              17.452523
            ],
            [
              78.569821,
              17.449672
            ],
            [
              78.575557,
              17.448105
            ]
          ]
        ]
      }
    }
  ]
}