{
  "type": "FeatureCollection",
  "features": [
    {
      "type": "Feature",
      "properties": {},
      "geometry": {
        "type": "Polygon",
        "coordinates": [
          [
            [
              78.534856,
              17.430987
            ],
            [
              78.536212,
              17.432124
            ],
            [
              78.537313,
              17.433437
            ],
            [
              78.539076,
              17.434383
            ],
            [
              78.541444,
              17.434961
            ],
            [
              78.543261,
              17.435591
            ],
            [
              78.543702,
              17.436379
            ],
            [
              78.543757,
              17.438376
            ],
            [
              78.545409,
              17.440373
            ],
            [
              78.547282,
              17.442948
            ],
            [
              78.549155,
              17.445365
            ],
            [
              78.549981,
              17.446994
            ],
            [
              78.552129,
              17.450094
            ],
            [
              78.553396,
              17.452353
            ],
            [
              78.555048,
              17.45498
            ],
            [
              78.553341,
              17.455295
            ],
            [
              78.552294,
              17.45582
            ],
            [
              78.550477,
              17.456398
            ],
            [
              78.547944,
              17.459078
            ],
            [
              78.547126,
              17.460099
            ],
            [
              78.54442,
              17.458868
            ],
            [
              78.543923,
              17.457922
            ],
            [
              78.542689,
              17.458058
            ],
            [
              78.54055,
              17.458508
            ],
            [
              78.538746,
              17.45871
            ],
            [
              78.536873,
              17.457922
            ],
            [
              78.536323,
              17.456766
            ],
            [
              78.535552,
              17.455243
            ],
            [
              78.534946,
              17.45477
            ],
            [
              78.534395,
              17.453982
            ],
            [
              78.533294,
              17.452353
            ],
            [
              78.532522,
              17.450462
            ],
            [
              78.530264,
              17.448623
            ],
            [
              78.528667,
              17.446679
            ],
            [
              78.527565,
              17.444419
            ],
            [
              78.526464,
              17.442528
            ],
            [
              78.525032,
              17.440794
            ],
            [
              78.525088,
              17.439848
            ],
            [
              78.524372,
              17.438219
            ],
            [
              78.523268,
              17.437694
            ],
            [
              78.522671,
              17.435743
            ],
            [
              78.524546,
              17.434442
            ],
            [
              78.526889,
              17.433507
            ],
            [
              78.529105,
              17.432654
            ],
            [
              78.531874,
              17.431678
            ],
            [
              78.534856,
              17.430987
            ]
          ]
        ]
      }
    }
  ]
}