{
  "type": "FeatureCollection",
  "features": [
    {
      "type": "Feature",
      "properties": {},
      "geometry": {
        "type": "Polygon",
        "coordinates": [
          [
            [
              78.540329,
              17.458868
            ],
            [
              78.542941,
              17.458298
            ],
            [
              78.547222,
              17.461362
            ],
            [
              78.551187,
              17.460372
            ],
            [
              78.55114,
              17.462713
            ],
            [
              78.55059,
              17.465302
            ],
            [
              78.551719,
              17.468601
            ],
            [
              78.552148,
              17.470686
            ],
            [
              78.55268,
              17.472736
            ],
            [
              78.553239,
              17.475331
            ],
            [
              78.551368,
              17.475777
            ],
            [
              78.552854,
              17.478525
            ],
            [
              78.554253,
              17.481413
            ],
            [
              78.552243,
              17.482287
            ],
            [
              78.551575,
              17.482834
            ],
            [
              78.552403,
              17.485056
            ],
            [
              78.554267,
              17.486192
            ],
            [
              78.552921,
              17.487526
            ],
            [
              78.552041,
              17.488316
            ],
            [
              78.551057,
              17.488662
            ],
            [
              78.55028,
              17.488514
            ],
            [
              78.549296,
              17.489106
            ],
            [
              78.545982,
              17.489946
            ],
            [
              78.544791,
              17.49044
            ],
            [
              78.542461,
              17.490242
            ],
            [
              78.541115,
              17.490094
            ],
            [
              78.539095,
              17.490193
            ],
            [
              78.535057,
              17.491328
            ],
            [
              78.534383,
              17.492168
            ],
            [
              78.534021,
              17.491477
            ],
            [
              78.532726,
              17.490686
            ],
            [
              78.531121,
              17.489254
            ],
            [
              78.529412,
              17.487674
            ],
            [
              78.528014,
              17.485945
            ],
            [
              78.527341,
              17.484217
            ],
            [
              78.52791,
              17.481303
            ],
            [
              78.528324,
              17.479129
            ],
            [
              78.528739,
              17.477598
            ],
            [
              78.529463,
              17.475425
            ],
            [
              78.529981,
              17.473696
            ],
            [
              78.530602,
              17.470733
            ],
            [
              78.531275,
              17.469004
            ],
            [
              78.531845,
              17.467028
            ],
            [
              78.532363,
              17.465299
            ],
            [
              78.53262,
              17.458958
            ],
            [
              78.536459,
              17.458658
            ],
            [
              78.540329,
              17.458868
            ]
          ]
        ]
      }
    }
  ]
}