{
  "type": "FeatureCollection",
  "features": [
    {
      "type": "Feature",
      "properties": {},
      "geometry": {
        "type": "Polygon",
        "coordinates": [
          [
            [
              78.413462,
              17.476732
            ],
            [
              78.415289,
              17.47596
            ],
            [
              78.426249,
              17.474733
            ],
            [
              78.427059,
              17.481444
            ],
            [
              78.428341,
              17.492473
            ],
            [
              78.424549,
              17.493535
            ],
            [
              78.420226,
              17.497312
            ],
            [
              78.418347,
              17.497316
            ],
            [
              78.416496,
              17.49763
            ],
            [
              78.41494,
              17.498404
            ],
            [
              78.414281,
              17.497436
            ],
            [
              78.413545,
              17.496477
            ],
            [
              78.411618,
              17.494574
            ],
            [
              78.407786,
              17.490856
            ],
            [
              78.405039,
              17.487681
            ],
            [
              78.403997,
              17.483959
            ],
            [
              78.406835,
              17.480862
            ],
            [
              78.413462,
              17.476732
            ]
          ]
        ]
      }
    }
  ]
}