{
  "type": "FeatureCollection",
  "features": [
    {
      "type": "Feature",
      "properties": {},
      "geometry": {
        "type": "Polygon",
        "coordinates": [
          [
            [
              78.377464,
              17.499087
            ],
            [
              78.383337,
              17.499681
            ],
            [
              78.389383,
              17.499571
            ],
            [
              78.38817,
              17.51009
            ],
            [
              78.387027,
              17.512965
            ],
            [
              78.383804,
              17.515145
            ],
            [
              78.3837,
              17.515889
            ],
            [
              78.384948,
              17.522828
            ],
            [
              78.385987,
              17.531054
            ],
            [
              78.379439,
              17.534424
            ],
            [
              78.374137,
              17.529865
            ],
            [
              78.37211,
              17.518912
            ],
            [
              78.373566,
              17.51009
            ],
            [
              78.374553,
              17.507314
            ],
            [
              78.377464,
              17.499087
            ]
          ]
        ]
      }
    }
  ]
}