{
  "type": "FeatureCollection",
  "features": [
    {
      "type": "Feature",
      "properties": {},
      "geometry": {
        "type": "Polygon",
        "coordinates": [
          [
            [
              78.400956244,
              17.494232268
            ],
            [
              78.405865608,
              17.491881646
            ],
            [
              78.407067036,
              17.49146714
            ],
            [
              78.407717973,
              17.490794104
            ],
            [
              78.411644148,
              17.494755181
            ],
            [
              78.413919898,
              17.496899704
            ],
            [
              78.414645689,
              17.498075876
            ],
            [
              78.41534906,
              17.498895672
            ],
            [
              78.41594346,
              17.498624626
            ],
            [
              78.416491781,
              17.498056935
            ],
            [
              78.417329224,
              17.497740071
            ],
            [
              78.417561872,
              17.498175807
            ],
            [
              78.418543315,
              17.498183056
            ],
            [
              78.419736035,
              17.498232165
            ],
            [
              78.420592991,
              17.497940186
            ],
            [
              78.420814352,
              17.497197031
            ],
            [
              78.42150667,
              17.496100267
            ],
            [
              78.423723703,
              17.494961736
            ],
            [
              78.424095913,
              17.494283824
            ],
            [
              78.424549735,
              17.493480612
            ],
            [
              78.424257041,
              17.492130167
            ],
            [
              78.425039158,
              17.490912745
            ],
            [
              78.427807647,
              17.49060607
            ],
            [
              78.432609644,
              17.500101219
            ],
            [
              78.433067357,
              17.50275441
            ],
            [
              78.439375827,
              17.508554105
            ],
            [
              78.434649598,
              17.512149125
            ],
            [
              78.432978226,
              17.513511106
            ],
            [
              78.435263077,
              17.514955002
            ],
            [
              78.436494087,
              17.515789978
            ],
            [
              78.436907457,
              17.516171642
            ],
            [
              78.437430797,
              17.516859851
            ],
            [
              78.436311669,
              17.517736174
            ],
            [
              78.435255132,
              17.518937703
            ],
            [
              78.435117104,
              17.519128158
            ],
            [
              78.434543549,
              17.519381223
            ],
            [
              78.432430229,
              17.520316337
            ],
            [
              78.431751097,
              17.520653233
            ],
            [
              78.433501035,
              17.524114417
            ],
            [
              78.42690278,
              17.532385003
            ],
            [
              78.42597184,
              17.534691736
            ],
            [
              78.409378675,
              17.532938176
            ],
            [
              78.40787253,
              17.526410281
            ],
            [
              78.408146236,
              17.520143163
            ],
            [
              78.401770938,
              17.512777983
            ],
            [
              78.400567308,
              17.506747714
            ],
            [
              78.401093492,
              17.503123369
            ],
            [
              78.402220521,
              17.502588207
            ],
            [
              78.403620241,
              17.502778203
            ],
            [
              78.405869876,
              17.502497548
            ],
            [
              78.40839649,
              17.499305202
            ],
            [
              78.407588668,
              17.498275648
            ],
            [
              78.406780846,
              17.496814923
            ],
            [
              78.400956244,
              17.494232268
            ]
          ]
        ]
      }
    }
  ]
}