{
  "type": "FeatureCollection",
  "features": [
    {
      "type": "Feature",
      "properties": {},
      "geometry": {
        "type": "Polygon",
        "coordinates": [
          [
            [
              78.453781034,
              17.453933555
            ],
            [
              78.453543769,
              17.454657857
            ],
            [
              78.454516565,
              17.456355415
            ],
            [
              78.454801285,
              17.457441844
            ],
            [
              78.454611472,
              17.458799871
            ],
            [
              78.454682652,
              17.459750484
            ],
            [
              78.454303024,
              17.460067354
            ],
            [
              78.452333707,
              17.461244294
            ],
            [
              78.450886377,
              17.462172261
            ],
            [
              78.450388116,
              17.463168122
            ],
            [
              78.449249233,
              17.463213389
            ],
            [
              78.44927296,
              17.461855395
            ],
            [
              78.450055942,
              17.458980941
            ],
            [
              78.450744016,
              17.456310147
            ],
            [
              78.450245755,
              17.455404785
            ],
            [
              78.450744014,
              17.454159898
            ],
            [
              78.453781034,
              17.453933555
            ]
          ]
        ]
      }
    }
  ]
}