{
  "type": "FeatureCollection",
  "features": [
    {
      "type": "Feature",
      "properties": {},
      "geometry": {
        "type": "Polygon",
        "coordinates": [
          [
            [
              78.403372,
              17.492991
            ],
            [
              78.398937,
              17.495065
            ],
            [
              78.395932,
              17.489006
            ],
            [
              78.396208,
              17.488898
            ],
            [
              78.395443,
              17.48748
            ],
            [
              78.39013,
              17.484484
            ],
            [
              78.389509,
              17.482294
            ],
            [
              78.385644,
              17.477576
            ],
            [
              78.3844,
              17.472833
            ],
            [
              78.386887,
              17.471028
            ],
            [
              78.391968,
              17.469327
            ],
            [
              78.396184,
              17.477163
            ],
            [
              78.395049,
              17.482422
            ],
            [
              78.400508,
              17.484381
            ],
            [
              78.403372,
              17.492991
            ]
          ]
        ]
      }
    }
  ]
}