{
  "type": "FeatureCollection",
  "features": [
    {
      "type": "Feature",
      "properties": {},
      "geometry": {
        "type": "Polygon",
        "coordinates": [
          [
            [
              78.329551,
              17.47161
            ],
            [
              78.335029,
              17.481413
            ],
            [
              78.335454,
              17.484077
            ],
            [
              78.346867,
              17.480994
            ],
            [
              78.349017,
              17.480801
            ],
            [
              78.34979,
              17.487733
            ],
            [
              78.348499,
              17.488613
            ],
            [
              78.348037,
              17.489402
            ],
            [
              78.347952,
              17.494037
            ],
            [
              78.342583,
              17.495952
            ],
            [
              78.341756,
              17.504085
            ],
            [
              78.339532,
              17.508581
            ],
            [
              78.340279,
              17.512328
            ],
            [
              78.342753,
              17.516822
            ],
            [
              78.334906,
              17.516923
            ],
            [
              78.333918,
              17.506443
            ],
            [
              78.334442,
              17.503618
            ],
            [
              78.335596,
              17.500337
            ],
            [
              78.3343,
              17.495783
            ],
            [
              78.334047,
              17.487155
            ],
            [
              78.321794,
              17.484682
            ],
            [
              78.320723,
              17.484331
            ],
            [
              78.320622,
              17.484108
            ],
            [
              78.320536,
              17.483465
            ],
            [
              78.320141,
              17.480707
            ],
            [
              78.320034,
              17.480234
            ],
            [
              78.31997,
              17.479762
            ],
            [
              78.31992,
              17.478805
            ],
            [
              78.320051,
              17.478095
            ],
            [
              78.329551,
              17.47161
            ]
          ]
        ]
      }
    }
  ]
}