{
  "type": "FeatureCollection",
  "features": [
    {
      "type": "Feature",
      "properties": {},
      "geometry": {
        "type": "Polygon",
        "coordinates": [
          [
            [
              78.285635,
              17.474333
            ],
            [
              78.284847,
              17.474675
            ],
            [
              78.282534,
              17.475256
            ],
            [
              78.282473,
              17.475197
            ],
            [
              78.278092,
              17.469567
            ],
            [
              78.282044,
              17.464058
            ],
            [
              78.286304,
              17.463478
            ],
            [
              78.2832,
              17.452564
            ],
            [
              78.290747,
              17.4503
            ],
            [
              78.289773,
              17.444378
            ],
            [
              78.297623,
              17.443507
            ],
            [
              78.300085,
              17.422924
            ],
            [
              78.325759,
              17.409631
            ],
            [
              78.350093,
              17.39697
            ],
            [
              78.354575,
              17.410549
            ],
            [
              78.371023,
              17.417921
            ],
            [
              78.371234,
              17.431868
            ],
            [
              78.367158,
              17.435732
            ],
            [
              78.36045,
              17.440856
            ],
            [
              78.354765,
              17.443507
            ],
            [
              78.352317,
              17.445251
            ],
            [
              78.347508,
              17.450282
            ],
            [
              78.344797,
              17.451254
            ],
            [
              78.341953,
              17.454281
            ],
            [
              78.336083,
              17.461269
            ],
            [
              78.330734,
              17.468862
            ],
            [
              78.311331,
              17.458066
            ],
            [
              78.312824,
              17.460438
            ],
            [
              78.313197,
              17.463642
            ],
            [
              78.314048,
              17.471024
            ],
            [
              78.309273,
              17.472761
            ],
            [
              78.308596,
              17.474857
            ],
            [
              78.308783,
              17.477169
            ],
            [
              78.307433,
              17.479245
            ],
            [
              78.30896,
              17.479336
            ],
            [
              78.310261,
              17.479678
            ],
            [
              78.310348,
              17.481293
            ],
            [
              78.303526,
              17.48008
            ],
            [
              78.29951,
              17.478454
            ],
            [
              78.293302,
              17.475494
            ],
            [
              78.285635,
              17.474333
            ]
          ]
        ]
      }
    }
  ]
}