{
  "type": "FeatureCollection",
  "features": [
    {
      "type": "Feature",
      "properties": {},
      "geometry": {
        "type": "Polygon",
        "coordinates": [
          [
            [
              78.432233,
              17.444468
            ],
            [
              78.427045,
              17.445051
            ],
            [
              78.427045,
              17.446769
            ],
            [
              78.423382,
              17.447002
            ],
            [
              78.42439,
              17.442227
            ],
            [
              78.424115,
              17.440043
            ],
            [
              78.422955,
              17.438936
            ],
            [
              78.426587,
              17.438063
            ],
            [
              78.428052,
              17.436782
            ],
            [
              78.43086,
              17.436723
            ],
            [
              78.432233,
              17.436665
            ],
            [
              78.432325,
              17.437189
            ],
            [
              78.431839,
              17.437803
            ],
            [
              78.431806,
              17.440363
            ],
            [
              78.432416,
              17.443362
            ],
            [
              78.432233,
              17.444468
            ]
          ]
        ]
      }
    }
  ]
}