{
  "type": "FeatureCollection",
  "features": [
    {
      "type": "Feature",
      "properties": {},
      "geometry": {
        "type": "Polygon",
        "coordinates": [
          [
            [
              78.497228,
              17.407312
            ],
            [
              78.500545,
              17.405512
            ],
            [
              78.505651,
              17.403743
            ],
            [
              78.507407,
              17.403029
            ],
            [
              78.509033,
              17.402222
            ],
            [
              78.511407,
              17.403557
            ],
            [
              78.513391,
              17.405263
            ],
            [
              78.515277,
              17.405388
            ],
            [
              78.517294,
              17.409391
            ],
            [
              78.512838,
              17.411284
            ],
            [
              78.507895,
              17.411067
            ],
            [
              78.507797,
              17.411439
            ],
            [
              78.509228,
              17.415566
            ],
            [
              78.500707,
              17.417552
            ],
            [
              78.500642,
              17.41988
            ],
            [
              78.498398,
              17.415225
            ],
            [
              78.498106,
              17.410353
            ],
            [
              78.497228,
              17.407312
            ]
          ]
        ]
      }
    }
  ]
}