{
  "type": "FeatureCollection",
  "features": [
    {
      "type": "Feature",
      "properties": {},
      "geometry": {
        "type": "Polygon",
        "coordinates": [
          [
            [
              78.449602,
              17.558135
            ],
            [
              78.457112,
              17.552246
            ],
            [
              78.456599,
              17.541457
            ],
            [
              78.466305,
              17.530588
            ],
            [
              78.487747,
              17.530588
            ],
            [
              78.489665,
              17.538874
            ],
            [
              78.493728,
              17.551786
            ],
            [
              78.488198,
              17.561363
            ],
            [
              78.467095,
              17.56373
            ],
            [
              78.456148,
              17.562008
            ],
            [
              78.449602,
              17.558135
            ]
          ]
        ]
      }
    }
  ]
}