{
  "type": "FeatureCollection",
  "features": [
    {
      "type": "Feature",
      "properties": {},
      "geometry": {
        "type": "Polygon",
        "coordinates": [
          [
            [
              78.448971,
              17.481052
            ],
            [
              78.446024,
              17.46684
            ],
            [
              78.453642,
              17.46373
            ],
            [
              78.459666,
              17.463807
            ],
            [
              78.46952,
              17.472824
            ],
            [
              78.470603,
              17.476469
            ],
            [
              78.47095,
              17.478397
            ],
            [
              78.469797,
              17.478971
            ],
            [
              78.463767,
              17.47916
            ],
            [
              78.460495,
              17.47913
            ],
            [
              78.452173,
              17.480922
            ],
            [
              78.448971,
              17.481052
            ]
          ]
        ]
      }
    }
  ]
}