{"type":"FeatureCollection","features":[{"type":"Feature","properties":{"Thursday":"Zinda,MTR,Eastern"},"geometry":{"coordinates":[[[78.39612222528234,17.540565580035334],[78.38860593265582,17.541083284359388],[78.3858460309736,17.529091303815207],[78.38697883421153,17.525097522839957],[78.38766448802784,17.52417905519694],[78.38950415431509,17.518930581907597],[78.39268326613197,17.518764059362745],[78.3931960290335,17.516360617777394],[78.3927300260078,17.514287255465014],[78.39226402298209,17.512213893152634],[78.39173541894345,17.507423503400716],[78.39176873466775,17.506883146972655],[78.39201655856111,17.50568645361632],[78.39234211799905,17.505617422795936],[78.39165036123808,17.499318286386327],[78.39134718924942,17.49825053475999],[78.39222259944938,17.497924844146183],[78.39374505749015,17.49685536252801],[78.39669973556767,17.49591603499242],[78.39972419188592,17.49478736222207],[78.40197548795842,17.498635152463166],[78.40200739294221,17.499326082199588],[78.40835476795684,17.499271256680714],[78.41180380310885,17.500460415809002],[78.41296154821427,17.500561628916394],[78.41355252797098,17.501489231739683],[78.41383170436575,17.502388608669833],[78.41404525172497,17.504075327944246],[78.41487339879666,17.50411750513493],[78.4157563337196,17.50429901809786],[78.41660272937118,17.504115282656006],[78.4175677398378,17.503705302347853],[78.4191750187199,17.506515509547512],[78.41663150193682,17.50909871276795],[78.41245659420446,17.514063130736133],[78.40358359116738,17.514233507621256],[78.40404604876284,17.51546205664154],[78.40466699516719,17.527743229382764],[78.39612222528234,17.540565580035334]]],"type":"Polygon"},"id":0}]}