{"type":"FeatureCollection","features":[{"type":"Feature","properties":{"Tuesday":"Eastern,MTR,Zinda"},"geometry":{"coordinates":[[[78.40353335852086,17.492961890772534],[78.39969965939568,17.49476977537718],[78.39712092819416,17.495710394174075],[78.39504966192027,17.496328353212306],[78.39357943295059,17.496870218647786],[78.39215126507202,17.497835023774485],[78.39131231974699,17.498228214251277],[78.38811198945825,17.498689487448274],[78.3838374602837,17.49925898713063],[78.38493145743672,17.492829386809547],[78.38320564875812,17.49073367853559],[78.38229821722786,17.488114970768535],[78.39013429247296,17.484472519692943],[78.3894488676952,17.481977891254886],[78.39053987875656,17.477680654411685],[78.388737639731,17.475054218037442],[78.38707855586335,17.471321816574687],[78.39238183313546,17.469016015696013],[78.3957595254754,17.474564325986066],[78.39565956258372,17.481910202836758],[78.40107867939241,17.485505600928136],[78.40353335852086,17.492961890772534]]],"type":"Polygon"},"id":0}]}