{"type":"FeatureCollection","features":[{"type":"Feature","properties":{"Wednesday":"MTR,Eastern,Zinda"},"geometry":{"coordinates":[[[78.42103339118984,17.480974062819953],[78.42005448524827,17.498069792497844],[78.4188290932077,17.498173511166783],[78.41757987995477,17.498118197359716],[78.41734446852516,17.497700863814927],[78.41650161620701,17.498107091791766],[78.41530144571908,17.498899541542627],[78.4143205093958,17.49909864132013],[78.41393510335485,17.499547647852083],[78.41298307717113,17.500522585738068],[78.41181709386075,17.500434293462106],[78.40835470683908,17.499262987582327],[78.40201618860414,17.49931652067663],[78.40197738532646,17.498628234656557],[78.39975478708408,17.49477848166947],[78.40403083370154,17.492791627842337],[78.4074870778336,17.490766952599415],[78.4063821145254,17.490092681244235],[78.40614755014485,17.488890961566497],[78.40362832372836,17.48611344828239],[78.40362561921575,17.48288482269365],[78.40756053132884,17.478230875567917],[78.4127543935495,17.48023702053679],[78.41590270691643,17.48166559134326],[78.42102118370272,17.477553842079033],[78.42203006218266,17.480143131972675],[78.42180249092073,17.480517275781867],[78.42103339118984,17.480974062819953]]],"type":"Polygon"},"id":0}]}