{"type":"FeatureCollection","features":[{"type":"Feature","properties":{"Monday":"Zinda,Eastern,MTR"},"geometry":{"coordinates":[[[78.42103203280851,17.477544784127588],[78.42775161667367,17.47356860713232],[78.4277915544092,17.475949290986428],[78.42803698582406,17.478155744300523],[78.42866008775945,17.479396738370305],[78.42873520655098,17.48096440499249],[78.42754363402139,17.481240713167594],[78.42736897118581,17.482200164880354],[78.42755744808134,17.482466882953947],[78.42731870176402,17.484332990321697],[78.42699451080429,17.48444690712926],[78.42617757357645,17.48548567998395],[78.4262574480139,17.48599575084738],[78.42672799688978,17.486505821710807],[78.42602181356705,17.489223096569432],[78.42463176243314,17.491445805826785],[78.42418333295225,17.492159862473407],[78.42449473349001,17.493417439185578],[78.43196802399473,17.49486924291395],[78.4338869317258,17.49808745331292],[78.4325649233815,17.50048566225294],[78.4298489272698,17.50490085558104],[78.42140764118008,17.503957115345003],[78.4176804947125,17.50387587087026],[78.41756666785483,17.50369203850211],[78.41659982563834,17.504105240759827],[78.41576318794725,17.504294186362195],[78.4148742571549,17.50411408165691],[78.41405362629871,17.50405802259801],[78.41384727871178,17.502356624745033],[78.4135734967142,17.501496069728162],[78.41300375062275,17.500529917178262],[78.4137707680776,17.49973822329045],[78.41434060066547,17.499131723029798],[78.41533960470593,17.498927822698292],[78.41646928975659,17.498156562776206],[78.41733162209906,17.49773422455518],[78.41757531198196,17.498165107803192],[78.41881581694602,17.498199378267856],[78.42011260669068,17.498112868083055],[78.42071112142727,17.487437428767706],[78.42099251288683,17.481884511766708],[78.42103867359751,17.48098414053135],[78.42181961810489,17.480518574724123],[78.4220523204599,17.48014528956265],[78.42103203280851,17.477544784127588]]],"type":"Polygon"},"id":0}]}