{"type":"FeatureCollection","features":[{"type":"Feature","properties":{"Saturday":"MTR,eastern,Zinda"},"geometry":{"coordinates":[[[78.3928336695119,17.440908182720534],[78.39648710745445,17.451490287398016],[78.3847344817853,17.452540065876775],[78.38359003134485,17.44838290766282],[78.38697936533958,17.44426764757229],[78.38755159055978,17.44275589604736],[78.3888280929736,17.441160144730347],[78.3928336695119,17.440908182720534]]],"type":"Polygon"},"id":0},{"type":"Feature","properties":{"Saturday":"MTR,ZInda,Eastern"},"geometry":{"coordinates":[[[78.38704196864728,17.471339550343117],[78.38864125254298,17.475088786235375],[78.3904338368381,17.477648440491635],[78.38928839349592,17.481878695978978],[78.39004531146918,17.48442722746833],[78.38220467589042,17.488096510295108],[78.38213534620951,17.488250769591318],[78.37472530444586,17.491747957926506],[78.36840185788458,17.485762497229416],[78.37031805381201,17.48238131022336],[78.37577921220628,17.47900006037206],[78.3816715146827,17.474750562668433],[78.38704196864728,17.471339550343117]]],"type":"Polygon"},"id":1}]}