{"type":"FeatureCollection","features":[{"type":"Feature","properties":{"name":"Friday-MTR,Zinda,Eastern"},"geometry":{"coordinates":[[[78.39133466428069,17.49826436397052],[78.39164344594481,17.499320882729286],[78.39233928193752,17.505615317940762],[78.39201462060053,17.50568388991141],[78.39175295362713,17.50686770535436],[78.39170997015668,17.507437451362083],[78.39194627242897,17.509516503354888],[78.39218613885473,17.512176399089125],[78.39318305920938,17.51635873594212],[78.39267071318673,17.51874379325978],[78.38950021194876,17.51891594649139],[78.38765394877288,17.524174028653533],[78.37586011562775,17.52654822436513],[78.37033110460084,17.53140101480409],[78.36772083191136,17.540907040886225],[78.36328082537511,17.541009515837388],[78.3603583899257,17.540182128638207],[78.36186928638114,17.535330203986163],[78.36436762994776,17.527687309068227],[78.36915676267807,17.521704083796138],[78.37434333969156,17.51922757334013],[78.37834511408067,17.513963822649814],[78.37899678191616,17.506847466129244],[78.37715886549944,17.50684943765995],[78.37640284863318,17.501384205466323],[78.37770127398801,17.49742649947939],[78.38073329055933,17.498935542511184],[78.38249913644296,17.499493939996896],[78.39133466428069,17.49826436397052]]],"type":"Polygon"},"id":0}]}