{
  "type": "FeatureCollection",
  "features": [
    {
      "type": "Feature",
      "properties": {},
      "geometry": {
        "type": "Polygon",
        "coordinates": [
          [
            [
              78.544039,
              17.495735
            ],
            [
              78.549244,
              17.498042
            ],
            [
              78.553014,
              17.501039
            ],
            [
              78.55795,
              17.497187
            ],
            [
              78.565944,
              17.494443
            ],
            [
              78.567018,
              17.496501
            ],
            [
              78.569086,
              17.500266
            ],
            [
              78.57241,
              17.503177
            ],
            [
              78.572402,
              17.506603
            ],
            [
              78.570695,
              17.510882
            ],
            [
              78.570686,
              17.515587
            ],
            [
              78.568803,
              17.5167
            ],
            [
              78.562066,
              17.521143
            ],
            [
              78.553812,
              17.52575
            ],
            [
              78.541532,
              17.525244
            ],
            [
              78.53687,
              17.525157
            ],
            [
              78.524742,
              17.526561
            ],
            [
              78.527294,
              17.519738
            ],
            [
              78.527396,
              17.518228
            ],
            [
              78.527159,
              17.516736
            ],
            [
              78.525999,
              17.514255
            ],
            [
              78.522356,
              17.508229
            ],
            [
              78.5175,
              17.499592
            ],
            [
              78.518141,
              17.497395
            ],
            [
              78.519378,
              17.495228
            ],
            [
              78.524615,
              17.493438
            ],
            [
              78.530054,
              17.493093
            ],
            [
              78.544039,
              17.495735
            ]
          ]
        ]
      }
    }
  ]
}