{
  "type": "FeatureCollection",
  "features": [
    {
      "type": "Feature",
      "properties": {},
      "geometry": {
        "type": "Polygon",
        "coordinates": [
          [
            [
              78.518501,
              17.510147
            ],
            [
              78.519928,
              17.512442
            ],
            [
              78.521031,
              17.514345
            ],
            [
              78.52174,
              17.515847
            ],
            [
              78.525557,
              17.514203
            ],
            [
              78.526414,
              17.515365
            ],
            [
              78.526666,
              17.515922
            ],
            [
              78.526915,
              17.516775
            ],
            [
              78.527165,
              17.517845
            ],
            [
              78.527063,
              17.51948
            ],
            [
              78.526522,
              17.52086
            ],
            [
              78.52557,
              17.524121
            ],
            [
              78.524316,
              17.526513
            ],
            [
              78.52318,
              17.526863
            ],
            [
              78.517965,
              17.533096
            ],
            [
              78.514532,
              17.53097
            ],
            [
              78.513498,
              17.527374
            ],
            [
              78.513375,
              17.525575
            ],
            [
              78.513587,
              17.523729
            ],
            [
              78.514175,
              17.521923
            ],
            [
              78.512631,
              17.52182
            ],
            [
              78.510939,
              17.521766
            ],
            [
              78.511025,
              17.521013
            ],
            [
              78.511366,
              17.520587
            ],
            [
              78.511108,
              17.519891
            ],
            [
              78.510696,
              17.519198
            ],
            [
              78.510527,
              17.519009
            ],
            [
              78.510499,
              17.518682
            ],
            [
              78.510534,
              17.51823
            ],
            [
              78.511764,
              17.517738
            ],
            [
              78.511647,
              17.515883
            ],
            [
              78.511701,
              17.514372
            ],
            [
              78.511403,
              17.51362
            ],
            [
              78.510993,
              17.512801
            ],
            [
              78.510693,
              17.512196
            ],
            [
              78.51047,
              17.511594
            ],
            [
              78.510382,
              17.511053
            ],
            [
              78.511012,
              17.511332
            ],
            [
              78.512112,
              17.511774
            ],
            [
              78.512672,
              17.511941
            ],
            [
              78.51334,
              17.51203
            ],
            [
              78.514318,
              17.511758
            ],
            [
              78.515322,
              17.511378
            ],
            [
              78.518501,
              17.510147
            ]
          ]
        ]
      }
    }
  ]
}