{
  "type": "FeatureCollection",
  "features": [
    {
      "type": "Feature",
      "properties": {},
      "geometry": {
        "type": "Polygon",
        "coordinates": [
          [
            [
              78.461274,
              17.487901
            ],
            [
              78.465811,
              17.489037
            ],
            [
              78.469837,
              17.491147
            ],
            [
              78.472106,
              17.494932
            ],
            [
              78.476185,
              17.49816
            ],
            [
              78.476605,
              17.499075
            ],
            [
              78.475962,
              17.499475
            ],
            [
              78.474505,
              17.500208
            ],
            [
              78.473016,
              17.500788
            ],
            [
              78.469164,
              17.503085
            ],
            [
              78.466491,
              17.506614
            ],
            [
              78.464563,
              17.507804
            ],
            [
              78.459347,
              17.508669
            ],
            [
              78.45345,
              17.508993
            ],
            [
              78.451124,
              17.502341
            ],
            [
              78.446476,
              17.497221
            ],
            [
              78.444584,
              17.495943
            ],
            [
              78.444466,
              17.493319
            ],
            [
              78.444777,
              17.490581
            ],
            [
              78.44633,
              17.488888
            ],
            [
              78.453605,
              17.487706
            ],
            [
              78.461274,
              17.487901
            ]
          ]
        ]
      }
    }
  ]
}