{
  "type": "FeatureCollection",
  "features": [
    {
      "type": "Feature",
      "properties": {},
      "geometry": {
        "type": "Polygon",
        "coordinates": [
          [
            [
              78.498611,
              17.477892
            ],
            [
              78.505377,
              17.480274
            ],
            [
              78.506973,
              17.480638
            ],
            [
              78.509262,
              17.483318
            ],
            [
              78.512733,
              17.494652
            ],
            [
              78.511282,
              17.495223
            ],
            [
              78.51057,
              17.495482
            ],
            [
              78.510129,
              17.495612
            ],
            [
              78.509854,
              17.495584
            ],
            [
              78.507952,
              17.495934
            ],
            [
              78.507108,
              17.496292
            ],
            [
              78.506247,
              17.496779
            ],
            [
              78.504878,
              17.497314
            ],
            [
              78.503456,
              17.497832
            ],
            [
              78.500474,
              17.49887
            ],
            [
              78.497489,
              17.499818
            ],
            [
              78.497085,
              17.49533
            ],
            [
              78.49424,
              17.492782
            ],
            [
              78.492679,
              17.490896
            ],
            [
              78.490632,
              17.488315
            ],
            [
              78.488828,
              17.485039
            ],
            [
              78.490493,
              17.481168
            ],
            [
              78.494448,
              17.479017
            ],
            [
              78.498611,
              17.477892
            ]
          ]
        ]
      }
    }
  ]
}