{
  "type": "FeatureCollection",
  "features": [
    {
      "type": "Feature",
      "properties": {},
      "geometry": {
        "type": "Polygon",
        "coordinates": [
          [
            [
              78.479027,
              17.511386
            ],
            [
              78.479297,
              17.513507
            ],
            [
              78.479932,
              17.515181
            ],
            [
              78.481673,
              17.519072
            ],
            [
              78.483395,
              17.524814
            ],
            [
              78.483935,
              17.52565
            ],
            [
              78.484676,
              17.526679
            ],
            [
              78.485873,
              17.528688
            ],
            [
              78.488447,
              17.532202
            ],
            [
              78.488571,
              17.533535
            ],
            [
              78.489411,
              17.535622
            ],
            [
              78.489943,
              17.538387
            ],
            [
              78.49035,
              17.539381
            ],
            [
              78.490706,
              17.54057
            ],
            [
              78.49121,
              17.542595
            ],
            [
              78.492156,
              17.546465
            ],
            [
              78.491317,
              17.547121
            ],
            [
              78.490617,
              17.547567
            ],
            [
              78.489369,
              17.548675
            ],
            [
              78.473931,
              17.545681
            ],
            [
              78.471474,
              17.543482
            ],
            [
              78.468248,
              17.537111
            ],
            [
              78.466091,
              17.530154
            ],
            [
              78.465782,
              17.522241
            ],
            [
              78.467163,
              17.516084
            ],
            [
              78.47139,
              17.514326
            ],
            [
              78.479027,
              17.511386
            ]
          ]
        ]
      }
    }
  ]
}