{
  "type": "FeatureCollection",
  "features": [
    {
      "type": "Feature",
      "properties": {},
      "geometry": {
        "type": "Polygon",
        "coordinates": [
          [
            [
              78.512728,
              17.494792
            ],
            [
              78.516957,
              17.499803
            ],
            [
              78.515396,
              17.505981
            ],
            [
              78.51875,
              17.510001
            ],
            [
              78.517149,
              17.510637
            ],
            [
              78.515545,
              17.511254
            ],
            [
              78.514404,
              17.511642
            ],
            [
              78.513849,
              17.511824
            ],
            [
              78.513295,
              17.51192
            ],
            [
              78.51285,
              17.511884
            ],
            [
              78.512396,
              17.511797
            ],
            [
              78.511894,
              17.511628
            ],
            [
              78.511383,
              17.511414
            ],
            [
              78.510269,
              17.510904
            ],
            [
              78.510389,
              17.511559
            ],
            [
              78.511035,
              17.512998
            ],
            [
              78.511403,
              17.513703
            ],
            [
              78.511594,
              17.514374
            ],
            [
              78.511654,
              17.517694
            ],
            [
              78.510412,
              17.518165
            ],
            [
              78.510503,
              17.519153
            ],
            [
              78.510992,
              17.519816
            ],
            [
              78.511197,
              17.520261
            ],
            [
              78.511208,
              17.520654
            ],
            [
              78.510962,
              17.520986
            ],
            [
              78.51082,
              17.521831
            ],
            [
              78.508993,
              17.523166
            ],
            [
              78.505873,
              17.525989
            ],
            [
              78.501193,
              17.523834
            ],
            [
              78.492141,
              17.513795
            ],
            [
              78.496114,
              17.506355
            ],
            [
              78.497478,
              17.499905
            ],
            [
              78.499718,
              17.499178
            ],
            [
              78.50164,
              17.498506
            ],
            [
              78.505408,
              17.497229
            ],
            [
              78.50714,
              17.496429
            ],
            [
              78.508125,
              17.496043
            ],
            [
              78.508968,
              17.495834
            ],
            [
              78.509811,
              17.495773
            ],
            [
              78.511209,
              17.495367
            ],
            [
              78.511932,
              17.495068
            ],
            [
              78.512728,
              17.494792
            ]
          ]
        ]
      }
    }
  ]
}