{
  "type": "FeatureCollection",
  "features": [
    {
      "type": "Feature",
      "properties": {},
      "geometry": {
        "type": "Polygon",
        "coordinates": [
          [
            [
              78.516767,
              17.436833
            ],
            [
              78.506354,
              17.434042
            ],
            [
              78.505181,
              17.430521
            ],
            [
              78.507114,
              17.427127
            ],
            [
              78.50836,
              17.422364
            ],
            [
              78.509854,
              17.417062
            ],
            [
              78.515014,
              17.41617
            ],
            [
              78.518759,
              17.415636
            ],
            [
              78.520132,
              17.4204
            ],
            [
              78.522878,
              17.419508
            ],
            [
              78.530863,
              17.426592
            ],
            [
              78.526729,
              17.428871
            ],
            [
              78.521318,
              17.433793
            ],
            [
              78.518628,
              17.436445
            ],
            [
              78.517537,
              17.436917
            ],
            [
              78.516767,
              17.436833
            ]
          ]
        ]
      }
    }
  ]
}