{
  "type": "FeatureCollection",
  "features": [
    {
      "type": "Feature",
      "properties": {},
      "geometry": {
        "type": "Polygon",
        "coordinates": [
          [
            [
              78.530092,
              17.472013
            ],
            [
              78.530529,
              17.469719
            ],
            [
              78.532955,
              17.462651
            ],
            [
              78.532971,
              17.460871
            ],
            [
              78.532569,
              17.459085
            ],
            [
              78.536937,
              17.458709
            ],
            [
              78.537606,
              17.458674
            ],
            [
              78.537946,
              17.458657
            ],
            [
              78.538269,
              17.458713
            ],
            [
              78.540246,
              17.458961
            ],
            [
              78.540798,
              17.45873
            ],
            [
              78.54172,
              17.458392
            ],
            [
              78.542848,
              17.458156
            ],
            [
              78.545386,
              17.4575
            ],
            [
              78.546676,
              17.457125
            ],
            [
              78.547947,
              17.456838
            ],
            [
              78.550566,
              17.45627
            ],
            [
              78.551295,
              17.460024
            ],
            [
              78.550639,
              17.465341
            ],
            [
              78.548927,
              17.469372
            ],
            [
              78.550347,
              17.474237
            ],
            [
              78.541094,
              17.477712
            ],
            [
              78.537159,
              17.478441
            ],
            [
              78.532897,
              17.479345
            ],
            [
              78.528635,
              17.477295
            ],
            [
              78.530092,
              17.472013
            ]
          ]
        ]
      }
    }
  ]
}