{
  "type": "FeatureCollection",
  "features": [
    {
      "type": "Feature",
      "properties": {},
      "geometry": {
        "type": "Polygon",
        "coordinates": [
          [
            [
              78.381216,
              17.451533
            ],
            [
              78.380045,
              17.450762
            ],
            [
              78.381135,
              17.449145
            ],
            [
              78.386545,
              17.441558
            ],
            [
              78.389815,
              17.440479
            ],
            [
              78.393004,
              17.440672
            ],
            [
              78.396113,
              17.439439
            ],
            [
              78.398656,
              17.438207
            ],
            [
              78.399342,
              17.438939
            ],
            [
              78.397324,
              17.441404
            ],
            [
              78.393812,
              17.442983
            ],
            [
              78.396476,
              17.451456
            ],
            [
              78.382559,
              17.452574
            ],
            [
              78.38534,
              17.462753
            ],
            [
              78.386099,
              17.467574
            ],
            [
              78.38294,
              17.473187
            ],
            [
              78.371889,
              17.481737
            ],
            [
              78.360526,
              17.4827
            ],
            [
              78.34966,
              17.482462
            ],
            [
              78.349484,
              17.475367
            ],
            [
              78.363747,
              17.473864
            ],
            [
              78.367088,
              17.467572
            ],
            [
              78.367482,
              17.465529
            ],
            [
              78.367154,
              17.462225
            ],
            [
              78.366232,
              17.458786
            ],
            [
              78.373151,
              17.457664
            ],
            [
              78.376683,
              17.45696
            ],
            [
              78.381216,
              17.451533
            ]
          ]
        ]
      }
    }
  ]
}