{
  "type": "FeatureCollection",
  "features": [
    {
      "type": "Feature",
      "properties": {},
      "geometry": {
        "type": "Polygon",
        "coordinates": [
          [
            [
              78.313844,
              17.479873
            ],
            [
              78.311379,
              17.480034
            ],
            [
              78.313446,
              17.471645
            ],
            [
              78.313808,
              17.465393
            ],
            [
              78.311602,
              17.450684
            ],
            [
              78.306558,
              17.446132
            ],
            [
              78.300079,
              17.451442
            ],
            [
              78.286535,
              17.459897
            ],
            [
              78.27292,
              17.441692
            ],
            [
              78.265777,
              17.424802
            ],
            [
              78.290026,
              17.398376
            ],
            [
              78.317748,
              17.374715
            ],
            [
              78.348779,
              17.375558
            ],
            [
              78.351365,
              17.38573
            ],
            [
              78.367384,
              17.381095
            ],
            [
              78.368835,
              17.394457
            ],
            [
              78.355653,
              17.414468
            ],
            [
              78.367637,
              17.413555
            ],
            [
              78.371003,
              17.418219
            ],
            [
              78.378695,
              17.425249
            ],
            [
              78.373055,
              17.430513
            ],
            [
              78.363926,
              17.438264
            ],
            [
              78.36292,
              17.440993
            ],
            [
              78.363691,
              17.448548
            ],
            [
              78.369913,
              17.452232
            ],
            [
              78.373708,
              17.457412
            ],
            [
              78.366154,
              17.458756
            ],
            [
              78.36708,
              17.462252
            ],
            [
              78.367404,
              17.465514
            ],
            [
              78.367029,
              17.46754
            ],
            [
              78.363744,
              17.473851
            ],
            [
              78.349433,
              17.475322
            ],
            [
              78.349639,
              17.48268
            ],
            [
              78.346913,
              17.483096
            ],
            [
              78.344126,
              17.485192
            ],
            [
              78.34176,
              17.487355
            ],
            [
              78.340341,
              17.488345
            ],
            [
              78.338779,
              17.488709
            ],
            [
              78.330462,
              17.486957
            ],
            [
              78.326494,
              17.487027
            ],
            [
              78.320586,
              17.484515
            ],
            [
              78.320017,
              17.479395
            ],
            [
              78.313844,
              17.479873
            ]
          ]
        ]
      }
    }
  ]
}