{
  "type": "FeatureCollection",
  "features": [
    {
      "type": "Feature",
      "properties": {},
      "geometry": {
        "type": "Polygon",
        "coordinates": [
          [
            [
              78.452583,
              17.403519
            ],
            [
              78.451524,
              17.404355
            ],
            [
              78.451293,
              17.405618
            ],
            [
              78.4482,
              17.407953
            ],
            [
              78.443967,
              17.407496
            ],
            [
              78.440312,
              17.407448
            ],
            [
              78.441536,
              17.402841
            ],
            [
              78.442136,
              17.396213
            ],
            [
              78.445842,
              17.397758
            ],
            [
              78.450081,
              17.398112
            ],
            [
              78.452583,
              17.403519
            ]
          ]
        ]
      }
    }
  ]
}