{
  "type": "FeatureCollection",
  "features": [
    {
      "type": "Feature",
      "properties": {},
      "geometry": {
        "type": "Polygon",
        "coordinates": [
          [
            [
              78.352741,
              17.39539
            ],
            [
              78.332543,
              17.396849
            ],
            [
              78.349382,
              17.377059
            ],
            [
              78.351416,
              17.376875
            ],
            [
              78.357258,
              17.364732
            ],
            [
              78.365152,
              17.366812
            ],
            [
              78.368457,
              17.394348
            ],
            [
              78.355057,
              17.395263
            ],
            [
              78.352741,
              17.39539
            ]
          ]
        ]
      }
    }
  ]
}