{
  "type": "FeatureCollection",
  "features": [
    {
      "type": "Feature",
      "properties": {},
      "geometry": {
        "type": "Polygon",
        "coordinates": [
          [
            [
              78.377379,
              17.369049
            ],
            [
              78.373156,
              17.350953
            ],
            [
              78.374722,
              17.35138
            ],
            [
              78.390592,
              17.344765
            ],
            [
              78.395348,
              17.343756
            ],
            [
              78.404602,
              17.353521
            ],
            [
              78.410101,
              17.359671
            ],
            [
              78.406922,
              17.364177
            ],
            [
              78.397653,
              17.36606
            ],
            [
              78.400309,
              17.368168
            ],
            [
              78.392955,
              17.368702
            ],
            [
              78.38546,
              17.37001
            ],
            [
              78.38272,
              17.369529
            ],
            [
              78.377379,
              17.369049
            ]
          ]
        ]
      }
    }
  ]
}