{
  "type": "FeatureCollection",
  "features": [
    {
      "type": "Feature",
      "properties": {},
      "geometry": {
        "type": "Polygon",
        "coordinates": [
          [
            [
              78.442072,
              17.370421
            ],
            [
              78.440929,
              17.369588
            ],
            [
              78.441293,
              17.36924
            ],
            [
              78.443731,
              17.366602
            ],
            [
              78.449824,
              17.360163
            ],
            [
              78.452575,
              17.36114
            ],
            [
              78.455012,
              17.363251
            ],
            [
              78.456143,
              17.365469
            ],
            [
              78.45706,
              17.367567
            ],
            [
              78.457449,
              17.36855
            ],
            [
              78.453995,
              17.369174
            ],
            [
              78.451143,
              17.369701
            ],
            [
              78.449422,
              17.369689
            ],
            [
              78.447273,
              17.369833
            ],
            [
              78.445251,
              17.36897
            ],
            [
              78.444597,
              17.36915
            ],
            [
              78.442072,
              17.370421
            ]
          ]
        ]
      }
    }
  ]
}