{
  "type": "FeatureCollection",
  "features": [
    {
      "type": "Feature",
      "properties": {},
      "geometry": {
        "type": "Polygon",
        "coordinates": [
          [
            [
              78.437857,
              17.376497
            ],
            [
              78.437822,
              17.375359
            ],
            [
              78.442386,
              17.37453
            ],
            [
              78.446592,
              17.373783
            ],
            [
              78.448098,
              17.372612
            ],
            [
              78.451496,
              17.371784
            ],
            [
              78.453115,
              17.371041
            ],
            [
              78.45577,
              17.370077
            ],
            [
              78.457218,
              17.368875
            ],
            [
              78.457814,
              17.368875
            ],
            [
              78.457695,
              17.370614
            ],
            [
              78.450815,
              17.372889
            ],
            [
              78.448517,
              17.37369
            ],
            [
              78.442097,
              17.37661
            ],
            [
              78.441757,
              17.375917
            ],
            [
              78.440922,
              17.375624
            ],
            [
              78.437857,
              17.376497
            ]
          ]
        ]
      }
    }
  ]
}