{
  "type": "FeatureCollection",
  "features": [
    {
      "type": "Feature",
      "properties": {},
      "geometry": {
        "type": "Polygon",
        "coordinates": [
          [
            [
              78.416161,
              17.344779
            ],
            [
              78.39988,
              17.341073
            ],
            [
              78.378821,
              17.343112
            ],
            [
              78.377744,
              17.334425
            ],
            [
              78.377149,
              17.324538
            ],
            [
              78.408332,
              17.320334
            ],
            [
              78.426042,
              17.337551
            ],
            [
              78.426365,
              17.337688
            ],
            [
              78.416161,
              17.344779
            ]
          ]
        ]
      }
    }
  ]
}