{
  "type": "FeatureCollection",
  "features": [
    {
      "type": "Feature",
      "properties": {},
      "geometry": {
        "type": "Polygon",
        "coordinates": [
          [
            [
              78.451718,
              17.389845
            ],
            [
              78.448468,
              17.39141
            ],
            [
              78.446796,
              17.392217
            ],
            [
              78.446244,
              17.392412
            ],
            [
              78.442445,
              17.393817
            ],
            [
              78.441226,
              17.394104
            ],
            [
              78.441736,
              17.393031
            ],
            [
              78.441995,
              17.392468
            ],
            [
              78.442125,
              17.392228
            ],
            [
              78.44222,
              17.39201
            ],
            [
              78.441014,
              17.390247
            ],
            [
              78.439809,
              17.388483
            ],
            [
              78.440508,
              17.385026
            ],
            [
              78.440853,
              17.383283
            ],
            [
              78.441037,
              17.382356
            ],
            [
              78.441199,
              17.381552
            ],
            [
              78.447798,
              17.374032
            ],
            [
              78.448469,
              17.373734
            ],
            [
              78.448645,
              17.37367
            ],
            [
              78.448937,
              17.373566
            ],
            [
              78.450381,
              17.373065
            ],
            [
              78.451621,
              17.372646
            ],
            [
              78.452853,
              17.372231
            ],
            [
              78.454084,
              17.371824
            ],
            [
              78.454697,
              17.37162
            ],
            [
              78.455315,
              17.371421
            ],
            [
              78.456571,
              17.371009
            ],
            [
              78.45725,
              17.370894
            ],
            [
              78.457703,
              17.371646
            ],
            [
              78.458898,
              17.372521
            ],
            [
              78.458646,
              17.375146
            ],
            [
              78.45921,
              17.378953
            ],
            [
              78.458357,
              17.382092
            ],
            [
              78.454942,
              17.387285
            ],
            [
              78.45516,
              17.389124
            ],
            [
              78.451718,
              17.389845
            ]
          ]
        ]
      }
    }
  ]
}