{
  "type": "FeatureCollection",
  "features": [
    {
      "type": "Feature",
      "properties": {},
      "geometry": {
        "type": "Polygon",
        "coordinates": [
          [
            [
              78.429433,
              17.379226
            ],
            [
              78.429818,
              17.38083
            ],
            [
              78.431744,
              17.382868
            ],
            [
              78.429468,
              17.387177
            ],
            [
              78.429617,
              17.38831
            ],
            [
              78.430534,
              17.392042
            ],
            [
              78.431223,
              17.395698
            ],
            [
              78.419149,
              17.398603
            ],
            [
              78.4179,
              17.398769
            ],
            [
              78.416639,
              17.398919
            ],
            [
              78.414817,
              17.399972
            ],
            [
              78.40974,
              17.404886
            ],
            [
              78.404029,
              17.406188
            ],
            [
              78.413483,
              17.400075
            ],
            [
              78.416651,
              17.398348
            ],
            [
              78.419333,
              17.397641
            ],
            [
              78.421393,
              17.39674
            ],
            [
              78.420814,
              17.396018
            ],
            [
              78.420439,
              17.394534
            ],
            [
              78.420192,
              17.394329
            ],
            [
              78.429433,
              17.379226
            ]
          ]
        ]
      }
    }
  ]
}