{
  "type": "FeatureCollection",
  "features": [
    {
      "type": "Feature",
      "properties": {},
      "geometry": {
        "type": "Polygon",
        "coordinates": [
          [
            [
              78.407802,
              17.399894
            ],
            [
              78.406014,
              17.397961
            ],
            [
              78.404137,
              17.397478
            ],
            [
              78.401615,
              17.393507
            ],
            [
              78.400709,
              17.39144
            ],
            [
              78.401419,
              17.386926
            ],
            [
              78.404026,
              17.385334
            ],
            [
              78.406469,
              17.384281
            ],
            [
              78.411474,
              17.382212
            ],
            [
              78.421288,
              17.378
            ],
            [
              78.422825,
              17.377624
            ],
            [
              78.424147,
              17.377556
            ],
            [
              78.428978,
              17.379093
            ],
            [
              78.42854,
              17.380332
            ],
            [
              78.427594,
              17.381799
            ],
            [
              78.42586,
              17.384507
            ],
            [
              78.422746,
              17.389772
            ],
            [
              78.421127,
              17.392073
            ],
            [
              78.419915,
              17.394239
            ],
            [
              78.420979,
              17.396646
            ],
            [
              78.419087,
              17.397473
            ],
            [
              78.417787,
              17.397774
            ],
            [
              78.415677,
              17.398568
            ],
            [
              78.411149,
              17.398539
            ],
            [
              78.407802,
              17.399894
            ]
          ]
        ]
      }
    }
  ]
}