{
  "type": "FeatureCollection",
  "features": [
    {
      "type": "Feature",
      "properties": {},
      "geometry": {
        "type": "Polygon",
        "coordinates": [
          [
            [
              78.415122,
              17.399821
            ],
            [
              78.415587,
              17.399537
            ],
            [
              78.416048,
              17.399274
            ],
            [
              78.416538,
              17.398992
            ],
            [
              78.416648,
              17.398928
            ],
            [
              78.417832,
              17.398792
            ],
            [
              78.41853,
              17.398702
            ],
            [
              78.419157,
              17.398616
            ],
            [
              78.42011,
              17.40034
            ],
            [
              78.420344,
              17.402476
            ],
            [
              78.417798,
              17.403122
            ],
            [
              78.416972,
              17.403107
            ],
            [
              78.415169,
              17.403875
            ],
            [
              78.414854,
              17.402757
            ],
            [
              78.413799,
              17.400986
            ],
            [
              78.414047,
              17.400735
            ],
            [
              78.414316,
              17.400474
            ],
            [
              78.414752,
              17.400047
            ],
            [
              78.414805,
              17.400007
            ],
            [
              78.414883,
              17.399949
            ],
            [
              78.415122,
              17.399821
            ]
          ]
        ]
      }
    }
  ]
}