{
  "type": "FeatureCollection",
  "features": [
    {
      "type": "Feature",
      "properties": {},
      "geometry": {
        "type": "Polygon",
        "coordinates": [
          [
            [
              78.420249,
              17.378267
            ],
            [
              78.405559,
              17.384408
            ],
            [
              78.404465,
              17.38492
            ],
            [
              78.40336,
              17.385514
            ],
            [
              78.401214,
              17.386733
            ],
            [
              78.400415,
              17.391536
            ],
            [
              78.397762,
              17.391028
            ],
            [
              78.395475,
              17.389532
            ],
            [
              78.403526,
              17.384004
            ],
            [
              78.406696,
              17.380425
            ],
            [
              78.407482,
              17.375751
            ],
            [
              78.413397,
              17.374753
            ],
            [
              78.416315,
              17.379484
            ],
            [
              78.420249,
              17.378267
            ]
          ]
        ]
      }
    }
  ]
}