{
  "type": "FeatureCollection",
  "features": [
    {
      "type": "Feature",
      "properties": {},
      "geometry": {
        "type": "Polygon",
        "coordinates": [
          [
            [
              78.458395,
              17.369294
            ],
            [
              78.461365,
              17.370472
            ],
            [
              78.462268,
              17.370853
            ],
            [
              78.462473,
              17.370925
            ],
            [
              78.462508,
              17.371198
            ],
            [
              78.462912,
              17.374039
            ],
            [
              78.463856,
              17.377397
            ],
            [
              78.462252,
              17.377909
            ],
            [
              78.461109,
              17.378861
            ],
            [
              78.461254,
              17.379067
            ],
            [
              78.461082,
              17.379182
            ],
            [
              78.460972,
              17.378916
            ],
            [
              78.460943,
              17.378767
            ],
            [
              78.459366,
              17.378946
            ],
            [
              78.45876,
              17.375251
            ],
            [
              78.458967,
              17.372473
            ],
            [
              78.457786,
              17.37163
            ],
            [
              78.458459,
              17.370566
            ],
            [
              78.458125,
              17.370015
            ],
            [
              78.458395,
              17.369294
            ]
          ]
        ]
      }
    }
  ]
}