{
  "type": "FeatureCollection",
  "features": [
    {
      "type": "Feature",
      "properties": {},
      "geometry": {
        "type": "Polygon",
        "coordinates": [
          [
            [
              78.413216,
              17.372998
            ],
            [
              78.41251,
              17.371344
            ],
            [
              78.413866,
              17.37077
            ],
            [
              78.415659,
              17.371069
            ],
            [
              78.424773,
              17.372512
            ],
            [
              78.428958,
              17.37344
            ],
            [
              78.429042,
              17.376304
            ],
            [
              78.431109,
              17.375873
            ],
            [
              78.430724,
              17.37896
            ],
            [
              78.429288,
              17.379016
            ],
            [
              78.424,
              17.377223
            ],
            [
              78.420454,
              17.377633
            ],
            [
              78.420611,
              17.378142
            ],
            [
              78.419961,
              17.378322
            ],
            [
              78.418939,
              17.378648
            ],
            [
              78.417084,
              17.379215
            ],
            [
              78.416325,
              17.379466
            ],
            [
              78.415911,
              17.378798
            ],
            [
              78.415273,
              17.377767
            ],
            [
              78.413599,
              17.375009
            ],
            [
              78.413216,
              17.372998
            ]
          ]
        ]
      }
    }
  ]
}