{
  "type": "FeatureCollection",
  "features": [
    {
      "type": "Feature",
      "properties": {},
      "geometry": {
        "type": "Polygon",
        "coordinates": [
          [
            [
              78.440726,
              17.380449
            ],
            [
              78.441201,
              17.381428
            ],
            [
              78.439787,
              17.388486
            ],
            [
              78.442195,
              17.392018
            ],
            [
              78.441195,
              17.394121
            ],
            [
              78.431492,
              17.395504
            ],
            [
              78.429756,
              17.387357
            ],
            [
              78.432088,
              17.3828
            ],
            [
              78.435514,
              17.380725
            ],
            [
              78.435557,
              17.380806
            ],
            [
              78.435793,
              17.380801
            ],
            [
              78.437451,
              17.380546
            ],
            [
              78.440726,
              17.380449
            ]
          ]
        ]
      }
    }
  ]
}