{
  "type": "FeatureCollection",
  "features": [
    {
      "type": "Feature",
      "properties": {},
      "geometry": {
        "type": "Polygon",
        "coordinates": [
          [
            [
              78.451203,
              17.390177
            ],
            [
              78.456419,
              17.39392
            ],
            [
              78.457294,
              17.395022
            ],
            [
              78.456582,
              17.397571
            ],
            [
              78.450962,
              17.397846
            ],
            [
              78.450156,
              17.398116
            ],
            [
              78.449711,
              17.398079
            ],
            [
              78.449487,
              17.398059
            ],
            [
              78.449375,
              17.39805
            ],
            [
              78.449261,
              17.39804
            ],
            [
              78.44881,
              17.398003
            ],
            [
              78.448581,
              17.397984
            ],
            [
              78.448348,
              17.397964
            ],
            [
              78.447724,
              17.397913
            ],
            [
              78.447414,
              17.397886
            ],
            [
              78.447256,
              17.397873
            ],
            [
              78.447096,
              17.39786
            ],
            [
              78.446467,
              17.397807
            ],
            [
              78.446152,
              17.39778
            ],
            [
              78.44599,
              17.397768
            ],
            [
              78.445894,
              17.397759
            ],
            [
              78.445843,
              17.397755
            ],
            [
              78.44503,
              17.397415
            ],
            [
              78.444623,
              17.397245
            ],
            [
              78.444213,
              17.397074
            ],
            [
              78.443694,
              17.396858
            ],
            [
              78.443436,
              17.396752
            ],
            [
              78.443169,
              17.39664
            ],
            [
              78.442656,
              17.396422
            ],
            [
              78.442397,
              17.396316
            ],
            [
              78.442273,
              17.396263
            ],
            [
              78.442137,
              17.396207
            ],
            [
              78.440321,
              17.395496
            ],
            [
              78.435441,
              17.394955
            ],
            [
              78.438373,
              17.394538
            ],
            [
              78.441208,
              17.394128
            ],
            [
              78.442456,
              17.393845
            ],
            [
              78.446931,
              17.392242
            ],
            [
              78.451203,
              17.390177
            ]
          ]
        ]
      }
    }
  ]
}