{
  "type": "FeatureCollection",
  "features": [
    {
      "type": "Feature",
      "properties": {},
      "geometry": {
        "type": "Polygon",
        "coordinates": [
          [
            [
              78.423562,
              17.475295
            ],
            [
              78.439694,
              17.491632
            ],
            [
              78.431593,
              17.501892
            ],
            [
              78.437491,
              17.507486
            ],
            [
              78.441313,
              17.509944
            ],
            [
              78.444043,
              17.512171
            ],
            [
              78.44192,
              17.513878
            ],
            [
              78.43458,
              17.519431
            ],
            [
              78.414905,
              17.515444
            ],
            [
              78.409242,
              17.507613
            ],
            [
              78.40258,
              17.506859
            ],
            [
              78.400434,
              17.506913
            ],
            [
              78.399531,
              17.505405
            ],
            [
              78.388182,
              17.506052
            ],
            [
              78.383892,
              17.506428
            ],
            [
              78.377003,
              17.506698
            ],
            [
              78.376326,
              17.500182
            ],
            [
              78.377455,
              17.498244
            ],
            [
              78.377568,
              17.49609
            ],
            [
              78.376778,
              17.494044
            ],
            [
              78.374632,
              17.491944
            ],
            [
              78.382367,
              17.488228
            ],
            [
              78.394336,
              17.483112
            ],
            [
              78.423562,
              17.475295
            ]
          ]
        ]
      }
    }
  ]
}