{
  "type": "FeatureCollection",
  "features": [
    {
      "type": "Feature",
      "properties": {},
      "geometry": {
        "type": "Polygon",
        "coordinates": [
          [
            [
              78.432056,
              17.439942
            ],
            [
              78.4336,
              17.439779
            ],
            [
              78.436962,
              17.439419
            ],
            [
              78.442623,
              17.438895
            ],
            [
              78.440736,
              17.442397
            ],
            [
              78.439055,
              17.446227
            ],
            [
              78.437992,
              17.448551
            ],
            [
              78.438094,
              17.449108
            ],
            [
              78.441628,
              17.448289
            ],
            [
              78.446981,
              17.447144
            ],
            [
              78.447324,
              17.449468
            ],
            [
              78.447736,
              17.449468
            ],
            [
              78.449348,
              17.448846
            ],
            [
              78.449623,
              17.451432
            ],
            [
              78.449657,
              17.455032
            ],
            [
              78.444545,
              17.455948
            ],
            [
              78.436619,
              17.457127
            ],
            [
              78.434423,
              17.456014
            ],
            [
              78.434492,
              17.455097
            ],
            [
              78.43384,
              17.454901
            ],
            [
              78.431267,
              17.454345
            ],
            [
              78.430134,
              17.453723
            ],
            [
              78.425502,
              17.454312
            ],
            [
              78.419155,
              17.45369
            ],
            [
              78.419189,
              17.45261
            ],
            [
              78.418606,
              17.451202
            ],
            [
              78.418469,
              17.447962
            ],
            [
              78.416685,
              17.444918
            ],
            [
              78.417817,
              17.443052
            ],
            [
              78.421351,
              17.442397
            ],
            [
              78.424096,
              17.441546
            ],
            [
              78.423993,
              17.444656
            ],
            [
              78.42588,
              17.445016
            ],
            [
              78.4301,
              17.445442
            ],
            [
              78.432879,
              17.444361
            ],
            [
              78.432056,
              17.439942
            ]
          ]
        ]
      }
    }
  ]
}