{
  "type": "FeatureCollection",
  "features": [
    {
      "type": "Feature",
      "properties": {},
      "geometry": {
        "type": "Polygon",
        "coordinates": [
          [
            [
              78.397985,
              17.468047
            ],
            [
              78.398158,
              17.466445
            ],
            [
              78.397464,
              17.461142
            ],
            [
              78.404702,
              17.456502
            ],
            [
              78.411729,
              17.454701
            ],
            [
              78.417866,
              17.458472
            ],
            [
              78.417268,
              17.459927
            ],
            [
              78.415646,
              17.462634
            ],
            [
              78.412925,
              17.463739
            ],
            [
              78.410145,
              17.469594
            ],
            [
              78.404934,
              17.469428
            ],
            [
              78.397985,
              17.468047
            ]
          ]
        ]
      }
    }
  ]
}