{
  "type": "FeatureCollection",
  "features": [
    {
      "type": "Feature",
      "properties": {},
      "geometry": {
        "type": "Polygon",
        "coordinates": [
          [
            [
              78.387848,
              17.457682
            ],
            [
              78.387801,
              17.452619
            ],
            [
              78.385706,
              17.452619
            ],
            [
              78.386032,
              17.445423
            ],
            [
              78.3824,
              17.441781
            ],
            [
              78.386265,
              17.438049
            ],
            [
              78.392271,
              17.432763
            ],
            [
              78.396043,
              17.439426
            ],
            [
              78.398976,
              17.43876
            ],
            [
              78.402049,
              17.441499
            ],
            [
              78.402747,
              17.446562
            ],
            [
              78.396927,
              17.451226
            ],
            [
              78.397439,
              17.45478
            ],
            [
              78.392132,
              17.457978
            ],
            [
              78.387848,
              17.457682
            ]
          ]
        ]
      }
    }
  ]
}