{
  "type": "FeatureCollection",
  "features": [
    {
      "type": "Feature",
      "properties": {},
      "geometry": {
        "type": "Polygon",
        "coordinates": [
          [
            [
              78.431322,
              17.435873
            ],
            [
              78.424021,
              17.439408
            ],
            [
              78.424191,
              17.441199
            ],
            [
              78.422579,
              17.441704
            ],
            [
              78.420929,
              17.442152
            ],
            [
              78.420327,
              17.442307
            ],
            [
              78.419786,
              17.442335
            ],
            [
              78.419136,
              17.44245
            ],
            [
              78.418005,
              17.442645
            ],
            [
              78.417511,
              17.442806
            ],
            [
              78.415589,
              17.444297
            ],
            [
              78.411692,
              17.445435
            ],
            [
              78.410141,
              17.445815
            ],
            [
              78.409586,
              17.444358
            ],
            [
              78.409833,
              17.435257
            ],
            [
              78.41606,
              17.434158
            ],
            [
              78.420523,
              17.431974
            ],
            [
              78.420389,
              17.431084
            ],
            [
              78.416122,
              17.427182
            ],
            [
              78.418522,
              17.426292
            ],
            [
              78.426879,
              17.422984
            ],
            [
              78.43968,
              17.427267
            ],
            [
              78.439458,
              17.430193
            ],
            [
              78.43656,
              17.433828
            ],
            [
              78.433173,
              17.436477
            ],
            [
              78.431322,
              17.435873
            ]
          ]
        ]
      }
    }
  ]
}