{
  "type": "FeatureCollection",
  "features": [
    {
      "type": "Feature",
      "properties": {},
      "geometry": {
        "type": "Polygon",
        "coordinates": [
          [
            [
              78.443031,
              17.438875
            ],
            [
              78.443318,
              17.438247
            ],
            [
              78.443941,
              17.43696
            ],
            [
              78.44584,
              17.433928
            ],
            [
              78.450032,
              17.430073
            ],
            [
              78.455713,
              17.43303
            ],
            [
              78.455591,
              17.435725
            ],
            [
              78.456959,
              17.438856
            ],
            [
              78.454042,
              17.441464
            ],
            [
              78.448359,
              17.44147
            ],
            [
              78.448227,
              17.439018
            ],
            [
              78.447058,
              17.438866
            ],
            [
              78.446115,
              17.438996
            ],
            [
              78.445154,
              17.439145
            ],
            [
              78.44413,
              17.439135
            ],
            [
              78.443247,
              17.438911
            ],
            [
              78.443031,
              17.438875
            ]
          ]
        ]
      }
    }
  ]
}