{
  "type": "FeatureCollection",
  "features": [
    {
      "type": "Feature",
      "properties": {},
      "geometry": {
        "type": "Polygon",
        "coordinates": [
          [
            [
              78.424489,
              17.444316
            ],
            [
              78.424324,
              17.441922
            ],
            [
              78.424116,
              17.439506
            ],
            [
              78.425485,
              17.438885
            ],
            [
              78.428245,
              17.437448
            ],
            [
              78.42977,
              17.436947
            ],
            [
              78.433444,
              17.43652
            ],
            [
              78.435498,
              17.43484
            ],
            [
              78.436875,
              17.433677
            ],
            [
              78.439794,
              17.43016
            ],
            [
              78.447602,
              17.429842
            ],
            [
              78.44988,
              17.430102
            ],
            [
              78.445809,
              17.433783
            ],
            [
              78.442998,
              17.438489
            ],
            [
              78.439967,
              17.438853
            ],
            [
              78.437211,
              17.438997
            ],
            [
              78.431896,
              17.439577
            ],
            [
              78.432156,
              17.441625
            ],
            [
              78.432472,
              17.443611
            ],
            [
              78.432284,
              17.444506
            ],
            [
              78.431656,
              17.444752
            ],
            [
              78.430365,
              17.44508
            ],
            [
              78.4286,
              17.444908
            ],
            [
              78.426129,
              17.444809
            ],
            [
              78.424489,
              17.444316
            ]
          ]
        ]
      }
    }
  ]
}