{
  "type": "FeatureCollection",
  "features": [
    {
      "type": "Feature",
      "properties": {},
      "geometry": {
        "type": "Polygon",
        "coordinates": [
          [
            [
              78.438352,
              17.448595
            ],
            [
              78.442279,
              17.440238
            ],
            [
              78.44279,
              17.439701
            ],
            [
              78.443072,
              17.438937
            ],
            [
              78.443846,
              17.439168
            ],
            [
              78.445172,
              17.439227
            ],
            [
              78.446495,
              17.439002
            ],
            [
              78.447275,
              17.438935
            ],
            [
              78.448168,
              17.439081
            ],
            [
              78.448315,
              17.441422
            ],
            [
              78.446917,
              17.441669
            ],
            [
              78.445582,
              17.441993
            ],
            [
              78.446536,
              17.444751
            ],
            [
              78.446976,
              17.446829
            ],
            [
              78.442721,
              17.44766
            ],
            [
              78.438352,
              17.448595
            ]
          ]
        ]
      }
    }
  ]
}