{
  "type": "FeatureCollection",
  "features": [
    {
      "type": "Feature",
      "properties": {},
      "geometry": {
        "type": "Polygon",
        "coordinates": [
          [
            [
              78.417377,
              17.460029
            ],
            [
              78.419458,
              17.453974
            ],
            [
              78.419942,
              17.453999
            ],
            [
              78.420024,
              17.454114
            ],
            [
              78.420592,
              17.454036
            ],
            [
              78.421652,
              17.454153
            ],
            [
              78.423574,
              17.454374
            ],
            [
              78.425664,
              17.454571
            ],
            [
              78.427254,
              17.454468
            ],
            [
              78.428989,
              17.454154
            ],
            [
              78.430725,
              17.454411
            ],
            [
              78.431808,
              17.454656
            ],
            [
              78.432342,
              17.454777
            ],
            [
              78.432892,
              17.454879
            ],
            [
              78.434246,
              17.455133
            ],
            [
              78.433597,
              17.456717
            ],
            [
              78.432578,
              17.459078
            ],
            [
              78.43709,
              17.463069
            ],
            [
              78.436653,
              17.464076
            ],
            [
              78.433888,
              17.467825
            ],
            [
              78.431486,
              17.469595
            ],
            [
              78.427338,
              17.469525
            ],
            [
              78.425511,
              17.4665
            ],
            [
              78.421676,
              17.465797
            ],
            [
              78.42113,
              17.465601
            ],
            [
              78.420969,
              17.464943
            ],
            [
              78.42079,
              17.464405
            ],
            [
              78.4169,
              17.465113
            ],
            [
              78.417365,
              17.463265
            ],
            [
              78.417377,
              17.460029
            ]
          ]
        ]
      }
    }
  ]
}