{
  "type": "FeatureCollection",
  "features": [
    {
      "type": "Feature",
      "properties": {},
      "geometry": {
        "type": "Polygon",
        "coordinates": [
          [
            [
              78.445794,
              17.442075
            ],
            [
              78.448286,
              17.44153
            ],
            [
              78.453924,
              17.441616
            ],
            [
              78.453701,
              17.442
            ],
            [
              78.453097,
              17.443857
            ],
            [
              78.452358,
              17.447059
            ],
            [
              78.453566,
              17.450817
            ],
            [
              78.450277,
              17.451777
            ],
            [
              78.449561,
              17.44834
            ],
            [
              78.447592,
              17.449045
            ],
            [
              78.446831,
              17.445394
            ],
            [
              78.445794,
              17.442075
            ]
          ]
        ]
      }
    }
  ]
}