{
  "type": "FeatureCollection",
  "features": [
    {
      "type": "Feature",
      "properties": {},
      "geometry": {
        "type": "Polygon",
        "coordinates": [
          [
            [
              78.425289,
              17.490125
            ],
            [
              78.425241,
              17.489808
            ],
            [
              78.42553,
              17.489263
            ],
            [
              78.431691,
              17.488358
            ],
            [
              78.433734,
              17.492463
            ],
            [
              78.434879,
              17.496075
            ],
            [
              78.433489,
              17.498725
            ],
            [
              78.431185,
              17.501705
            ],
            [
              78.430234,
              17.501185
            ],
            [
              78.429706,
              17.50093
            ],
            [
              78.429294,
              17.500777
            ],
            [
              78.425792,
              17.501553
            ],
            [
              78.425116,
              17.500428
            ],
            [
              78.424776,
              17.500038
            ],
            [
              78.424303,
              17.499337
            ],
            [
              78.42356,
              17.499074
            ],
            [
              78.423,
              17.498692
            ],
            [
              78.422318,
              17.498157
            ],
            [
              78.421799,
              17.497666
            ],
            [
              78.420785,
              17.497767
            ],
            [
              78.420786,
              17.497708
            ],
            [
              78.420785,
              17.497116
            ],
            [
              78.421153,
              17.496556
            ],
            [
              78.420978,
              17.495761
            ],
            [
              78.421074,
              17.495538
            ],
            [
              78.42108,
              17.495247
            ],
            [
              78.421071,
              17.49467
            ],
            [
              78.420656,
              17.493802
            ],
            [
              78.421705,
              17.493497
            ],
            [
              78.422715,
              17.49321
            ],
            [
              78.424126,
              17.492853
            ],
            [
              78.423827,
              17.4916
            ],
            [
              78.424556,
              17.491051
            ],
            [
              78.425289,
              17.490125
            ]
          ]
        ]
      }
    }
  ]
}