{
  "type": "FeatureCollection",
  "features": [
    {
      "type": "Feature",
      "properties": {},
      "geometry": {
        "type": "Polygon",
        "coordinates": [
          [
            [
              78.395037,
              17.496157
            ],
            [
              78.39484,
              17.49575
            ],
            [
              78.394357,
              17.494437
            ],
            [
              78.392839,
              17.4909
            ],
            [
              78.391453,
              17.487347
            ],
            [
              78.390251,
              17.484363
            ],
            [
              78.382299,
              17.488073
            ],
            [
              78.380083,
              17.482094
            ],
            [
              78.378181,
              17.476012
            ],
            [
              78.38645,
              17.471915
            ],
            [
              78.391891,
              17.469728
            ],
            [
              78.397666,
              17.483237
            ],
            [
              78.400636,
              17.484624
            ],
            [
              78.402068,
              17.488763
            ],
            [
              78.403275,
              17.492826
            ],
            [
              78.401816,
              17.493522
            ],
            [
              78.400488,
              17.494132
            ],
            [
              78.397816,
              17.495328
            ],
            [
              78.397119,
              17.495641
            ],
            [
              78.39634,
              17.495805
            ],
            [
              78.395037,
              17.496157
            ]
          ]
        ]
      }
    }
  ]
}