{
  "type": "FeatureCollection",
  "features": [
    {
      "type": "Feature",
      "properties": {},
      "geometry": {
        "type": "Polygon",
        "coordinates": [
          [
            [
              78.396963,
              17.46133
            ],
            [
              78.396783,
              17.459036
            ],
            [
              78.397588,
              17.455173
            ],
            [
              78.3972,
              17.451608
            ],
            [
              78.401976,
              17.44739
            ],
            [
              78.407247,
              17.445784
            ],
            [
              78.410133,
              17.445956
            ],
            [
              78.416254,
              17.445055
            ],
            [
              78.418082,
              17.447897
            ],
            [
              78.418312,
              17.451004
            ],
            [
              78.418814,
              17.452533
            ],
            [
              78.418852,
              17.454005
            ],
            [
              78.419387,
              17.453974
            ],
            [
              78.417891,
              17.458437
            ],
            [
              78.411757,
              17.454618
            ],
            [
              78.405142,
              17.456167
            ],
            [
              78.397685,
              17.460642
            ],
            [
              78.396963,
              17.46133
            ]
          ]
        ]
      }
    }
  ]
}