{
  "type": "FeatureCollection",
  "features": [
    {
      "type": "Feature",
      "properties": {},
      "geometry": {
        "type": "Polygon",
        "coordinates": [
          [
            [
              78.408595,
              17.478759
            ],
            [
              78.41031,
              17.479031
            ],
            [
              78.416884,
              17.480885
            ],
            [
              78.417799,
              17.482467
            ],
            [
              78.418771,
              17.482521
            ],
            [
              78.420473,
              17.481797
            ],
            [
              78.422373,
              17.481812
            ],
            [
              78.42689,
              17.48143
            ],
            [
              78.42717,
              17.484148
            ],
            [
              78.426385,
              17.486603
            ],
            [
              78.424967,
              17.489869
            ],
            [
              78.424551,
              17.49092
            ],
            [
              78.423745,
              17.491246
            ],
            [
              78.423819,
              17.492715
            ],
            [
              78.422362,
              17.493184
            ],
            [
              78.421028,
              17.493485
            ],
            [
              78.420519,
              17.493803
            ],
            [
              78.420817,
              17.494607
            ],
            [
              78.420852,
              17.49588
            ],
            [
              78.420501,
              17.497537
            ],
            [
              78.421,
              17.49817
            ],
            [
              78.423572,
              17.499315
            ],
            [
              78.425172,
              17.501495
            ],
            [
              78.420542,
              17.502368
            ],
            [
              78.41877,
              17.501877
            ],
            [
              78.41797,
              17.503458
            ],
            [
              78.413625,
              17.504657
            ],
            [
              78.409052,
              17.505584
            ],
            [
              78.402307,
              17.502966
            ],
            [
              78.395679,
              17.502583
            ],
            [
              78.394252,
              17.49735
            ],
            [
              78.395109,
              17.497241
            ],
            [
              78.406995,
              17.491409
            ],
            [
              78.406823,
              17.490973
            ],
            [
              78.404594,
              17.485903
            ],
            [
              78.40505,
              17.483503
            ],
            [
              78.408595,
              17.478759
            ]
          ]
        ]
      }
    }
  ]
}