{
  "type": "FeatureCollection",
  "features": [
    {
      "type": "Feature",
      "properties": {},
      "geometry": {
        "type": "Polygon",
        "coordinates": [
          [
            [
              78.394474,
              17.499944
            ],
            [
              78.394957,
              17.501781
            ],
            [
              78.395324,
              17.503082
            ],
            [
              78.395646,
              17.504326
            ],
            [
              78.395831,
              17.504999
            ],
            [
              78.395953,
              17.505625
            ],
            [
              78.396325,
              17.510205
            ],
            [
              78.396204,
              17.514945
            ],
            [
              78.394212,
              17.515137
            ],
            [
              78.393617,
              17.515152
            ],
            [
              78.393693,
              17.515818
            ],
            [
              78.393265,
              17.515994
            ],
            [
              78.393259,
              17.516468
            ],
            [
              78.391758,
              17.516786
            ],
            [
              78.390417,
              17.516917
            ],
            [
              78.388035,
              17.517299
            ],
            [
              78.385882,
              17.517313
            ],
            [
              78.385305,
              17.51756
            ],
            [
              78.385724,
              17.51884
            ],
            [
              78.385991,
              17.520164
            ],
            [
              78.386869,
              17.521418
            ],
            [
              78.387292,
              17.521917
            ],
            [
              78.387843,
              17.52229
            ],
            [
              78.386105,
              17.524082
            ],
            [
              78.383737,
              17.524274
            ],
            [
              78.377095,
              17.52158
            ],
            [
              78.375427,
              17.521372
            ],
            [
              78.373592,
              17.520082
            ],
            [
              78.368626,
              17.51888
            ],
            [
              78.369782,
              17.51502
            ],
            [
              78.37237,
              17.515384
            ],
            [
              78.373781,
              17.511677
            ],
            [
              78.372933,
              17.509461
            ],
            [
              78.373486,
              17.507344
            ],
            [
              78.375187,
              17.507209
            ],
            [
              78.376505,
              17.507028
            ],
            [
              78.376218,
              17.500423
            ],
            [
              78.378152,
              17.497471
            ],
            [
              78.374993,
              17.491834
            ],
            [
              78.382372,
              17.488195
            ],
            [
              78.390002,
              17.484559
            ],
            [
              78.394751,
              17.496087
            ],
            [
              78.393211,
              17.496838
            ],
            [
              78.393595,
              17.49712
            ],
            [
              78.393868,
              17.497873
            ],
            [
              78.394323,
              17.499399
            ],
            [
              78.394474,
              17.499944
            ]
          ]
        ]
      }
    }
  ]
}