{
  "type": "FeatureCollection",
  "features": [
    {
      "type": "Feature",
      "properties": {},
      "geometry": {
        "type": "Polygon",
        "coordinates": [
          [
            [
              78.417229,
              17.480454
            ],
            [
              78.414463,
              17.47702
            ],
            [
              78.413265,
              17.475949
            ],
            [
              78.41344,
              17.474396
            ],
            [
              78.411456,
              17.469296
            ],
            [
              78.414696,
              17.466205
            ],
            [
              78.417226,
              17.465063
            ],
            [
              78.420789,
              17.464489
            ],
            [
              78.421003,
              17.465298
            ],
            [
              78.42111,
              17.465612
            ],
            [
              78.421473,
              17.465778
            ],
            [
              78.422457,
              17.465991
            ],
            [
              78.42349,
              17.4662
            ],
            [
              78.425418,
              17.466528
            ],
            [
              78.427187,
              17.469612
            ],
            [
              78.435881,
              17.470339
            ],
            [
              78.429562,
              17.472425
            ],
            [
              78.426388,
              17.474423
            ],
            [
              78.42712,
              17.480883
            ],
            [
              78.42393,
              17.481386
            ],
            [
              78.420991,
              17.481332
            ],
            [
              78.418967,
              17.482177
            ],
            [
              78.418247,
              17.482447
            ],
            [
              78.417928,
              17.481966
            ],
            [
              78.417625,
              17.481271
            ],
            [
              78.417483,
              17.480903
            ],
            [
              78.417229,
              17.480454
            ]
          ]
        ]
      }
    }
  ]
}