{
  "type": "FeatureCollection",
  "features": [
    {
      "type": "Feature",
      "properties": {},
      "geometry": {
        "type": "Polygon",
        "coordinates": [
          [
            [
              78.3855,
              17.529401
            ],
            [
              78.385451,
              17.527983
            ],
            [
              78.386467,
              17.524382
            ],
            [
              78.387966,
              17.522279
            ],
            [
              78.387247,
              17.521669
            ],
            [
              78.386533,
              17.520802
            ],
            [
              78.386018,
              17.519815
            ],
            [
              78.385421,
              17.517585
            ],
            [
              78.386086,
              17.517355
            ],
            [
              78.387274,
              17.517351
            ],
            [
              78.388247,
              17.517317
            ],
            [
              78.389181,
              17.517143
            ],
            [
              78.391744,
              17.516845
            ],
            [
              78.393332,
              17.516513
            ],
            [
              78.393332,
              17.516028
            ],
            [
              78.393753,
              17.515827
            ],
            [
              78.39366,
              17.515181
            ],
            [
              78.39423,
              17.515191
            ],
            [
              78.39616,
              17.515103
            ],
            [
              78.397038,
              17.515064
            ],
            [
              78.396878,
              17.514616
            ],
            [
              78.396615,
              17.510387
            ],
            [
              78.396086,
              17.506413
            ],
            [
              78.396062,
              17.505548
            ],
            [
              78.395815,
              17.504706
            ],
            [
              78.395367,
              17.502943
            ],
            [
              78.398947,
              17.503112
            ],
            [
              78.400691,
              17.503201
            ],
            [
              78.402351,
              17.503312
            ],
            [
              78.405256,
              17.504445
            ],
            [
              78.408002,
              17.505553
            ],
            [
              78.408974,
              17.505956
            ],
            [
              78.409191,
              17.505881
            ],
            [
              78.409501,
              17.505762
            ],
            [
              78.410601,
              17.505483
            ],
            [
              78.411706,
              17.505296
            ],
            [
              78.413658,
              17.505025
            ],
            [
              78.414418,
              17.504872
            ],
            [
              78.415425,
              17.504513
            ],
            [
              78.417868,
              17.503705
            ],
            [
              78.418907,
              17.502047
            ],
            [
              78.419909,
              17.50261
            ],
            [
              78.420433,
              17.50278
            ],
            [
              78.420923,
              17.502681
            ],
            [
              78.423519,
              17.502085
            ],
            [
              78.424824,
              17.501804
            ],
            [
              78.425473,
              17.501676
            ],
            [
              78.426104,
              17.501528
            ],
            [
              78.428594,
              17.500962
            ],
            [
              78.428874,
              17.500885
            ],
            [
              78.429289,
              17.500818
            ],
            [
              78.429805,
              17.501017
            ],
            [
              78.430281,
              17.501231
            ],
            [
              78.431157,
              17.501725
            ],
            [
              78.433321,
              17.512901
            ],
            [
              78.427502,
              17.514907
            ],
            [
              78.422855,
              17.515924
            ],
            [
              78.418056,
              17.520936
            ],
            [
              78.414247,
              17.519847
            ],
            [
              78.414551,
              17.517304
            ],
            [
              78.410133,
              17.518757
            ],
            [
              78.399077,
              17.532808
            ],
            [
              78.393067,
              17.534353
            ],
            [
              78.387359,
              17.534115
            ],
            [
              78.3855,
              17.529401
            ]
          ]
        ]
      }
    }
  ]
}