{
  "type": "FeatureCollection",
  "features": [
    {
      "type": "Feature",
      "properties": {},
      "geometry": {
        "type": "Polygon",
        "coordinates": [
          [
            [
              78.423605637,
              17.4758187
            ],
            [
              78.42769674,
              17.473533255
            ],
            [
              78.427758218,
              17.474379573
            ],
            [
              78.427973389,
              17.476373341
            ],
            [
              78.428127084,
              17.478220489
            ],
            [
              78.428618905,
              17.479188035
            ],
            [
              78.428711121,
              17.480096937
            ],
            [
              78.428649644,
              17.480888558
            ],
            [
              78.427604523,
              17.481240388
            ],
            [
              78.427512307,
              17.482325194
            ],
            [
              78.427450829,
              17.483879094
            ],
            [
              78.426959008,
              17.484524105
            ],
            [
              78.426252015,
              17.485579573
            ],
            [
              78.426282754,
              17.48619526
            ],
            [
              78.42665162,
              17.486752308
            ],
            [
              78.426221276,
              17.487485264
            ],
            [
              78.424960984,
              17.487133445
            ],
            [
              78.424469163,
              17.487514582
            ],
            [
              78.424313222,
              17.487851063
            ],
            [
              78.424159528,
              17.488408106
            ],
            [
              78.42357549,
              17.489258327
            ],
            [
              78.425081693,
              17.490167178
            ],
            [
              78.425112432,
              17.490577626
            ],
            [
              78.424251745,
              17.492102138
            ],
            [
              78.424343961,
              17.493420154
            ],
            [
              78.423496991,
              17.495035739
            ],
            [
              78.42446187,
              17.495074866
            ],
            [
              78.424578711,
              17.496014718
            ],
            [
              78.4258948,
              17.498804905
            ],
            [
              78.425840924,
              17.501647339
            ],
            [
              78.422006868,
              17.502262767
            ],
            [
              78.417690871,
              17.498321822
            ],
            [
              78.417206834,
              17.497860608
            ],
            [
              78.416239075,
              17.498495165
            ],
            [
              78.415271403,
              17.498898865
            ],
            [
              78.413926069,
              17.496908232
            ],
            [
              78.41200752,
              17.495090238
            ],
            [
              78.407589024,
              17.490712189
            ],
            [
              78.409736548,
              17.487923926
            ],
            [
              78.411849077,
              17.484915515
            ],
            [
              78.412647774,
              17.483807145
            ],
            [
              78.416227543,
              17.481579744
            ],
            [
              78.418258075,
              17.479583921
            ],
            [
              78.421076962,
              17.477527145
            ],
            [
              78.423605637,
              17.4758187
            ]
          ]
        ]
      }
    }
  ]
}