{
  "type": "FeatureCollection",
  "features": [
    {
      "type": "Feature",
      "properties": {},
      "geometry": {
        "type": "Polygon",
        "coordinates": [
          [
            [
              78.388549015,
              17.541428886
            ],
            [
              78.387788788,
              17.535411126
            ],
            [
              78.385680999,
              17.529781487
            ],
            [
              78.385279202,
              17.528882488
            ],
            [
              78.386797704,
              17.526764663
            ],
            [
              78.387381569,
              17.524256245
            ],
            [
              78.387150297,
              17.521346879
            ],
            [
              78.389371765,
              17.519005191
            ],
            [
              78.388375294,
              17.514320897
            ],
            [
              78.392117447,
              17.512982379
            ],
            [
              78.400128914,
              17.513651666
            ],
            [
              78.401735511,
              17.510688054
            ],
            [
              78.401716671,
              17.503228555
            ],
            [
              78.401104179,
              17.503236158
            ],
            [
              78.401213793,
              17.502149777
            ],
            [
              78.401594807,
              17.501156316
            ],
            [
              78.40143155,
              17.499330402
            ],
            [
              78.401972886,
              17.499349283
            ],
            [
              78.401966803,
              17.49859343
            ],
            [
              78.399746989,
              17.494843523
            ],
            [
              78.404104272,
              17.492821354
            ],
            [
              78.406398199,
              17.496737802
            ],
            [
              78.409465848,
              17.497969509
            ],
            [
              78.410666979,
              17.496949643
            ],
            [
              78.412612303,
              17.497978754
            ],
            [
              78.412803324,
              17.498405134
            ],
            [
              78.414229842,
              17.497380648
            ],
            [
              78.415102616,
              17.498706631
            ],
            [
              78.414313389,
              17.499124367
            ],
            [
              78.414052675,
              17.499473148
            ],
            [
              78.414259551,
              17.500585083
            ],
            [
              78.413493676,
              17.501531352
            ],
            [
              78.411696385,
              17.501390452
            ],
            [
              78.408295887,
              17.502242381
            ],
            [
              78.407780581,
              17.507027238
            ],
            [
              78.409741485,
              17.508129796
            ],
            [
              78.410702511,
              17.510334927
            ],
            [
              78.413104689,
              17.513295255
            ],
            [
              78.405274966,
              17.51828064
            ],
            [
              78.405275012,
              17.528964834
            ],
            [
              78.399256026,
              17.537100554
            ],
            [
              78.395692182,
              17.540498664
            ],
            [
              78.388549015,
              17.541428886
            ]
          ]
        ]
      }
    }
  ]
}