{
  "type": "FeatureCollection",
  "features": [
    {
      "type": "Feature",
      "properties": {},
      "geometry": {
        "type": "Polygon",
        "coordinates": [
          [
            [
              78.414472,
              17.51944
            ],
            [
              78.415256,
              17.514707
            ],
            [
              78.417609,
              17.509208
            ],
            [
              78.417006,
              17.507129
            ],
            [
              78.420937,
              17.50691
            ],
            [
              78.421499,
              17.507268
            ],
            [
              78.425297,
              17.508415
            ],
            [
              78.428245,
              17.510317
            ],
            [
              78.42983,
              17.511374
            ],
            [
              78.431236,
              17.51219
            ],
            [
              78.432871,
              17.511397
            ],
            [
              78.442376,
              17.512929
            ],
            [
              78.442243,
              17.513722
            ],
            [
              78.440808,
              17.514571
            ],
            [
              78.434669,
              17.519331
            ],
            [
              78.430509,
              17.516787
            ],
            [
              78.414472,
              17.51944
            ]
          ]
        ]
      }
    }
  ]
}