{
  "type": "FeatureCollection",
  "features": [
    {
      "type": "Feature",
      "properties": {},
      "geometry": {
        "type": "Polygon",
        "coordinates": [
          [
            [
              78.393407,
              17.540498
            ],
            [
              78.394319,
              17.52972
            ],
            [
              78.39471,
              17.525633
            ],
            [
              78.396354,
              17.522408
            ],
            [
              78.425139,
              17.517918
            ],
            [
              78.427395,
              17.517537
            ],
            [
              78.430284,
              17.516963
            ],
            [
              78.431452,
              17.517459
            ],
            [
              78.4331,
              17.518596
            ],
            [
              78.434623,
              17.519524
            ],
            [
              78.443975,
              17.522526
            ],
            [
              78.436905,
              17.530161
            ],
            [
              78.435256,
              17.534256
            ],
            [
              78.433907,
              17.538839
            ],
            [
              78.433673,
              17.542707
            ],
            [
              78.434132,
              17.54654
            ],
            [
              78.432413,
              17.551676
            ],
            [
              78.432124,
              17.55498
            ],
            [
              78.431759,
              17.556287
            ],
            [
              78.431482,
              17.557289
            ],
            [
              78.428916,
              17.555513
            ],
            [
              78.427674,
              17.555909
            ],
            [
              78.426702,
              17.556873
            ],
            [
              78.425473,
              17.558367
            ],
            [
              78.416057,
              17.561548
            ],
            [
              78.411309,
              17.562353
            ],
            [
              78.411186,
              17.558443
            ],
            [
              78.409529,
              17.55154
            ],
            [
              78.404449,
              17.549658
            ],
            [
              78.400256,
              17.542935
            ],
            [
              78.393407,
              17.540498
            ]
          ]
        ]
      }
    }
  ]
}