{
  "type": "FeatureCollection",
  "features": [
    {
      "type": "Feature",
      "properties": {},
      "geometry": {
        "type": "Polygon",
        "coordinates": [
          [
            [
              78.427972,
              17.490417
            ],
            [
              78.433033,
              17.485533
            ],
            [
              78.448292,
              17.480342
            ],
            [
              78.45052,
              17.488146
            ],
            [
              78.452075,
              17.496071
            ],
            [
              78.436088,
              17.500427
            ],
            [
              78.427972,
              17.490417
            ]
          ]
        ]
      }
    }
  ]
}