{
  "type": "FeatureCollection",
  "features": [
    {
      "type": "Feature",
      "properties": {},
      "geometry": {
        "type": "Polygon",
        "coordinates": [
          [
            [
              78.527986,
              17.42433
            ],
            [
              78.528145,
              17.42465
            ],
            [
              78.528691,
              17.42449
            ],
            [
              78.529398,
              17.42502
            ],
            [
              78.529779,
              17.425449
            ],
            [
              78.530349,
              17.426069
            ],
            [
              78.531099,
              17.426676
            ],
            [
              78.530243,
              17.427376
            ],
            [
              78.529828,
              17.427706
            ],
            [
              78.529075,
              17.428085
            ],
            [
              78.527821,
              17.428681
            ],
            [
              78.527309,
              17.428922
            ],
            [
              78.526691,
              17.429387
            ],
            [
              78.526111,
              17.429945
            ],
            [
              78.525192,
              17.430784
            ],
            [
              78.523734,
              17.431832
            ],
            [
              78.522948,
              17.432753
            ],
            [
              78.522404,
              17.4331
            ],
            [
              78.521738,
              17.43394
            ],
            [
              78.520355,
              17.435128
            ],
            [
              78.519674,
              17.435632
            ],
            [
              78.519042,
              17.436183
            ],
            [
              78.51835,
              17.436447
            ],
            [
              78.517659,
              17.436777
            ],
            [
              78.516725,
              17.436876
            ],
            [
              78.516138,
              17.436414
            ],
            [
              78.515619,
              17.436117
            ],
            [
              78.5151,
              17.435754
            ],
            [
              78.514167,
              17.435326
            ],
            [
              78.51313,
              17.434864
            ],
            [
              78.511954,
              17.4346
            ],
            [
              78.51076,
              17.433936
            ],
            [
              78.513155,
              17.433281
            ],
            [
              78.514457,
              17.432813
            ],
            [
              78.515861,
              17.432027
            ],
            [
              78.516793,
              17.430994
            ],
            [
              78.518154,
              17.429747
            ],
            [
              78.518986,
              17.428893
            ],
            [
              78.520202,
              17.427692
            ],
            [
              78.520763,
              17.426915
            ],
            [
              78.521331,
              17.426785
            ],
            [
              78.522076,
              17.426548
            ],
            [
              78.523003,
              17.426408
            ],
            [
              78.524326,
              17.426084
            ],
            [
              78.525434,
              17.42531
            ],
            [
              78.526381,
              17.42494
            ],
            [
              78.52717,
              17.424674
            ],
            [
              78.527484,
              17.42454
            ],
            [
              78.527986,
              17.42433
            ]
          ]
        ]
      }
    }
  ]
}