{
  "type": "FeatureCollection",
  "features": [
    {
      "type": "Feature",
      "properties": {},
      "geometry": {
        "type": "Polygon",
        "coordinates": [
          [
            [
              78.498119,
              17.416006
            ],
            [
              78.498865,
              17.416921
            ],
            [
              78.499164,
              17.418142
            ],
            [
              78.500082,
              17.419626
            ],
            [
              78.500563,
              17.420592
            ],
            [
              78.501335,
              17.420527
            ],
            [
              78.503034,
              17.421198
            ],
            [
              78.505909,
              17.424023
            ],
            [
              78.508593,
              17.426202
            ],
            [
              78.511574,
              17.430168
            ],
            [
              78.509136,
              17.431385
            ],
            [
              78.509482,
              17.433367
            ],
            [
              78.510513,
              17.433936
            ],
            [
              78.505862,
              17.43418
            ],
            [
              78.498354,
              17.43186
            ],
            [
              78.489991,
              17.431901
            ],
            [
              78.487922,
              17.428136
            ],
            [
              78.485832,
              17.42256
            ],
            [
              78.48869,
              17.415476
            ],
            [
              78.494663,
              17.414907
            ],
            [
              78.498119,
              17.416006
            ]
          ]
        ]
      }
    }
  ]
}