{
  "type": "FeatureCollection",
  "features": [
    {
      "type": "Feature",
      "properties": {},
      "geometry": {
        "type": "Polygon",
        "coordinates": [
          [
            [
              78.51995,
              17.411783
            ],
            [
              78.520814,
              17.412002
            ],
            [
              78.521982,
              17.412157
            ],
            [
              78.523248,
              17.412529
            ],
            [
              78.523897,
              17.412714
            ],
            [
              78.524871,
              17.413179
            ],
            [
              78.525779,
              17.413984
            ],
            [
              78.526266,
              17.414325
            ],
            [
              78.52672,
              17.414696
            ],
            [
              78.52724,
              17.415006
            ],
            [
              78.527824,
              17.415347
            ],
            [
              78.528408,
              17.415687
            ],
            [
              78.528927,
              17.416399
            ],
            [
              78.529122,
              17.417174
            ],
            [
              78.529154,
              17.4177
            ],
            [
              78.529219,
              17.418536
            ],
            [
              78.529284,
              17.419217
            ],
            [
              78.529349,
              17.420704
            ],
            [
              78.529479,
              17.42092
            ],
            [
              78.529479,
              17.421571
            ],
            [
              78.529479,
              17.421942
            ],
            [
              78.529382,
              17.422407
            ],
            [
              78.529284,
              17.422778
            ],
            [
              78.529025,
              17.423459
            ],
            [
              78.528181,
              17.424017
            ],
            [
              78.528375,
              17.424234
            ],
            [
              78.528051,
              17.424265
            ],
            [
              78.527402,
              17.424265
            ],
            [
              78.526558,
              17.424265
            ],
            [
              78.525788,
              17.42428
            ],
            [
              78.524806,
              17.424327
            ],
            [
              78.523512,
              17.424343
            ],
            [
              78.522244,
              17.424389
            ],
            [
              78.521684,
              17.424442
            ],
            [
              78.521442,
              17.423787
            ],
            [
              78.521295,
              17.423234
            ],
            [
              78.521034,
              17.422307
            ],
            [
              78.520803,
              17.421316
            ],
            [
              78.520177,
              17.419277
            ],
            [
              78.519917,
              17.418255
            ],
            [
              78.51956,
              17.416862
            ],
            [
              78.519366,
              17.415004
            ],
            [
              78.518879,
              17.413982
            ],
            [
              78.518652,
              17.41296
            ],
            [
              78.518457,
              17.412062
            ],
            [
              78.518392,
              17.411102
            ],
            [
              78.519171,
              17.411195
            ],
            [
              78.51995,
              17.411783
            ]
          ]
        ]
      }
    }
  ]
}