{
  "type": "FeatureCollection",
  "features": [
    {
      "type": "Feature",
      "properties": {},
      "geometry": {
        "type": "Polygon",
        "coordinates": [
          [
            [
              78.517758,
              17.41058
            ],
            [
              78.517983,
              17.411313
            ],
            [
              78.518073,
              17.411796
            ],
            [
              78.518289,
              17.412447
            ],
            [
              78.518473,
              17.412976
            ],
            [
              78.518584,
              17.414068
            ],
            [
              78.518953,
              17.415302
            ],
            [
              78.519255,
              17.416248
            ],
            [
              78.519542,
              17.417248
            ],
            [
              78.519936,
              17.419194
            ],
            [
              78.520049,
              17.41949
            ],
            [
              78.520385,
              17.420181
            ],
            [
              78.520466,
              17.420972
            ],
            [
              78.520657,
              17.421746
            ],
            [
              78.52082,
              17.422493
            ],
            [
              78.521132,
              17.423525
            ],
            [
              78.521611,
              17.424518
            ],
            [
              78.52724,
              17.42437
            ],
            [
              78.525433,
              17.425088
            ],
            [
              78.524103,
              17.425955
            ],
            [
              78.5237,
              17.426017
            ],
            [
              78.522638,
              17.426221
            ],
            [
              78.521199,
              17.426675
            ],
            [
              78.52072,
              17.426855
            ],
            [
              78.520595,
              17.427061
            ],
            [
              78.520211,
              17.427426
            ],
            [
              78.519757,
              17.427919
            ],
            [
              78.519245,
              17.428447
            ],
            [
              78.518345,
              17.429311
            ],
            [
              78.516838,
              17.430638
            ],
            [
              78.515355,
              17.432164
            ],
            [
              78.513755,
              17.432673
            ],
            [
              78.510625,
              17.433624
            ],
            [
              78.509674,
              17.433292
            ],
            [
              78.509628,
              17.432584
            ],
            [
              78.509257,
              17.431459
            ],
            [
              78.510199,
              17.430952
            ],
            [
              78.511661,
              17.430223
            ],
            [
              78.511316,
              17.429637
            ],
            [
              78.509753,
              17.427482
            ],
            [
              78.508504,
              17.425969
            ],
            [
              78.507117,
              17.424714
            ],
            [
              78.50514,
              17.423167
            ],
            [
              78.503833,
              17.421533
            ],
            [
              78.502245,
              17.420756
            ],
            [
              78.501497,
              17.420471
            ],
            [
              78.500708,
              17.420356
            ],
            [
              78.499988,
              17.41929
            ],
            [
              78.499483,
              17.417725
            ],
            [
              78.498838,
              17.416347
            ],
            [
              78.498449,
              17.415724
            ],
            [
              78.499356,
              17.415317
            ],
            [
              78.500385,
              17.414978
            ],
            [
              78.501037,
              17.414811
            ],
            [
              78.501705,
              17.41472
            ],
            [
              78.502334,
              17.414641
            ],
            [
              78.5033,
              17.41461
            ],
            [
              78.504344,
              17.414452
            ],
            [
              78.504667,
              17.414309
            ],
            [
              78.505128,
              17.413928
            ],
            [
              78.50564,
              17.413257
            ],
            [
              78.506393,
              17.412656
            ],
            [
              78.506657,
              17.412474
            ],
            [
              78.506947,
              17.412335
            ],
            [
              78.507412,
              17.41221
            ],
            [
              78.508611,
              17.411941
            ],
            [
              78.509239,
              17.411792
            ],
            [
              78.510041,
              17.411615
            ],
            [
              78.510752,
              17.411415
            ],
            [
              78.511521,
              17.411224
            ],
            [
              78.511867,
              17.411156
            ],
            [
              78.512446,
              17.411141
            ],
            [
              78.512585,
              17.411161
            ],
            [
              78.512646,
              17.411499
            ],
            [
              78.513937,
              17.411291
            ],
            [
              78.51532,
              17.411089
            ],
            [
              78.517758,
              17.41058
            ]
          ]
        ]
      }
    }
  ]
}