{
  "type": "FeatureCollection",
  "features": [
    {
      "type": "Feature",
      "properties": {},
      "geometry": {
        "type": "Polygon",
        "coordinates": [
          [
            [
              78.509018,
              17.401378
            ],
            [
              78.50988,
              17.402374
            ],
            [
              78.510636,
              17.403817
            ],
            [
              78.511081,
              17.40526
            ],
            [
              78.512193,
              17.405685
            ],
            [
              78.51335,
              17.40717
            ],
            [
              78.51455,
              17.408146
            ],
            [
              78.515395,
              17.408783
            ],
            [
              78.51584,
              17.409037
            ],
            [
              78.516596,
              17.409631
            ],
            [
              78.517619,
              17.410056
            ],
            [
              78.518108,
              17.410353
            ],
            [
              78.516757,
              17.410692
            ],
            [
              78.515887,
              17.410882
            ],
            [
              78.514882,
              17.411089
            ],
            [
              78.512691,
              17.411448
            ],
            [
              78.512633,
              17.41107
            ],
            [
              78.511691,
              17.411119
            ],
            [
              78.509997,
              17.411543
            ],
            [
              78.509243,
              17.411733
            ],
            [
              78.508519,
              17.41189
            ],
            [
              78.507764,
              17.412058
            ],
            [
              78.507001,
              17.412237
            ],
            [
              78.506424,
              17.412508
            ],
            [
              78.506035,
              17.412874
            ],
            [
              78.505642,
              17.413123
            ],
            [
              78.505092,
              17.413812
            ],
            [
              78.504858,
              17.414049
            ],
            [
              78.504579,
              17.41428
            ],
            [
              78.504361,
              17.414367
            ],
            [
              78.504112,
              17.414404
            ],
            [
              78.503166,
              17.41454
            ],
            [
              78.50119,
              17.414665
            ],
            [
              78.499949,
              17.415034
            ],
            [
              78.49844,
              17.415658
            ],
            [
              78.498433,
              17.414917
            ],
            [
              78.49821,
              17.413771
            ],
            [
              78.49821,
              17.41237
            ],
            [
              78.49821,
              17.410927
            ],
            [
              78.498121,
              17.409697
            ],
            [
              78.497632,
              17.408211
            ],
            [
              78.49661,
              17.406612
            ],
            [
              78.499055,
              17.406004
            ],
            [
              78.500745,
              17.405538
            ],
            [
              78.503014,
              17.404943
            ],
            [
              78.505193,
              17.403713
            ],
            [
              78.507461,
              17.402609
            ],
            [
              78.509018,
              17.401378
            ]
          ]
        ]
      }
    }
  ]
}