{
  "type": "FeatureCollection",
  "features": [
    {
      "type": "Feature",
      "properties": {},
      "geometry": {
        "type": "Polygon",
        "coordinates": [
          [
            [
              78.459834,
              17.402787
            ],
            [
              78.45814,
              17.402606
            ],
            [
              78.456854,
              17.402971
            ],
            [
              78.45795,
              17.400058
            ],
            [
              78.458102,
              17.39966
            ],
            [
              78.45791,
              17.398297
            ],
            [
              78.459188,
              17.396893
            ],
            [
              78.459822,
              17.395104
            ],
            [
              78.460711,
              17.394805
            ],
            [
              78.462473,
              17.394463
            ],
            [
              78.462563,
              17.395689
            ],
            [
              78.470722,
              17.396016
            ],
            [
              78.470495,
              17.399574
            ],
            [
              78.468104,
              17.402158
            ],
            [
              78.464524,
              17.403783
            ],
            [
              78.461125,
              17.402647
            ],
            [
              78.459834,
              17.402787
            ]
          ]
        ]
      }
    }
  ]
}