{
  "type": "FeatureCollection",
  "features": [
    {
      "type": "Feature",
      "properties": {},
      "geometry": {
        "type": "Polygon",
        "coordinates": [
          [
            [
              78.364745,
              17.398422
            ],
            [
              78.372319,
              17.395918
            ],
            [
              78.376569,
              17.393661
            ],
            [
              78.38406,
              17.394977
            ],
            [
              78.399793,
              17.393774
            ],
            [
              78.40003,
              17.395393
            ],
            [
              78.400466,
              17.396692
            ],
            [
              78.396398,
              17.397154
            ],
            [
              78.392181,
              17.397609
            ],
            [
              78.388394,
              17.39801
            ],
            [
              78.388566,
              17.400301
            ],
            [
              78.388716,
              17.402967
            ],
            [
              78.388867,
              17.405189
            ],
            [
              78.388979,
              17.407472
            ],
            [
              78.38223,
              17.40769
            ],
            [
              78.378278,
              17.406651
            ],
            [
              78.374949,
              17.405231
            ],
            [
              78.371199,
              17.400036
            ],
            [
              78.368626,
              17.400362
            ],
            [
              78.365524,
              17.401243
            ],
            [
              78.364745,
              17.398422
            ]
          ]
        ]
      }
    }
  ]
}