{
  "type": "FeatureCollection",
  "features": [
    {
      "type": "Feature",
      "properties": {},
      "geometry": {
        "type": "Polygon",
        "coordinates": [
          [
            [
              78.41359,
              17.399979
            ],
            [
              78.403127,
              17.406557
            ],
            [
              78.389712,
              17.417063
            ],
            [
              78.388478,
              17.398095
            ],
            [
              78.400978,
              17.396708
            ],
            [
              78.406013,
              17.398007
            ],
            [
              78.407786,
              17.399928
            ],
            [
              78.408588,
              17.3996
            ],
            [
              78.409461,
              17.399249
            ],
            [
              78.410314,
              17.398905
            ],
            [
              78.411157,
              17.398568
            ],
            [
              78.413345,
              17.398583
            ],
            [
              78.414732,
              17.398589
            ],
            [
              78.415672,
              17.398601
            ],
            [
              78.416308,
              17.398425
            ],
            [
              78.416146,
              17.398595
            ],
            [
              78.41359,
              17.399979
            ]
          ]
        ]
      }
    }
  ]
}