{
  "type": "FeatureCollection",
  "features": [
    {
      "type": "Feature",
      "properties": {},
      "geometry": {
        "type": "Polygon",
        "coordinates": [
          [
            [
              78.464956,
              17.392338
            ],
            [
              78.465237,
              17.391949
            ],
            [
              78.465242,
              17.391927
            ],
            [
              78.465392,
              17.391752
            ],
            [
              78.46575,
              17.391409
            ],
            [
              78.465969,
              17.391206
            ],
            [
              78.466166,
              17.391156
            ],
            [
              78.466516,
              17.391546
            ],
            [
              78.4667,
              17.392216
            ],
            [
              78.466082,
              17.392339
            ],
            [
              78.465805,
              17.392397
            ],
            [
              78.465365,
              17.392363
            ],
            [
              78.464956,
              17.392338
            ]
          ]
        ]
      }
    }
  ]
}