{
  "type": "FeatureCollection",
  "features": [
    {
      "type": "Feature",
      "properties": {},
      "geometry": {
        "type": "Polygon",
        "coordinates": [
          [
            [
              78.429125,
              17.371652
            ],
            [
              78.423314,
              17.37174
            ],
            [
              78.42105,
              17.37174
            ],
            [
              78.414841,
              17.370601
            ],
            [
              78.411385,
              17.370923
            ],
            [
              78.409427,
              17.369142
            ],
            [
              78.408326,
              17.364033
            ],
            [
              78.410773,
              17.360296
            ],
            [
              78.407745,
              17.355246
            ],
            [
              78.415728,
              17.346283
            ],
            [
              78.419276,
              17.353611
            ],
            [
              78.425662,
              17.359763
            ],
            [
              78.428307,
              17.363951
            ],
            [
              78.42987,
              17.363435
            ],
            [
              78.431693,
              17.362899
            ],
            [
              78.435861,
              17.361714
            ],
            [
              78.434998,
              17.362836
            ],
            [
              78.429125,
              17.371652
            ]
          ]
        ]
      }
    }
  ]
}