{
  "type": "FeatureCollection",
  "features": [
    {
      "type": "Feature",
      "properties": {},
      "geometry": {
        "type": "Polygon",
        "coordinates": [
          [
            [
              78.428316,
              17.363887
            ],
            [
              78.425633,
              17.35962
            ],
            [
              78.425774,
              17.358918
            ],
            [
              78.427737,
              17.360416
            ],
            [
              78.434397,
              17.355953
            ],
            [
              78.435328,
              17.359335
            ],
            [
              78.435755,
              17.361708
            ],
            [
              78.433697,
              17.362298
            ],
            [
              78.432659,
              17.362601
            ],
            [
              78.431549,
              17.362904
            ],
            [
              78.428316,
              17.363887
            ]
          ]
        ]
      }
    }
  ]
}