{
  "type": "FeatureCollection",
  "features": [
    {
      "type": "Feature",
      "properties": {},
      "geometry": {
        "type": "Polygon",
        "coordinates": [
          [
            [
              78.461284,
              17.370428
            ],
            [
              78.459939,
              17.369887
            ],
            [
              78.459275,
              17.369632
            ],
            [
              78.458401,
              17.369274
            ],
            [
              78.458725,
              17.369095
            ],
            [
              78.45954,
              17.369486
            ],
            [
              78.460368,
              17.369855
            ],
            [
              78.461169,
              17.370197
            ],
            [
              78.46222,
              17.370669
            ],
            [
              78.463074,
              17.370844
            ],
            [
              78.463433,
              17.371007
            ],
            [
              78.464595,
              17.370956
            ],
            [
              78.465156,
              17.370984
            ],
            [
              78.468896,
              17.371446
            ],
            [
              78.468869,
              17.372429
            ],
            [
              78.472078,
              17.380155
            ],
            [
              78.461305,
              17.379773
            ],
            [
              78.463873,
              17.377418
            ],
            [
              78.463793,
              17.377125
            ],
            [
              78.463702,
              17.376803
            ],
            [
              78.463517,
              17.376144
            ],
            [
              78.463146,
              17.374816
            ],
            [
              78.463036,
              17.374429
            ],
            [
              78.462927,
              17.374014
            ],
            [
              78.462799,
              17.373117
            ],
            [
              78.462638,
              17.372019
            ],
            [
              78.462482,
              17.370919
            ],
            [
              78.462209,
              17.370818
            ],
            [
              78.461899,
              17.370686
            ],
            [
              78.461284,
              17.370428
            ]
          ]
        ]
      }
    }
  ]
}