{
  "type": "FeatureCollection",
  "features": [
    {
      "type": "Feature",
      "properties": {},
      "geometry": {
        "type": "Polygon",
        "coordinates": [
          [
            [
              78.462872,
              17.391487
            ],
            [
              78.462561,
              17.394068
            ],
            [
              78.459295,
              17.392962
            ],
            [
              78.456982,
              17.392986
            ],
            [
              78.455751,
              17.392043
            ],
            [
              78.455435,
              17.391676
            ],
            [
              78.455139,
              17.388654
            ],
            [
              78.458053,
              17.385205
            ],
            [
              78.461154,
              17.384291
            ],
            [
              78.462872,
              17.391487
            ]
          ]
        ]
      }
    }
  ]
}