{
  "type": "FeatureCollection",
  "features": [
    {
      "type": "Feature",
      "properties": {},
      "geometry": {
        "type": "Polygon",
        "coordinates": [
          [
            [
              78.458027,
              17.385182
            ],
            [
              78.46018,
              17.383323
            ],
            [
              78.460348,
              17.382932
            ],
            [
              78.46121,
              17.382515
            ],
            [
              78.463674,
              17.382451
            ],
            [
              78.466152,
              17.383178
            ],
            [
              78.467565,
              17.389258
            ],
            [
              78.467645,
              17.390459
            ],
            [
              78.467712,
              17.39074
            ],
            [
              78.466139,
              17.391002
            ],
            [
              78.465316,
              17.391794
            ],
            [
              78.463824,
              17.393428
            ],
            [
              78.462588,
              17.394085
            ],
            [
              78.462726,
              17.392982
            ],
            [
              78.462917,
              17.391523
            ],
            [
              78.462577,
              17.390127
            ],
            [
              78.462232,
              17.38867
            ],
            [
              78.461889,
              17.387215
            ],
            [
              78.461539,
              17.385741
            ],
            [
              78.461189,
              17.384253
            ],
            [
              78.458027,
              17.385182
            ]
          ]
        ]
      }
    }
  ]
}