{
  "type": "FeatureCollection",
  "features": [
    {
      "type": "Feature",
      "properties": {},
      "geometry": {
        "type": "Polygon",
        "coordinates": [
          [
            [
              78.430952,
              17.462351
            ],
            [
              78.432104,
              17.46235
            ],
            [
              78.434581,
              17.462735
            ],
            [
              78.438325,
              17.469768
            ],
            [
              78.431412,
              17.471911
            ],
            [
              78.427611,
              17.473466
            ],
            [
              78.423694,
              17.475647
            ],
            [
              78.420456,
              17.47774
            ],
            [
              78.418717,
              17.478931
            ],
            [
              78.417195,
              17.480301
            ],
            [
              78.415205,
              17.478468
            ],
            [
              78.413672,
              17.475977
            ],
            [
              78.411543,
              17.469384
            ],
            [
              78.412866,
              17.466472
            ],
            [
              78.420987,
              17.464878
            ],
            [
              78.42529,
              17.462673
            ],
            [
              78.430952,
              17.462351
            ]
          ]
        ]
      }
    }
  ]
}