{
  "type": "FeatureCollection",
  "features": [
    {
      "type": "Feature",
      "properties": {},
      "geometry": {
        "type": "Polygon",
        "coordinates": [
          [
            [
              78.402844,
              17.493501
            ],
            [
              78.403983,
              17.492921
            ],
            [
              78.404428,
              17.493667
            ],
            [
              78.404836,
              17.494486
            ],
            [
              78.405753,
              17.496049
            ],
            [
              78.406712,
              17.496914
            ],
            [
              78.407276,
              17.497976
            ],
            [
              78.40905,
              17.500367
            ],
            [
              78.408497,
              17.501537
            ],
            [
              78.408108,
              17.502717
            ],
            [
              78.407605,
              17.506386
            ],
            [
              78.407785,
              17.507366
            ],
            [
              78.40981,
              17.508276
            ],
            [
              78.410183,
              17.508403
            ],
            [
              78.410428,
              17.508663
            ],
            [
              78.410753,
              17.509741
            ],
            [
              78.412807,
              17.512077
            ],
            [
              78.414446,
              17.513686
            ],
            [
              78.419851,
              17.51266
            ],
            [
              78.422084,
              17.514848
            ],
            [
              78.419279,
              17.522166
            ],
            [
              78.418379,
              17.524992
            ],
            [
              78.409118,
              17.528979
            ],
            [
              78.408641,
              17.527011
            ],
            [
              78.402555,
              17.512678
            ],
            [
              78.400408,
              17.506787
            ],
            [
              78.399801,
              17.506227
            ],
            [
              78.399272,
              17.505089
            ],
            [
              78.398609,
              17.503097
            ],
            [
              78.398439,
              17.502523
            ],
            [
              78.398357,
              17.502148
            ],
            [
              78.398325,
              17.501766
            ],
            [
              78.398539,
              17.501004
            ],
            [
              78.39852,
              17.500382
            ],
            [
              78.397868,
              17.498039
            ],
            [
              78.397534,
              17.497155
            ],
            [
              78.397329,
              17.495637
            ],
            [
              78.402844,
              17.493501
            ]
          ]
        ]
      }
    }
  ]
}