{
  "type": "FeatureCollection",
  "features": [
    {
      "type": "Feature",
      "properties": {},
      "geometry": {
        "type": "Polygon",
        "coordinates": [
          [
            [
              78.622068,
              17.416188
            ],
            [
              78.632681,
              17.417936
            ],
            [
              78.633687,
              17.417616
            ],
            [
              78.639862,
              17.414157
            ],
            [
              78.645567,
              17.41121
            ],
            [
              78.651072,
              17.409416
            ],
            [
              78.654428,
              17.408967
            ],
            [
              78.654629,
              17.41321
            ],
            [
              78.653218,
              17.419299
            ],
            [
              78.649593,
              17.427887
            ],
            [
              78.651809,
              17.429937
            ],
            [
              78.653486,
              17.43243
            ],
            [
              78.658727,
              17.434994
            ],
            [
              78.664235,
              17.437303
            ],
            [
              78.666851,
              17.439392
            ],
            [
              78.671621,
              17.442338
            ],
            [
              78.680689,
              17.442402
            ],
            [
              78.685869,
              17.443872
            ],
            [
              78.692987,
              17.448744
            ],
            [
              78.692984,
              17.452076
            ],
            [
              78.681222,
              17.462711
            ],
            [
              78.668549,
              17.457651
            ],
            [
              78.670153,
              17.469437
            ],
            [
              78.668204,
              17.476289
            ],
            [
              78.661154,
              17.479876
            ],
            [
              78.599853,
              17.481514
            ],
            [
              78.614518,
              17.473167
            ],
            [
              78.615683,
              17.458517
            ],
            [
              78.620406,
              17.445901
            ],
            [
              78.622745,
              17.429257
            ],
            [
              78.622408,
              17.422836
            ],
            [
              78.622068,
              17.416188
            ]
          ]
        ]
      }
    }
  ]
}