{
  "type": "FeatureCollection",
  "features": [
    {
      "type": "Feature",
      "properties": {},
      "geometry": {
        "type": "Polygon",
        "coordinates": [
          [
            [
              78.527503,
              17.428578
            ],
            [
              78.532577,
              17.425926
            ],
            [
              78.536043,
              17.424823
            ],
            [
              78.539381,
              17.421577
            ],
            [
              78.543071,
              17.417903
            ],
            [
              78.546505,
              17.414657
            ],
            [
              78.554212,
              17.407148
            ],
            [
              78.554106,
              17.410437
            ],
            [
              78.553965,
              17.414987
            ],
            [
              78.555275,
              17.419365
            ],
            [
              78.559462,
              17.422126
            ],
            [
              78.570068,
              17.425617
            ],
            [
              78.582211,
              17.425768
            ],
            [
              78.583211,
              17.429681
            ],
            [
              78.575377,
              17.432704
            ],
            [
              78.570014,
              17.435786
            ],
            [
              78.566931,
              17.437255
            ],
            [
              78.558216,
              17.432344
            ],
            [
              78.548845,
              17.435804
            ],
            [
              78.536778,
              17.432957
            ],
            [
              78.527503,
              17.428578
            ]
          ]
        ]
      }
    }
  ]
}