{
  "type": "FeatureCollection",
  "features": [
    {
      "type": "Feature",
      "properties": {},
      "geometry": {
        "type": "Polygon",
        "coordinates": [
          [
            [
              78.581679,
              17.401686
            ],
            [
              78.58831,
              17.397411
            ],
            [
              78.584967,
              17.38865
            ],
            [
              78.610487,
              17.387436
            ],
            [
              78.615714,
              17.386673
            ],
            [
              78.617456,
              17.400781
            ],
            [
              78.615447,
              17.41312
            ],
            [
              78.613129,
              17.412014
            ],
            [
              78.609653,
              17.41226
            ],
            [
              78.606778,
              17.411154
            ],
            [
              78.602915,
              17.409721
            ],
            [
              78.594847,
              17.406978
            ],
            [
              78.589902,
              17.405335
            ],
            [
              78.586426,
              17.404024
            ],
            [
              78.583808,
              17.403123
            ],
            [
              78.581679,
              17.401686
            ]
          ]
        ]
      }
    }
  ]
}