{
  "type": "FeatureCollection",
  "features": [
    {
      "type": "Feature",
      "properties": {},
      "geometry": {
        "type": "Polygon",
        "coordinates": [
          [
            [
              78.575585,
              17.468081
            ],
            [
              78.582044,
              17.460693
            ],
            [
              78.590473,
              17.447321
            ],
            [
              78.590494,
              17.430194
            ],
            [
              78.590815,
              17.418821
            ],
            [
              78.591179,
              17.409146
            ],
            [
              78.591308,
              17.40759
            ],
            [
              78.591407,
              17.406531
            ],
            [
              78.598244,
              17.408337
            ],
            [
              78.604402,
              17.410649
            ],
            [
              78.6096,
              17.412536
            ],
            [
              78.612982,
              17.412296
            ],
            [
              78.615203,
              17.413307
            ],
            [
              78.618786,
              17.414608
            ],
            [
              78.62136,
              17.416052
            ],
            [
              78.621815,
              17.429339
            ],
            [
              78.619695,
              17.44641
            ],
            [
              78.615203,
              17.458018
            ],
            [
              78.613588,
              17.472751
            ],
            [
              78.599506,
              17.480886
            ],
            [
              78.59668,
              17.477276
            ],
            [
              78.575585,
              17.468081
            ]
          ]
        ]
      }
    }
  ]
}