{
  "type": "FeatureCollection",
  "features": [
    {
      "type": "Feature",
      "properties": {},
      "geometry": {
        "type": "Polygon",
        "coordinates": [
          [
            [
              78.560099,
              17.402031
            ],
            [
              78.562077,
              17.401603
            ],
            [
              78.56734,
              17.401437
            ],
            [
              78.575669,
              17.402098
            ],
            [
              78.580529,
              17.401601
            ],
            [
              78.583711,
              17.403245
            ],
            [
              78.580297,
              17.405366
            ],
            [
              78.582253,
              17.425442
            ],
            [
              78.569928,
              17.425216
            ],
            [
              78.559505,
              17.421815
            ],
            [
              78.555407,
              17.418868
            ],
            [
              78.554278,
              17.414074
            ],
            [
              78.554783,
              17.407047
            ],
            [
              78.560099,
              17.402031
            ]
          ]
        ]
      }
    }
  ]
}