{
  "type": "FeatureCollection",
  "features": [
    {
      "type": "Feature",
      "properties": {},
      "geometry": {
        "type": "Polygon",
        "coordinates": [
          [
            [
              78.583817,
              17.403334
            ],
            [
              78.591099,
              17.406065
            ],
            [
              78.590994,
              17.406413
            ],
            [
              78.590179,
              17.427782
            ],
            [
              78.590154,
              17.446829
            ],
            [
              78.581548,
              17.460632
            ],
            [
              78.570647,
              17.472824
            ],
            [
              78.568448,
              17.47162
            ],
            [
              78.563839,
              17.467422
            ],
            [
              78.558176,
              17.46053
            ],
            [
              78.55639,
              17.457032
            ],
            [
              78.556915,
              17.456332
            ],
            [
              78.562803,
              17.451577
            ],
            [
              78.56165,
              17.448487
            ],
            [
              78.566879,
              17.438112
            ],
            [
              78.57557,
              17.433016
            ],
            [
              78.583847,
              17.430222
            ],
            [
              78.582455,
              17.425308
            ],
            [
              78.581474,
              17.414623
            ],
            [
              78.580771,
              17.408814
            ],
            [
              78.580383,
              17.405464
            ],
            [
              78.583817,
              17.403334
            ]
          ]
        ]
      }
    }
  ]
}