{
  "type": "FeatureCollection",
  "features": [
    {
      "type": "Feature",
      "properties": {},
      "geometry": {
        "type": "Polygon",
        "coordinates": [
          [
            [
              72.841192,
              19.184111
            ],
            [
              72.846427,
              19.18656
            ],
            [
              72.848829,
              19.212866
            ],
            [
              72.854207,
              19.225206
            ],
            [
              72.846482,
              19.230413
            ],
            [
              72.825325,
              19.213483
            ],
            [
              72.824495,
              19.213885
            ],
            [
              72.830093,
              19.196263
            ],
            [
              72.830533,
              19.188424
            ],
            [
              72.830533,
              19.188577
            ],
            [
              72.841192,
              19.184111
            ]
          ]
        ]
      }
    }
  ]
}