{
  "type": "FeatureCollection",
  "features": [
    {
      "type": "Feature",
      "properties": {},
      "geometry": {
        "type": "Polygon",
        "coordinates": [
          [
            [
              78.488473,
              17.432608
            ],
            [
              78.490854,
              17.431647
            ],
            [
              78.492687,
              17.431658
            ],
            [
              78.493159,
              17.433421
            ],
            [
              78.493315,
              17.4339
            ],
            [
              78.49329,
              17.434346
            ],
            [
              78.493444,
              17.435255
            ],
            [
              78.493915,
              17.436773
            ],
            [
              78.494147,
              17.437568
            ],
            [
              78.494764,
              17.438208
            ],
            [
              78.494953,
              17.438627
            ],
            [
              78.495111,
              17.43942
            ],
            [
              78.495326,
              17.440609
            ],
            [
              78.495524,
              17.44299
            ],
            [
              78.493537,
              17.443234
            ],
            [
              78.487453,
              17.443285
            ],
            [
              78.487614,
              17.44214
            ],
            [
              78.487843,
              17.44103
            ],
            [
              78.488686,
              17.43867
            ],
            [
              78.488473,
              17.432608
            ]
          ]
        ]
      }
    }
  ]
}