{
  "type": "FeatureCollection",
  "features": [
    {
      "type": "Feature",
      "properties": {},
      "geometry": {
        "type": "Polygon",
        "coordinates": [
          [
            [
              78.485588,
              17.395142
            ],
            [
              78.486559,
              17.395983
            ],
            [
              78.487172,
              17.396178
            ],
            [
              78.4879,
              17.395983
            ],
            [
              78.49026,
              17.395514
            ],
            [
              78.493385,
              17.398529
            ],
            [
              78.497147,
              17.395955
            ],
            [
              78.498918,
              17.395602
            ],
            [
              78.501695,
              17.39535
            ],
            [
              78.503051,
              17.396195
            ],
            [
              78.502745,
              17.396714
            ],
            [
              78.502384,
              17.39727
            ],
            [
              78.502786,
              17.399114
            ],
            [
              78.50295,
              17.400474
            ],
            [
              78.503474,
              17.401859
            ],
            [
              78.50429,
              17.403828
            ],
            [
              78.502304,
              17.404487
            ],
            [
              78.500551,
              17.405159
            ],
            [
              78.496698,
              17.406613
            ],
            [
              78.495244,
              17.403393
            ],
            [
              78.48746,
              17.405453
            ],
            [
              78.487779,
              17.409262
            ],
            [
              78.486236,
              17.409821
            ],
            [
              78.478412,
              17.412715
            ],
            [
              78.475756,
              17.4086
            ],
            [
              78.471082,
              17.407495
            ],
            [
              78.468997,
              17.407739
            ],
            [
              78.468292,
              17.407528
            ],
            [
              78.467732,
              17.406823
            ],
            [
              78.467351,
              17.405911
            ],
            [
              78.467512,
              17.40473
            ],
            [
              78.467781,
              17.402985
            ],
            [
              78.468911,
              17.40201
            ],
            [
              78.470701,
              17.401097
            ],
            [
              78.47481,
              17.401296
            ],
            [
              78.475828,
              17.401288
            ],
            [
              78.477226,
              17.400735
            ],
            [
              78.479408,
              17.399639
            ],
            [
              78.481645,
              17.398648
            ],
            [
              78.48354,
              17.397519
            ],
            [
              78.484675,
              17.396588
            ],
            [
              78.485588,
              17.395142
            ]
          ]
        ]
      }
    }
  ]
}