{
  "type": "FeatureCollection",
  "features": [
    {
      "type": "Feature",
      "properties": {},
      "geometry": {
        "type": "Polygon",
        "coordinates": [
          [
            [
              78.470567,
              17.44431
            ],
            [
              78.472027,
              17.444252
            ],
            [
              78.475189,
              17.443849
            ],
            [
              78.478196,
              17.443623
            ],
            [
              78.483698,
              17.44359
            ],
            [
              78.487322,
              17.443459
            ],
            [
              78.486915,
              17.445755
            ],
            [
              78.487303,
              17.44658
            ],
            [
              78.487433,
              17.447596
            ],
            [
              78.487199,
              17.449381
            ],
            [
              78.486083,
              17.451636
            ],
            [
              78.484305,
              17.451519
            ],
            [
              78.482112,
              17.452434
            ],
            [
              78.476945,
              17.452507
            ],
            [
              78.475785,
              17.451774
            ],
            [
              78.471013,
              17.448861
            ],
            [
              78.470567,
              17.44431
            ]
          ]
        ]
      }
    }
  ]
}