{
  "type": "FeatureCollection",
  "features": [
    {
      "type": "Feature",
      "properties": {},
      "geometry": {
        "type": "Polygon",
        "coordinates": [
          [
            [
              78.506223,
              17.386038
            ],
            [
              78.507481,
              17.386098
            ],
            [
              78.50887,
              17.386098
            ],
            [
              78.513037,
              17.384957
            ],
            [
              78.515169,
              17.382429
            ],
            [
              78.517209,
              17.380382
            ],
            [
              78.518189,
              17.382253
            ],
            [
              78.516814,
              17.385296
            ],
            [
              78.516394,
              17.388714
            ],
            [
              78.516139,
              17.391913
            ],
            [
              78.510856,
              17.391165
            ],
            [
              78.507409,
              17.390735
            ],
            [
              78.505922,
              17.390248
            ],
            [
              78.504451,
              17.389373
            ],
            [
              78.504564,
              17.3928
            ],
            [
              78.504443,
              17.393577
            ],
            [
              78.504092,
              17.394093
            ],
            [
              78.50285,
              17.394649
            ],
            [
              78.501545,
              17.395003
            ],
            [
              78.499541,
              17.395175
            ],
            [
              78.497483,
              17.395793
            ],
            [
              78.497249,
              17.395647
            ],
            [
              78.493358,
              17.398245
            ],
            [
              78.490279,
              17.395411
            ],
            [
              78.488286,
              17.395792
            ],
            [
              78.487565,
              17.395992
            ],
            [
              78.487225,
              17.396037
            ],
            [
              78.48689,
              17.395997
            ],
            [
              78.486296,
              17.395651
            ],
            [
              78.485654,
              17.394626
            ],
            [
              78.483764,
              17.393832
            ],
            [
              78.485399,
              17.390299
            ],
            [
              78.485797,
              17.389425
            ],
            [
              78.48596,
              17.388312
            ],
            [
              78.486259,
              17.387012
            ],
            [
              78.482498,
              17.382588
            ],
            [
              78.485293,
              17.38081
            ],
            [
              78.487415,
              17.380635
            ],
            [
              78.489085,
              17.381119
            ],
            [
              78.490436,
              17.386295
            ],
            [
              78.493682,
              17.385518
            ],
            [
              78.497558,
              17.384893
            ],
            [
              78.502013,
              17.385757
            ],
            [
              78.506223,
              17.386038
            ]
          ]
        ]
      }
    }
  ]
}