{
  "type": "FeatureCollection",
  "features": [
    {
      "type": "Feature",
      "properties": {},
      "geometry": {
        "type": "Polygon",
        "coordinates": [
          [
            [
              78.339639,
              17.554916
            ],
            [
              78.353714,
              17.541512
            ],
            [
              78.354905,
              17.522726
            ],
            [
              78.34384,
              17.525191
            ],
            [
              78.341911,
              17.515888
            ],
            [
              78.351903,
              17.509051
            ],
            [
              78.349511,
              17.500704
            ],
            [
              78.347969,
              17.494335
            ],
            [
              78.349571,
              17.494054
            ],
            [
              78.3512,
              17.494043
            ],
            [
              78.361523,
              17.496753
            ],
            [
              78.368639,
              17.496732
            ],
            [
              78.368042,
              17.507926
            ],
            [
              78.365456,
              17.518174
            ],
            [
              78.355984,
              17.524064
            ],
            [
              78.36346,
              17.530902
            ],
            [
              78.371423,
              17.537338
            ],
            [
              78.377386,
              17.544068
            ],
            [
              78.378092,
              17.552327
            ],
            [
              78.375508,
              17.560871
            ],
            [
              78.362763,
              17.561639
            ],
            [
              78.33894,
              17.562028
            ],
            [
              78.339639,
              17.554916
            ]
          ]
        ]
      }
    }
  ]
}