{
  "type": "FeatureCollection",
  "features": [
    {
      "type": "Feature",
      "properties": {},
      "geometry": {
        "type": "Polygon",
        "coordinates": [
          [
            [
              78.395052,
              17.496316
            ],
            [
              78.393886,
              17.493321
            ],
            [
              78.39159,
              17.487879
            ],
            [
              78.390408,
              17.484976
            ],
            [
              78.389436,
              17.482449
            ],
            [
              78.389601,
              17.480934
            ],
            [
              78.390561,
              17.477809
            ],
            [
              78.388539,
              17.474784
            ],
            [
              78.38722,
              17.471455
            ],
            [
              78.392074,
              17.469432
            ],
            [
              78.394501,
              17.473482
            ],
            [
              78.39579,
              17.476375
            ],
            [
              78.395563,
              17.478181
            ],
            [
              78.394502,
              17.482517
            ],
            [
              78.398824,
              17.484034
            ],
            [
              78.4005,
              17.484613
            ],
            [
              78.403265,
              17.493146
            ],
            [
              78.399072,
              17.495
            ],
            [
              78.397233,
              17.495811
            ],
            [
              78.395052,
              17.496316
            ]
          ]
        ]
      }
    }
  ]
}