{
  "type": "FeatureCollection",
  "features": [
    {
      "type": "Feature",
      "properties": {},
      "geometry": {
        "type": "Polygon",
        "coordinates": [
          [
            [
              78.378743,
              17.507233
            ],
            [
              78.383572,
              17.499527
            ],
            [
              78.390086,
              17.498749
            ],
            [
              78.387892,
              17.515656
            ],
            [
              78.387402,
              17.518149
            ],
            [
              78.382836,
              17.529505
            ],
            [
              78.381615,
              17.540069
            ],
            [
              78.377865,
              17.543335
            ],
            [
              78.371174,
              17.5428
            ],
            [
              78.364076,
              17.540392
            ],
            [
              78.36587,
              17.533704
            ],
            [
              78.374612,
              17.528496
            ],
            [
              78.374532,
              17.52354
            ],
            [
              78.3771,
              17.519721
            ],
            [
              78.379411,
              17.513159
            ],
            [
              78.378743,
              17.507233
            ]
          ]
        ]
      }
    }
  ]
}